{
"type": "FeatureCollection",
"name": "EGKK.signs",
"crs": { "type": "name", "properties": { "name": "urn:ogc:def:crs:OGC:1.3:CRS84" } },
"features": [
{ "type": "Feature", "properties": { "heading": 167.0, "size": "LARGE", "text": "{@L}101" }, "geometry": { "type": "Point", "coordinates": [ -0.17695609, 51.15635012 ] } },
{ "type": "Feature", "properties": { "heading": 256.5, "size": "MEDIUM", "text": "{@L}J{@Y,^l}M" }, "geometry": { "type": "Point", "coordinates": [ -0.166406, 51.15441887 ] } },
{ "type": "Feature", "properties": { "heading": 166.9, "size": "MEDIUM", "text": "{@L}M{@Y,^l}AN{^ru}" }, "geometry": { "type": "Point", "coordinates": [ -0.1665, 51.15373886 ] } },
{ "type": "Feature", "properties": { "heading": 252.5, "size": "MEDIUM", "text": "{@L}Z{@Y,^l}M{^r}" }, "geometry": { "type": "Point", "coordinates": [ -0.16619209, 51.15381706 ] } },
{ "type": "Feature", "properties": { "heading": 82.4, "size": "MEDIUM", "text": "{@L}J{@Y}W{^r}" }, "geometry": { "type": "Point", "coordinates": [ -0.16588951, 51.154504 ] } },
{ "type": "Feature", "properties": { "heading": 348.3, "size": "MEDIUM", "text": "{@Y,^l}Z{@L}W" }, "geometry": { "type": "Point", "coordinates": [ -0.1651918, 51.15392174 ] } },
{ "type": "Feature", "properties": { "heading": 347.8, "size": "MEDIUM", "text": "{@Y,^l}J{@L}W" }, "geometry": { "type": "Point", "coordinates": [ -0.16547519, 51.15441627 ] } },
{ "type": "Feature", "properties": { "heading": 167.1, "size": "MEDIUM", "text": "{@L}M{@Y,^l}Z{^r}" }, "geometry": { "type": "Point", "coordinates": [ -0.16667131, 51.15422848 ] } },
{ "type": "Feature", "properties": { "heading": 71.3, "size": "MEDIUM", "text": "{@L}Z{@Y,^l}W{^r}" }, "geometry": { "type": "Point", "coordinates": [ -0.16556778, 51.15427548 ] } },
{ "type": "Feature", "properties": { "heading": 94.6, "size": "MEDIUM", "text": "{@L}J{@Y}M{^r}" }, "geometry": { "type": "Point", "coordinates": [ -0.16821581, 51.15407557 ] } },
{ "type": "Feature", "properties": { "heading": 265.1, "size": "MEDIUM", "text": "{@R}26R{@L}Z1" }, "geometry": { "type": "Point", "coordinates": [ -0.16885716, 51.15392883 ] } },
{ "type": "Feature", "properties": { "heading": 56.8, "size": "MEDIUM", "text": "{@L}Z{@Y}A{^r}" }, "geometry": { "type": "Point", "coordinates": [ -0.16903334, 51.15391173 ] } },
{ "type": "Feature", "properties": { "heading": 54.5, "size": "MEDIUM", "text": "{@L}Z{@Y,^l}M{^r}" }, "geometry": { "type": "Point", "coordinates": [ -0.16818038, 51.15400092 ] } },
{ "type": "Feature", "properties": { "heading": 257.5, "size": "MEDIUM", "text": "{@Y,^l}M|{^lu}AN{@L}AN{@Y}M{^r}" }, "geometry": { "type": "Point", "coordinates": [ -0.1660435, 51.15341342 ] } },
{ "type": "Feature", "properties": { "heading": 330.0, "size": "MEDIUM", "text": "{@L}M{@Y,^l}AN|V{^r}" }, "geometry": { "type": "Point", "coordinates": [ -0.16721772, 51.15267734 ] } },
{ "type": "Feature", "properties": { "heading": 167.5, "size": "MEDIUM", "text": "{@Y,^l}V{@L}M" }, "geometry": { "type": "Point", "coordinates": [ -0.16627618, 51.15313003 ] } },
{ "type": "Feature", "properties": { "heading": 78.3, "size": "MEDIUM", "text": "{@L}AN{@Y,^l}W{^r}" }, "geometry": { "type": "Point", "coordinates": [ -0.16537385, 51.15382287 ] } },
{ "type": "Feature", "properties": { "heading": 344.5, "size": "MEDIUM", "text": "{@Y,^l}AN{@L}W" }, "geometry": { "type": "Point", "coordinates": [ -0.16509485, 51.15333409 ] } },
{ "type": "Feature", "properties": { "heading": 74.8, "size": "MEDIUM", "text": "{@Y,^l}W{@L}V{@Y}Y{^r}" }, "geometry": { "type": "Point", "coordinates": [ -0.1654951, 51.15309823 ] } },
{ "type": "Feature", "properties": { "heading": 254.4, "size": "MEDIUM", "text": "{@L}V{@Y,^l}M{^r}" }, "geometry": { "type": "Point", "coordinates": [ -0.16575095, 51.15262445 ] } },
{ "type": "Feature", "properties": { "heading": 240.9, "size": "MEDIUM", "text": "{@Y,^l}Y{@L}V{@Y}W{^r}" }, "geometry": { "type": "Point", "coordinates": [ -0.16396987, 51.1528638 ] } },
{ "type": "Feature", "properties": { "heading": 333.7, "size": "MEDIUM", "text": "{@Y,^l}26R{@L}C{@Y}AN{^r}" }, "geometry": { "type": "Point", "coordinates": [ -0.17821023, 51.15088549 ] } },
{ "type": "Feature", "properties": { "heading": 182.4, "size": "MEDIUM", "text": "{@L}QA{@Y}QC{^r}" }, "geometry": { "type": "Point", "coordinates": [ -0.18222539, 51.16064337 ] } },
{ "type": "Feature", "properties": { "heading": 27.6, "size": "MEDIUM", "text": "{@L}QC{@Y,^lu}QA{^rd}" }, "geometry": { "type": "Point", "coordinates": [ -0.18223555, 51.16062765 ] } },
{ "type": "Feature", "properties": { "heading": 324.1, "size": "MEDIUM", "text": "{@Y,^l}QC{@L}QA" }, "geometry": { "type": "Point", "coordinates": [ -0.18165786, 51.15952917 ] } },
{ "type": "Feature", "properties": { "heading": 198.9, "size": "MEDIUM", "text": "{@L}QA{@Y}QB{^r}" }, "geometry": { "type": "Point", "coordinates": [ -0.18126092, 51.15810495 ] } },
{ "type": "Feature", "properties": { "heading": 146.9, "size": "MEDIUM", "text": "{@Y,^l}QB{@L}Q" }, "geometry": { "type": "Point", "coordinates": [ -0.18139233, 51.15809495 ] } },
{ "type": "Feature", "properties": { "heading": 50.3, "size": "MEDIUM", "text": "{@L}QB{@Y,^l}QA{^r}" }, "geometry": { "type": "Point", "coordinates": [ -0.18131777, 51.15805399 ] } },
{ "type": "Feature", "properties": { "heading": 134.4, "size": "MEDIUM", "text": "{@Y,^l}L{@L}Q{@Y}Q{^ru}|L{^r}" }, "geometry": { "type": "Point", "coordinates": [ -0.18111399, 51.15721002 ] } },
{ "type": "Feature", "properties": { "heading": 229.1, "size": "MEDIUM", "text": "{@L}QB{@Y,^l}Q{^r}" }, "geometry": { "type": "Point", "coordinates": [ -0.1810224, 51.1572261 ] } },
{ "type": "Feature", "properties": { "heading": 346.2, "size": "LARGE", "text": "{@L}S{@Y}L{^r}" }, "geometry": { "type": "Point", "coordinates": [ -0.18888627, 51.15521983 ] } },
{ "type": "Feature", "properties": { "heading": 258.6, "size": "LARGE", "text": "{@Y,^l}S{@L}L" }, "geometry": { "type": "Point", "coordinates": [ -0.18754581, 51.15546757 ] } },
{ "type": "Feature", "properties": { "heading": 126.5, "size": "LARGE", "text": "{@L}L{@Y}R{^r}" }, "geometry": { "type": "Point", "coordinates": [ -0.18417129, 51.15607327 ] } },
{ "type": "Feature", "properties": { "heading": 350.5, "size": "LARGE", "text": "{@L}R{@Y,^l}L{^r}" }, "geometry": { "type": "Point", "coordinates": [ -0.18405683, 51.15602541 ] } },
{ "type": "Feature", "properties": { "heading": 141.3, "size": "LARGE", "text": "{@Y,^l}K{@L}R" }, "geometry": { "type": "Point", "coordinates": [ -0.18245171, 51.15495131 ] } },
{ "type": "Feature", "properties": { "heading": 77.5, "size": "MEDIUM", "text": "{@L}L{@Y,^l}Q{^r}" }, "geometry": { "type": "Point", "coordinates": [ -0.18303514, 51.15684346 ] } },
{ "type": "Feature", "properties": { "heading": 194.2, "size": "MEDIUM", "text": "{@L}QA{@Y,^l}L{^r}" }, "geometry": { "type": "Point", "coordinates": [ -0.18090566, 51.15722559 ] } },
{ "type": "Feature", "properties": { "heading": 271.3, "size": "MEDIUM", "text": "{@L}L{@Y}Q{^r}" }, "geometry": { "type": "Point", "coordinates": [ -0.18104392, 51.15715657 ] } },
{ "type": "Feature", "properties": { "heading": 314.2, "size": "MEDIUM", "text": "{@Y,^l}QB{@L}QA" }, "geometry": { "type": "Point", "coordinates": [ -0.18091604, 51.15720656 ] } },
{ "type": "Feature", "properties": { "heading": 52.3, "size": "MEDIUM", "text": "{@Y,^l}QA{@L}L" }, "geometry": { "type": "Point", "coordinates": [ -0.18107682, 51.15715528 ] } },
{ "type": "Feature", "properties": { "heading": 238.2, "size": "MEDIUM", "text": "{@Y,^l}R{@L}L" }, "geometry": { "type": "Point", "coordinates": [ -0.18295922, 51.15610246 ] } },
{ "type": "Feature", "properties": { "heading": 257.6, "size": "MEDIUM", "text": "{@Y,^l}Q|{^lu}RA{@L}L" }, "geometry": { "type": "Point", "coordinates": [ -0.18173095, 51.15634246 ] } },
{ "type": "Feature", "properties": { "heading": 167.4, "size": "MEDIUM", "text": "{@L}Q{@Y}RA{^ru}" }, "geometry": { "type": "Point", "coordinates": [ -0.18176654, 51.15633953 ] } },
{ "type": "Feature", "properties": { "heading": 240.4, "size": "MEDIUM", "text": "{@Y,^l}Q{@L}QC" }, "geometry": { "type": "Point", "coordinates": [ -0.18207018, 51.1599466 ] } },
{ "type": "Feature", "properties": { "heading": 328.0, "size": "MEDIUM", "text": "{@L}Q{@Y}QC{^r}" }, "geometry": { "type": "Point", "coordinates": [ -0.18307985, 51.15982149 ] } },
{ "type": "Feature", "properties": { "heading": 353.9, "size": "MEDIUM", "text": "{@Y,^l}L{@L}Q{@Y}Q{^ru}|L{^r}" }, "geometry": { "type": "Point", "coordinates": [ -0.18241399, 51.15694853 ] } },
{ "type": "Feature", "properties": { "heading": 325.9, "size": "MEDIUM", "text": "{@L}Q{@Y}QB{^r}" }, "geometry": { "type": "Point", "coordinates": [ -0.18230554, 51.15716708 ] } },
{ "type": "Feature", "properties": { "heading": 327.4, "size": "MEDIUM", "text": "{@Y,^l}L{@L}Q{@Y}Q{^ru}|L{^r}" }, "geometry": { "type": "Point", "coordinates": [ -0.18258499, 51.15540604 ] } },
{ "type": "Feature", "properties": { "heading": 139.9, "size": "LARGE", "text": "{@L}Q{@Y,^l}K{^r}" }, "geometry": { "type": "Point", "coordinates": [ -0.18131055, 51.15495857 ] } },
{ "type": "Feature", "properties": { "heading": 230.6, "size": "LARGE", "text": "{@L}K{@Y,^l}R{^r}" }, "geometry": { "type": "Point", "coordinates": [ -0.18209513, 51.15391062 ] } },
{ "type": "Feature", "properties": { "heading": 49.2, "size": "LARGE", "text": "{@L}K{@Y,^l}Q{^r}" }, "geometry": { "type": "Point", "coordinates": [ -0.18245291, 51.15489165 ] } },
{ "type": "Feature", "properties": { "heading": 230.0, "size": "MEDIUM", "text": "{@L}K{@Y,^l}Q{^r}" }, "geometry": { "type": "Point", "coordinates": [ -0.18092324, 51.15423005 ] } },
{ "type": "Feature", "properties": { "heading": 320.2, "size": "MEDIUM", "text": "{@L}Q{@Y,^l}K{^r}" }, "geometry": { "type": "Point", "coordinates": [ -0.18196969, 51.15369456 ] } },
{ "type": "Feature", "properties": { "heading": 314.8, "size": "LARGE", "text": "{@L}R{@Y}R{^u}|RA{^ru}" }, "geometry": { "type": "Point", "coordinates": [ -0.18339117, 51.15435091 ] } },
{ "type": "Feature", "properties": { "heading": 140.8, "size": "LARGE", "text": "{@L}Q{@Y,^l}J{^r}" }, "geometry": { "type": "Point", "coordinates": [ -0.18048337, 51.15264522 ] } },
{ "type": "Feature", "properties": { "heading": 140.7, "size": "LARGE", "text": "{@L}Q1{@R}26R" }, "geometry": { "type": "Point", "coordinates": [ -0.18050662, 51.15262269 ] } },
{ "type": "Feature", "properties": { "heading": 204.3, "size": "LARGE", "text": "{@R}26R{@L}Q1" }, "geometry": { "type": "Point", "coordinates": [ -0.18149497, 51.15247675 ] } },
{ "type": "Feature", "properties": { "heading": 42.3, "size": "LARGE", "text": "{@Y,^l}Q{@L}08L" }, "geometry": { "type": "Point", "coordinates": [ -0.18129175, 51.15158608 ] } },
{ "type": "Feature", "properties": { "heading": 223.8, "size": "LARGE", "text": "{@L}J{@Y,^l}R{^r}" }, "geometry": { "type": "Point", "coordinates": [ -0.18133639, 51.1516541 ] } },
{ "type": "Feature", "properties": { "heading": 259.7, "size": "LARGE", "text": "{@Y}{^l}Q{^r}" }, "geometry": { "type": "Point", "coordinates": [ -0.18023372, 51.15239987 ] } },
{ "type": "Feature", "properties": { "heading": 143.6, "size": "LARGE", "text": "{@L}R{@Y,^l}J{^r}" }, "geometry": { "type": "Point", "coordinates": [ -0.18181199, 51.15278526 ] } },
{ "type": "Feature", "properties": { "heading": 135.4, "size": "LARGE", "text": "{@L}R1{@R}26R" }, "geometry": { "type": "Point", "coordinates": [ -0.18172082, 51.1525489 ] } },
{ "type": "Feature", "properties": { "heading": 52.4, "size": "LARGE", "text": "{@L}J{@Y,^l}R{^r}" }, "geometry": { "type": "Point", "coordinates": [ -0.18272424, 51.1522266 ] } },
{ "type": "Feature", "properties": { "heading": 183.8, "size": "LARGE", "text": "{@R}26R{@L}R1" }, "geometry": { "type": "Point", "coordinates": [ -0.18280858, 51.15246415 ] } },
{ "type": "Feature", "properties": { "heading": 49.5, "size": "LARGE", "text": "{@Y,^l}R{@L}08L" }, "geometry": { "type": "Point", "coordinates": [ -0.18296823, 51.15143746 ] } },
{ "type": "Feature", "properties": { "heading": 229.1, "size": "LARGE", "text": "{@L}J{@Y,^l}Q{^r}" }, "geometry": { "type": "Point", "coordinates": [ -0.17978096, 51.15188635 ] } },
{ "type": "Feature", "properties": { "heading": 137.7, "size": "LARGE", "text": "{@Y,^l}08L{@L}Q{@Y}26R{^r}" }, "geometry": { "type": "Point", "coordinates": [ -0.17990094, 51.1518514 ] } },
{ "type": "Feature", "properties": { "heading": 315.1, "size": "LARGE", "text": "{@L}R{@Y,^l}J{^r}" }, "geometry": { "type": "Point", "coordinates": [ -0.18125608, 51.15162208 ] } },
{ "type": "Feature", "properties": { "heading": 130.1, "size": "LARGE", "text": "{@Y,^l}08L{@L}D{@Y}26R{^r}" }, "geometry": { "type": "Point", "coordinates": [ -0.18137616, 51.15159502 ] } },
{ "type": "Feature", "properties": { "heading": 311.0, "size": "LARGE", "text": "{@L}R{@Y,^l}J{^r}" }, "geometry": { "type": "Point", "coordinates": [ -0.18282101, 51.15143993 ] } },
{ "type": "Feature", "properties": { "heading": 276.6, "size": "MEDIUM", "text": "{@R}26L{@L}D1" }, "geometry": { "type": "Point", "coordinates": [ -0.18375744, 51.15050116 ] } },
{ "type": "Feature", "properties": { "heading": 226.3, "size": "LARGE", "text": "{@L}26R{@Y}Q{^r}" }, "geometry": { "type": "Point", "coordinates": [ -0.17945615, 51.15096826 ] } },
{ "type": "Feature", "properties": { "heading": 226.3, "size": "LARGE", "text": "{@Y,^lu}D{@L}26R{@Y}R{^r}" }, "geometry": { "type": "Point", "coordinates": [ -0.18098726, 51.15075314 ] } },
{ "type": "Feature", "properties": { "heading": 185.4, "size": "LARGE", "text": "{@L}D1{@R}26L" }, "geometry": { "type": "Point", "coordinates": [ -0.18274169, 51.15014422 ] } },
{ "type": "Feature", "properties": { "heading": 21.9, "size": "MEDIUM", "text": "{@Y,^lu}R{@L}D{@Y}08L{^ru}" }, "geometry": { "type": "Point", "coordinates": [ -0.18423431, 51.15026662 ] } },
{ "type": "Feature", "properties": { "heading": 167.9, "size": "LARGE", "text": "{@Y,^l}J{@L}S{@Y}J{^r}" }, "geometry": { "type": "Point", "coordinates": [ -0.18667407, 51.15104906 ] } },
{ "type": "Feature", "properties": { "heading": 156.9, "size": "LARGE", "text": "{@L}ER{@R}08R" }, "geometry": { "type": "Point", "coordinates": [ -0.19848158, 51.14845967 ] } },
{ "type": "Feature", "properties": { "heading": 168.2, "size": "LARGE", "text": "{no-entry}" }, "geometry": { "type": "Point", "coordinates": [ -0.19436753, 51.1490701 ] } },
{ "type": "Feature", "properties": { "heading": 168.2, "size": "LARGE", "text": "{no-entry}" }, "geometry": { "type": "Point", "coordinates": [ -0.19561376, 51.14889668 ] } },
{ "type": "Feature", "properties": { "heading": 168.2, "size": "LARGE", "text": "{no-entry}" }, "geometry": { "type": "Point", "coordinates": [ -0.20102912, 51.14808064 ] } },
{ "type": "Feature", "properties": { "heading": 168.2, "size": "LARGE", "text": "{no-entry}" }, "geometry": { "type": "Point", "coordinates": [ -0.20199928, 51.14802058 ] } },
{ "type": "Feature", "properties": { "heading": 119.4, "size": "LARGE", "text": "{@R}08R{@L}ER" }, "geometry": { "type": "Point", "coordinates": [ -0.19983265, 51.14785852 ] } },
{ "type": "Feature", "properties": { "heading": 336.2, "size": "LARGE", "text": "{@Y,^l}V{@L}W{@Y}W{^ru}|V{^r}" }, "geometry": { "type": "Point", "coordinates": [ -0.16508255, 51.15260902 ] } },
{ "type": "Feature", "properties": { "heading": 147.3, "size": "LARGE", "text": "{@L}W1{@R}26L*APCH" }, "geometry": { "type": "Point", "coordinates": [ -0.16406753, 51.15274793 ] } },
{ "type": "Feature", "properties": { "heading": 153.1, "size": "LARGE", "text": "{@L}FR{@R}08R" }, "geometry": { "type": "Point", "coordinates": [ -0.20334148, 51.14780272 ] } },
{ "type": "Feature", "properties": { "heading": 119.4, "size": "LARGE", "text": "{@R}08R{@L}FR" }, "geometry": { "type": "Point", "coordinates": [ -0.20423641, 51.14729581 ] } },
{ "type": "Feature", "properties": { "heading": 255.8, "size": "LARGE", "text": "{@L}J{@Y}S{^r}" }, "geometry": { "type": "Point", "coordinates": [ -0.18562076, 51.15122601 ] } },
{ "type": "Feature", "properties": { "heading": 78.4, "size": "LARGE", "text": "{@Y,^l}S{@L}J" }, "geometry": { "type": "Point", "coordinates": [ -0.18814014, 51.15136641 ] } },
{ "type": "Feature", "properties": { "heading": 230.2, "size": "LARGE", "text": "{@L}J{@Y,^l}T{^r}" }, "geometry": { "type": "Point", "coordinates": [ -0.19159488, 51.1502696 ] } },
{ "type": "Feature", "properties": { "heading": 126.0, "size": "LARGE", "text": "{@Y,^l}08L{@L}T{@Y}26R{^r}" }, "geometry": { "type": "Point", "coordinates": [ -0.19188631, 51.15017345 ] } },
{ "type": "Feature", "properties": { "heading": 49.3, "size": "LARGE", "text": "{@Y,^l}T{@L}08L" }, "geometry": { "type": "Point", "coordinates": [ -0.19358487, 51.14994465 ] } },
{ "type": "Feature", "properties": { "heading": 75.5, "size": "LARGE", "text": "{@L}J{@Y,^l}T{^r}" }, "geometry": { "type": "Point", "coordinates": [ -0.19442241, 51.15071821 ] } },
{ "type": "Feature", "properties": { "heading": 75.5, "size": "LARGE", "text": "{@Y,^l}U{@L}J" }, "geometry": { "type": "Point", "coordinates": [ -0.19655967, 51.15040134 ] } },
{ "type": "Feature", "properties": { "heading": 257.5, "size": "LARGE", "text": "{@L}J{@Y}U{^r}" }, "geometry": { "type": "Point", "coordinates": [ -0.19421646, 51.14998207 ] } },
{ "type": "Feature", "properties": { "heading": 295.7, "size": "LARGE", "text": "{@L}T{@Y,^l}J{^r}" }, "geometry": { "type": "Point", "coordinates": [ -0.19336605, 51.14995851 ] } },
{ "type": "Feature", "properties": { "heading": 164.7, "size": "LARGE", "text": "{@Y,^l}J{@L}U{@Y}J{^r}" }, "geometry": { "type": "Point", "coordinates": [ -0.19537443, 51.14983003 ] } },
{ "type": "Feature", "properties": { "heading": 164.1, "size": "LARGE", "text": "{@L}T{@Y,^l}J{^r}" }, "geometry": { "type": "Point", "coordinates": [ -0.19254085, 51.15125771 ] } },
{ "type": "Feature", "properties": { "heading": 167.9, "size": "LARGE", "text": "{@R}26R-08L{@L}S1" }, "geometry": { "type": "Point", "coordinates": [ -0.18773299, 51.15173995 ] } },
{ "type": "Feature", "properties": { "heading": 177.7, "size": "LARGE", "text": "{@R}26R-08L{@L}T1" }, "geometry": { "type": "Point", "coordinates": [ -0.1935372, 51.15113856 ] } },
{ "type": "Feature", "properties": { "heading": 167.4, "size": "LARGE", "text": "{@R}26R-08L{@L}U1" }, "geometry": { "type": "Point", "coordinates": [ -0.19628827, 51.15057891 ] } },
{ "type": "Feature", "properties": { "heading": 167.9, "size": "LARGE", "text": "{@L}S1{@R}26R-08L" }, "geometry": { "type": "Point", "coordinates": [ -0.18631319, 51.15193348 ] } },
{ "type": "Feature", "properties": { "heading": 163.6, "size": "LARGE", "text": "{@L}T1{@R}26R-08L" }, "geometry": { "type": "Point", "coordinates": [ -0.19247354, 51.15126984 ] } },
{ "type": "Feature", "properties": { "heading": 167.4, "size": "LARGE", "text": "{@L}U1{@R}26R-08L" }, "geometry": { "type": "Point", "coordinates": [ -0.19507759, 51.15074892 ] } },
{ "type": "Feature", "properties": { "heading": 290.5, "size": "LARGE", "text": "{@R}08L{@L}J6" }, "geometry": { "type": "Point", "coordinates": [ -0.20527932, 51.14915475 ] } },
{ "type": "Feature", "properties": { "heading": 226.9, "size": "LARGE", "text": "{@L}J6{@R}08L" }, "geometry": { "type": "Point", "coordinates": [ -0.20497438, 51.14838946 ] } },
{ "type": "Feature", "properties": { "heading": 14.4, "size": "LARGE", "text": "{@L}Y3{@R}26L*APCH" }, "geometry": { "type": "Point", "coordinates": [ -0.16447673, 51.14986484 ] } },
{ "type": "Feature", "properties": { "heading": 309.5, "size": "LARGE", "text": "{@Y,^l}J{@L}P{@Y}Z{^r}" }, "geometry": { "type": "Point", "coordinates": [ -0.17426531, 51.15257493 ] } },
{ "type": "Feature", "properties": { "heading": 231.9, "size": "LARGE", "text": "{@Y,^l}N{@L}J{@Y}N{^r}" }, "geometry": { "type": "Point", "coordinates": [ -0.17174785, 51.1535859 ] } },
{ "type": "Feature", "properties": { "heading": 231.8, "size": "LARGE", "text": "{@L}J8{@R}26R" }, "geometry": { "type": "Point", "coordinates": [ -0.17171618, 51.15355934 ] } },
{ "type": "Feature", "properties": { "heading": 144.3, "size": "LARGE", "text": "{@L}N{@Y,^l}Z{^r}" }, "geometry": { "type": "Point", "coordinates": [ -0.17186933, 51.15355666 ] } },
{ "type": "Feature", "properties": { "heading": 319.5, "size": "LARGE", "text": "{@L}P{@Y,^l}L{^r}" }, "geometry": { "type": "Point", "coordinates": [ -0.17547435, 51.15701278 ] } },
{ "type": "Feature", "properties": { "heading": 304.4, "size": "LARGE", "text": "{@L}N{@Y,^l}K{^r}" }, "geometry": { "type": "Point", "coordinates": [ -0.17369815, 51.15536543 ] } },
{ "type": "Feature", "properties": { "heading": 211.6, "size": "LARGE", "text": "{@L}N{@Y}NA{^r}" }, "geometry": { "type": "Point", "coordinates": [ -0.17362996, 51.15522927 ] } },
{ "type": "Feature", "properties": { "heading": 125.5, "size": "LARGE", "text": "{@Y,^l}NA{@L}P" }, "geometry": { "type": "Point", "coordinates": [ -0.17369526, 51.15521807 ] } },
{ "type": "Feature", "properties": { "heading": 188.9, "size": "LARGE", "text": "{@R}26R{@L}P1" }, "geometry": { "type": "Point", "coordinates": [ -0.17445109, 51.15408392 ] } },
{ "type": "Feature", "properties": { "heading": 138.1, "size": "LARGE", "text": "{@L}P{@Y,^l}J{^ru}" }, "geometry": { "type": "Point", "coordinates": [ -0.17335955, 51.15419569 ] } },
{ "type": "Feature", "properties": { "heading": 206.9, "size": "LARGE", "text": "{@R}26R{@L}N1" }, "geometry": { "type": "Point", "coordinates": [ -0.17328007, 51.15423382 ] } },
{ "type": "Feature", "properties": { "heading": 138.0, "size": "LARGE", "text": "{@L}P1{@R}26R" }, "geometry": { "type": "Point", "coordinates": [ -0.17333964, 51.15423097 ] } },
{ "type": "Feature", "properties": { "heading": 225.8, "size": "LARGE", "text": "{@Y,^l}P|{^lu}J{@L}J{@Y}P{^r}" }, "geometry": { "type": "Point", "coordinates": [ -0.17300694, 51.15340932 ] } },
{ "type": "Feature", "properties": { "heading": 157.9, "size": "LARGE", "text": "{@L}A{@Y,^l}AN{^r}" }, "geometry": { "type": "Point", "coordinates": [ -0.16754807, 51.15349505 ] } },
{ "type": "Feature", "properties": { "heading": 332.3, "size": "LARGE", "text": "{@L}M{@Y,^l}Z{^r}" }, "geometry": { "type": "Point", "coordinates": [ -0.1675052, 51.15344883 ] } },
{ "type": "Feature", "properties": { "heading": 238.3, "size": "LARGE", "text": "{@Y,^l}A{@L}Z" }, "geometry": { "type": "Point", "coordinates": [ -0.16748802, 51.15349354 ] } },
{ "type": "Feature", "properties": { "heading": 57.2, "size": "LARGE", "text": "{@Y,^l}M|{^lu}AN{@L}AN{@Y}V{^ru}|M{^r}" }, "geometry": { "type": "Point", "coordinates": [ -0.16757606, 51.15345134 ] } },
{ "type": "Feature", "properties": { "heading": 235.8, "size": "LARGE", "text": "{@L}Z1{@R}26R" }, "geometry": { "type": "Point", "coordinates": [ -0.16869021, 51.15335853 ] } },
{ "type": "Feature", "properties": { "heading": 71.4, "size": "LARGE", "text": "{@L}AN{@Y}M{^u}|A3{^r}" }, "geometry": { "type": "Point", "coordinates": [ -0.16920158, 51.15315449 ] } },
{ "type": "Feature", "properties": { "heading": 345.2, "size": "LARGE", "text": "{@L}A{@Y,^l}Z{^r}" }, "geometry": { "type": "Point", "coordinates": [ -0.16854489, 51.1533403 ] } },
{ "type": "Feature", "properties": { "heading": 219.4, "size": "LARGE", "text": "{@L}Z{@Y,^l}N{^r}" }, "geometry": { "type": "Point", "coordinates": [ -0.17147037, 51.1529616 ] } },
{ "type": "Feature", "properties": { "heading": 140.0, "size": "LARGE", "text": "{@Y,^l}AN|{^lu}AS{@L}N{@Y}P{^ru}|AN{^r}" }, "geometry": { "type": "Point", "coordinates": [ -0.17153712, 51.15293523 ] } },
{ "type": "Feature", "properties": { "heading": 53.4, "size": "LARGE", "text": "{@Y,^l}N{@L}AN" }, "geometry": { "type": "Point", "coordinates": [ -0.1726582, 51.15271427 ] } },
{ "type": "Feature", "properties": { "heading": 233.6, "size": "LARGE", "text": "{@L}Z{@Y,^l}P{^r}" }, "geometry": { "type": "Point", "coordinates": [ -0.17281084, 51.15283478 ] } },
{ "type": "Feature", "properties": { "heading": 144.0, "size": "LARGE", "text": "{@L}P{@Y,^l}AN{^r}" }, "geometry": { "type": "Point", "coordinates": [ -0.17286064, 51.15275376 ] } },
{ "type": "Feature", "properties": { "heading": 52.0, "size": "LARGE", "text": "{@L}AN{@Y,^l}P{^r}" }, "geometry": { "type": "Point", "coordinates": [ -0.17453402, 51.1525235 ] } },
{ "type": "Feature", "properties": { "heading": 98.5, "size": "LARGE", "text": "{@Y,^l}L{@L}L{@Y}KA{^r}" }, "geometry": { "type": "Point", "coordinates": [ -0.17126371, 51.15765975 ] } },
{ "type": "Feature", "properties": { "heading": 54.0, "size": "LARGE", "text": "{@Y,^l}KA{@L}K" }, "geometry": { "type": "Point", "coordinates": [ -0.17089583, 51.15670091 ] } },
{ "type": "Feature", "properties": { "heading": 193.6, "size": "LARGE", "text": "{@L}KA{@Y,^l}K{^r}" }, "geometry": { "type": "Point", "coordinates": [ -0.17094557, 51.15682156 ] } },
{ "type": "Feature", "properties": { "heading": 320.5, "size": "LARGE", "text": "{@Y,^l}L{@L}KA{@Y}L{^u}" }, "geometry": { "type": "Point", "coordinates": [ -0.17121894, 51.15763964 ] } },
{ "type": "Feature", "properties": { "heading": 236.2, "size": "LARGE", "text": "{@Y,^l}P{@L}L" }, "geometry": { "type": "Point", "coordinates": [ -0.17444338, 51.15726923 ] } },
{ "type": "Feature", "properties": { "heading": 101.0, "size": "LARGE", "text": "{@L}L{@Y}P{^r}" }, "geometry": { "type": "Point", "coordinates": [ -0.17547084, 51.15713642 ] } },
{ "type": "Feature", "properties": { "heading": 146.9, "size": "LARGE", "text": "{@L}P{@Y,^l}K{^ru}" }, "geometry": { "type": "Point", "coordinates": [ -0.17416053, 51.15656307 ] } },
{ "type": "Feature", "properties": { "heading": 313.5, "size": "LARGE", "text": "{@L}P{@Y,^l}K{^ru}" }, "geometry": { "type": "Point", "coordinates": [ -0.17471754, 51.15484286 ] } },
{ "type": "Feature", "properties": { "heading": 214.7, "size": "LARGE", "text": "{@L}K{@Y,^l}P{^r}" }, "geometry": { "type": "Point", "coordinates": [ -0.17374396, 51.15549753 ] } },
{ "type": "Feature", "properties": { "heading": 49.2, "size": "LARGE", "text": "{@L}NA{@Y,^l}N{^r}" }, "geometry": { "type": "Point", "coordinates": [ -0.17362066, 51.1550659 ] } },
{ "type": "Feature", "properties": { "heading": 228.5, "size": "LARGE", "text": "{@L}NA{@Y,^l}P{^r}" }, "geometry": { "type": "Point", "coordinates": [ -0.17335237, 51.15430484 ] } },
{ "type": "Feature", "properties": { "heading": 49.9, "size": "LARGE", "text": "{@Y,^l}P|{^lu}J{@L}J{@Y}Z{^u}|P{^r}" }, "geometry": { "type": "Point", "coordinates": [ -0.1743569, 51.15350278 ] } },
{ "type": "Feature", "properties": { "heading": 130.2, "size": "LARGE", "text": "{@Y,^l}AN{@L}C{@Y}26R{^r}" }, "geometry": { "type": "Point", "coordinates": [ -0.1764775, 51.15231282 ] } },
{ "type": "Feature", "properties": { "heading": 224.6, "size": "LARGE", "text": "{@Y,^l}C{@L}J" }, "geometry": { "type": "Point", "coordinates": [ -0.17634396, 51.15233404 ] } },
{ "type": "Feature", "properties": { "heading": 12.1, "size": "MEDIUM", "text": "{@R}26L|CAT_{r2}/{r3,@L}Y2" }, "geometry": { "type": "Point", "coordinates": [ -0.17627921, 51.14879049 ] } },
{ "type": "Feature", "properties": { "heading": 317.9, "size": "MEDIUM", "text": "{@L}Y2{@R}26L|CAT_{r2}/{r3}" }, "geometry": { "type": "Point", "coordinates": [ -0.17732041, 51.14864016 ] } },
{ "type": "Feature", "properties": { "heading": 0.4, "size": "LARGE", "text": "{@R}08R-26L{@L}Y1" }, "geometry": { "type": "Point", "coordinates": [ -0.17633086, 51.1490681 ] } },
{ "type": "Feature", "properties": { "heading": 314.7, "size": "LARGE", "text": "{@L}Y1{@R}08R-26L" }, "geometry": { "type": "Point", "coordinates": [ -0.17748861, 51.14890674 ] } },
{ "type": "Feature", "properties": { "heading": 120.3, "size": "LARGE", "text": "{@L}J{@Y}C{^r}" }, "geometry": { "type": "Point", "coordinates": [ -0.17848915, 51.15203713 ] } },
{ "type": "Feature", "properties": { "heading": 318.2, "size": "LARGE", "text": "{@L}C{@Y,^l}J{^r}" }, "geometry": { "type": "Point", "coordinates": [ -0.17834919, 51.15203185 ] } },
{ "type": "Feature", "properties": { "heading": 48.1, "size": "LARGE", "text": "{@Y,^l}C{@L}08L{@Y}AN{^u}|C{^r}" }, "geometry": { "type": "Point", "coordinates": [ -0.17847085, 51.15199156 ] } },
{ "type": "Feature", "properties": { "heading": 227.8, "size": "LARGE", "text": "{@Y,^l}C{@L}AN{@Y}26R{^u}|C{^r}" }, "geometry": { "type": "Point", "coordinates": [ -0.17637843, 51.15149278 ] } },
{ "type": "Feature", "properties": { "heading": 188.8, "size": "MEDIUM", "text": "{@R}26L|CAT_{r2}/{r3,@L}C3" }, "geometry": { "type": "Point", "coordinates": [ -0.17822636, 51.15114437 ] } },
{ "type": "Feature", "properties": { "heading": 149.4, "size": "LARGE", "text": "{@L}A3{@R}26L|CAT_{r2}/{r3}" }, "geometry": { "type": "Point", "coordinates": [ -0.16754742, 51.15271552 ] } },
{ "type": "Feature", "properties": { "heading": 146.8, "size": "LARGE", "text": "{@L}M3{@R}26L|CAT_{r2}/{r3}" }, "geometry": { "type": "Point", "coordinates": [ -0.16597998, 51.15260533 ] } },
{ "type": "Feature", "properties": { "heading": 184.6, "size": "LARGE", "text": "{@R}26L|CAT_{r2}/{r3,@L}M3" }, "geometry": { "type": "Point", "coordinates": [ -0.16709098, 51.15244437 ] } },
{ "type": "Feature", "properties": { "heading": 150.0, "size": "LARGE", "text": "{@L}M1{@R}26L" }, "geometry": { "type": "Point", "coordinates": [ -0.16585348, 51.15235226 ] } },
{ "type": "Feature", "properties": { "heading": 188.8, "size": "LARGE", "text": "{@R}26L{@L}M1" }, "geometry": { "type": "Point", "coordinates": [ -0.1669756, 51.15218849 ] } },
{ "type": "Feature", "properties": { "heading": 153.1, "size": "LARGE", "text": "{@L}A1{@R}26L" }, "geometry": { "type": "Point", "coordinates": [ -0.16751607, 51.15226221 ] } },
{ "type": "Feature", "properties": { "heading": 89.8, "size": "LARGE", "text": "{@R}26L|CAT_{r2}/{r3,@L}A2" }, "geometry": { "type": "Point", "coordinates": [ -0.16877936, 51.15181983 ] } },
{ "type": "Feature", "properties": { "heading": 153.1, "size": "LARGE", "text": "{@R}26L{@L}B1" }, "geometry": { "type": "Point", "coordinates": [ -0.1708413, 51.15173132 ] } },
{ "type": "Feature", "properties": { "heading": 186.9, "size": "LARGE", "text": "{@R}26L{@L}B1" }, "geometry": { "type": "Point", "coordinates": [ -0.17280208, 51.15146694 ] } },
{ "type": "Feature", "properties": { "heading": 153.6, "size": "LARGE", "text": "{@L}C1{@R}26L-08R" }, "geometry": { "type": "Point", "coordinates": [ -0.17698541, 51.15098714 ] } },
{ "type": "Feature", "properties": { "heading": 182.8, "size": "MEDIUM", "text": "{@R}26L-08R{@L}C1" }, "geometry": { "type": "Point", "coordinates": [ -0.17819104, 51.15090401 ] } },
{ "type": "Feature", "properties": { "heading": 150.6, "size": "MEDIUM", "text": "{@L}C3{@R}26L|CAT_{r2}/{r3}" }, "geometry": { "type": "Point", "coordinates": [ -0.17693114, 51.15122606 ] } },
{ "type": "Feature", "properties": { "heading": 140.5, "size": "MEDIUM", "text": "{@L}H3{@R}08R|CAT_{r2}/{r3}" }, "geometry": { "type": "Point", "coordinates": [ -0.20900863, 51.14684119 ] } },
{ "type": "Feature", "properties": { "heading": 200.6, "size": "MEDIUM", "text": "{@R}08R|CAT_{r2}/{r3,@L}H3" }, "geometry": { "type": "Point", "coordinates": [ -0.21043109, 51.14664183 ] } },
{ "type": "Feature", "properties": { "heading": 256.8, "size": "LARGE", "text": "{@Y,^l}H{@L}J" }, "geometry": { "type": "Point", "coordinates": [ -0.20861445, 51.14699336 ] } },
{ "type": "Feature", "properties": { "heading": 8.4, "size": "LARGE", "text": "{@R}08L{@L}H2" }, "geometry": { "type": "Point", "coordinates": [ -0.20899648, 51.14667537 ] } },
{ "type": "Feature", "properties": { "heading": 307.9, "size": "LARGE", "text": "{@Y,^l}26R{@L}H{@Y}08L{^r}" }, "geometry": { "type": "Point", "coordinates": [ -0.21033066, 51.14662659 ] } },
{ "type": "Feature", "properties": { "heading": 315.6, "size": "LARGE", "text": "{@L}H2{@R}08L" }, "geometry": { "type": "Point", "coordinates": [ -0.21029676, 51.14649701 ] } },
{ "type": "Feature", "properties": { "heading": 130.1, "size": "LARGE", "text": "{@L}H1{@R}08R" }, "geometry": { "type": "Point", "coordinates": [ -0.20891526, 51.14646722 ] } },
{ "type": "Feature", "properties": { "heading": 187.6, "size": "LARGE", "text": "{@R}08R{@L}H1" }, "geometry": { "type": "Point", "coordinates": [ -0.21014759, 51.14621713 ] } },
{ "type": "Feature", "properties": { "heading": 279.6, "size": "LARGE", "text": "{@L}26R{@Y}J{^r}" }, "geometry": { "type": "Point", "coordinates": [ -0.21449921, 51.14702492 ] } },
{ "type": "Feature", "properties": { "heading": 188.4, "size": "LARGE", "text": "{@R}J4" }, "geometry": { "type": "Point", "coordinates": [ -0.21451007, 51.14704258 ] } },
{ "type": "Feature", "properties": { "heading": 143.8, "size": "LARGE", "text": "{@L}J1{@R}08R" }, "geometry": { "type": "Point", "coordinates": [ -0.21255175, 51.14607858 ] } },
{ "type": "Feature", "properties": { "heading": 289.4, "size": "LARGE", "text": "{@R}08L{@L}J5" }, "geometry": { "type": "Point", "coordinates": [ -0.21099972, 51.14834013 ] } },
{ "type": "Feature", "properties": { "heading": 55.3, "size": "LARGE", "text": "{@L}08L{@Y}H{^r}" }, "geometry": { "type": "Point", "coordinates": [ -0.21099332, 51.14755103 ] } },
{ "type": "Feature", "properties": { "heading": 214.3, "size": "LARGE", "text": "{@L}J5{@R}08L" }, "geometry": { "type": "Point", "coordinates": [ -0.21075042, 51.14770217 ] } },
{ "type": "Feature", "properties": { "heading": 258.5, "size": "LARGE", "text": "{@Y,^l}J{@L}26R{@Y}J{^ru}" }, "geometry": { "type": "Point", "coordinates": [ -0.21214419, 51.14649484 ] } },
{ "type": "Feature", "properties": { "heading": 240.9, "size": "LARGE", "text": "{@R}J7" }, "geometry": { "type": "Point", "coordinates": [ -0.2121965, 51.14658221 ] } },
{ "type": "Feature", "properties": { "heading": 313.5, "size": "LARGE", "text": "{@Y,^lu}J{@L}J{@Y}08L{^r}" }, "geometry": { "type": "Point", "coordinates": [ -0.21372027, 51.14608033 ] } },
{ "type": "Feature", "properties": { "heading": 321.1, "size": "LARGE", "text": "{@L}J2{@R}08L" }, "geometry": { "type": "Point", "coordinates": [ -0.21377083, 51.14601246 ] } },
{ "type": "Feature", "properties": { "heading": 10.1, "size": "LARGE", "text": "{@R}08L{@L}J2" }, "geometry": { "type": "Point", "coordinates": [ -0.21264457, 51.14617607 ] } },
{ "type": "Feature", "properties": { "heading": 150.5, "size": "LARGE", "text": "{@L}J3{@R}08R|CAT_{r2}/{r3}" }, "geometry": { "type": "Point", "coordinates": [ -0.21261915, 51.14633307 ] } },
{ "type": "Feature", "properties": { "heading": 180.0, "size": "LARGE", "text": "{@R}08R{@L}J1" }, "geometry": { "type": "Point", "coordinates": [ -0.21366674, 51.14591688 ] } },
{ "type": "Feature", "properties": { "heading": 182.1, "size": "LARGE", "text": "{@R}08R|CAT_{r2}/{r3,@L}J3" }, "geometry": { "type": "Point", "coordinates": [ -0.21381527, 51.14616419 ] } },
{ "type": "Feature", "properties": { "heading": 61.0, "size": "LARGE", "text": "{@L}08L{@Y,^lu}G{^r}" }, "geometry": { "type": "Point", "coordinates": [ -0.20765854, 51.14800607 ] } },
{ "type": "Feature", "properties": { "heading": 171.0, "size": "LARGE", "text": "{@Y,^l}08L{@L}G{@Y}26R{^r}" }, "geometry": { "type": "Point", "coordinates": [ -0.20543312, 51.14830894 ] } },
{ "type": "Feature", "properties": { "heading": 349.4, "size": "LARGE", "text": "{@Y,^ld}J{@L}G{@Y}J{^ru}" }, "geometry": { "type": "Point", "coordinates": [ -0.20735992, 51.14804975 ] } },
{ "type": "Feature", "properties": { "heading": 109.2, "size": "LARGE", "text": "{@L}G1{@R}08R" }, "geometry": { "type": "Point", "coordinates": [ -0.20623937, 51.14700282 ] } },
{ "type": "Feature", "properties": { "heading": 152.6, "size": "MEDIUM", "text": "{@L}G3{@R}08R|CAT_{r2}/{r3}" }, "geometry": { "type": "Point", "coordinates": [ -0.20593741, 51.14726292 ] } },
{ "type": "Feature", "properties": { "heading": 182.1, "size": "LARGE", "text": "{@R}08R{@L}G1" }, "geometry": { "type": "Point", "coordinates": [ -0.20776455, 51.14670223 ] } },
{ "type": "Feature", "properties": { "heading": 6.1, "size": "LARGE", "text": "{@R}08L{@L}G2" }, "geometry": { "type": "Point", "coordinates": [ -0.20610082, 51.14709181 ] } },
{ "type": "Feature", "properties": { "heading": 316.0, "size": "LARGE", "text": "{@Y,^l}26R{@L}G{@Y}08L{^r}" }, "geometry": { "type": "Point", "coordinates": [ -0.20798676, 51.14682983 ] } },
{ "type": "Feature", "properties": { "heading": 336.7, "size": "LARGE", "text": "{@L}G2{@R}08L" }, "geometry": { "type": "Point", "coordinates": [ -0.20782727, 51.14684127 ] } },
{ "type": "Feature", "properties": { "heading": 181.3, "size": "LARGE", "text": "{@R}08R|CAT_{r2}/{r3,@L}G3" }, "geometry": { "type": "Point", "coordinates": [ -0.20804669, 51.14697551 ] } },
{ "type": "Feature", "properties": { "heading": 274.2, "size": "LARGE", "text": "{@L}ER{@Y}08L{^r}" }, "geometry": { "type": "Point", "coordinates": [ -0.19919498, 51.1478462 ] } },
{ "type": "Feature", "properties": { "heading": 274.2, "size": "LARGE", "text": "{@L}FR{@Y}08L{^r}" }, "geometry": { "type": "Point", "coordinates": [ -0.20379339, 51.14726371 ] } },
{ "type": "Feature", "properties": { "heading": 312.6, "size": "MEDIUM", "text": "{@L}M{@Y,^l}J{^r}" }, "geometry": { "type": "Point", "coordinates": [ -0.16803525, 51.15408794 ] } },
{ "type": "Feature", "properties": { "heading": 226.9, "size": "LARGE", "text": "{@Y,^l}E{@L}J" }, "geometry": { "type": "Point", "coordinates": [ -0.20040386, 51.14901374 ] } },
{ "type": "Feature", "properties": { "heading": 171.0, "size": "LARGE", "text": "{@Y,^l}08L{@L}E{@Y}ER{^u}" }, "geometry": { "type": "Point", "coordinates": [ -0.20103143, 51.14889602 ] } },
{ "type": "Feature", "properties": { "heading": 308.6, "size": "LARGE", "text": "{@L}E{@Y}J{^r}" }, "geometry": { "type": "Point", "coordinates": [ -0.20238835, 51.14870104 ] } }
]
}
