{"type": "FeatureCollection", "features": [{"type": "Feature", "properties": {"name": "Linear Feature 923", "painted_line_type": "UNKNOWN_108", "lighting_line_type": null}, "geometry": {"type": "LineString", "coordinates": [[-73.75608973, 40.64370087], [-73.75560035, 40.64432712], [-73.75554633441482, 40.64440035204148], [-73.75549930798519, 40.64447169899852], [-73.75545885720003, 40.64454105712001], [-73.75542456854816, 40.644608322654825], [-73.75539602851855, 40.64467339185186], [-73.75537282360003, 40.64473616096], [-73.75535454028149, 40.64479652622814], [-73.75534076505186, 40.644854383905184], [-73.75533108440003, 40.64490963024], [-73.75532508481484, 40.64496216148149], [-73.7553223527852, 40.645011873878516], [-73.75532247480001, 40.645058663680004], [-73.75532503734817, 40.645102427134816], [-73.75532962691852, 40.64514306049185], [-73.75533583, 40.64518046]]}}, {"type": "Feature", "properties": {"name": "Linear Feature 827", "painted_line_type": "UNKNOWN_108", "lighting_line_type": null}, "geometry": {"type": "LineString", "coordinates": [[-73.76954547, 40.62648174], [-73.76991786, 40.62600521], [-73.7699474532889, 40.62597114328889], [-73.76998041217779, 40.62594028591111], [-73.77001629720002, 40.62591248], [-73.7700546688889, 40.6258875676889], [-73.7700950877778, 40.62586539111113], [-73.7701371144, 40.625845792400014], [-73.77018030928889, 40.625828613688896], [-73.77022423297777, 40.625813697111106], [-73.770268446, 40.62580088480001], [-73.77031250888888, 40.62579001888889], [-73.77035598217776, 40.62578094151111], [-73.77039842639999, 40.62577349480001], [-73.77043940208888, 40.62576752088889], [-73.77047846977777, 40.62576286191111], [-73.77051519, 40.62575936]]}}]}