{"type": "FeatureCollection", "features": [{"type": "Feature", "properties": {"name": "New Taxiway 142", "surface_type": "ASPHALT", "smoothness": 0.0, "texture_orientation": 150.9}, "geometry": {"type": "Polygon", "coordinates": [[[-73.78217691, 40.63894694], [-73.78051418, 40.63981253], [-73.77932581, 40.63992733], [-73.77719282, 40.63743699], [-73.77706706, 40.63759627], [-73.77680614, 40.63794958], [-73.77485618, 40.64039693], [-73.77471921, 40.64056998], [-73.77463425, 40.64072556], [-73.77444201, 40.64097307], [-73.77518755, 40.64166416], [-73.7759144, 40.64264763], [-73.77585666, 40.64268495], [-73.77586534, 40.64269803], [-73.77607941, 40.64298213], [-73.77604871, 40.64307725], [-73.776105, 40.64314131], [-73.77611267, 40.64338202], [-73.77620221, 40.6434422], [-73.77609732, 40.64351985], [-73.77615872, 40.64360721], [-73.77631472, 40.64368752], [-73.77627896, 40.64372562], [-73.77707717, 40.64410417], [-73.77730982, 40.64448674], [-73.77736983, 40.64446429], [-73.77786259, 40.64465354], [-73.77964834, 40.64494084], [-73.78008582, 40.64467101], [-73.78044848, 40.64420003], [-73.78041801, 40.64355293], [-73.78346762, 40.64229513], [-73.78374258, 40.64268948], [-73.78512536, 40.64211392], [-73.78539816, 40.64131836], [-73.78468726, 40.64037341], [-73.78442446, 40.63882751], [-73.78217691, 40.63894694]]]}}, {"type": "Feature", "properties": {"name": "New Taxiway 124", "surface_type": "UNKNOWN_25", "smoothness": 0.0, "texture_orientation": 0.0}, "geometry": {"type": "Polygon", "coordinates": [[[-73.79590651, 40.64545032], [-73.79589987835556, 40.64548576697778], [-73.79589135142223, 40.645518947911114], [-73.79588092920001, 40.64554986280001], [-73.79586861168889, 40.64557851164445], [-73.7958543988889, 40.64560489444445], [-73.7958382908, 40.6456290112], [-73.79582028742222, 40.645650861911115], [-73.79580038875555, 40.64567044657778], [-73.7957785948, 40.645687765199995], [-73.79575490555555, 40.64570281777778], [-73.79572932102221, 40.64571560431111], [-73.7957018412, 40.64572612480001], [-73.79567246608889, 40.645734379244445], [-73.79564119568889, 40.64574036764445], [-73.79560803, 40.64574409], [-73.79557444733334, 40.64574520106666], [-73.795541926, 40.64574335560001], [-73.79551046600001, 40.645738553600005], [-73.79548006733333, 40.64573079506667], [-73.79545073, 40.64572008000001], [-73.795422454, 40.6457064084], [-73.79539523933333, 40.645689780266665], [-73.795369086, 40.645670195600005], [-73.795343994, 40.6456476544], [-73.79531996333333, 40.645622156666676], [-73.795296994, 40.64559370240001], [-73.795275086, 40.6455622916], [-73.79525423933333, 40.64552792426667], [-73.79523445400001, 40.6454906004], [-73.79521573, 40.64545032], [-73.79493175, 40.64547167], [-73.79494177, 40.64554517], [-73.79494842893332, 40.64560156217778], [-73.79495040306666, 40.64565426404445], [-73.79494769240002, 40.645703275600006], [-73.79494029693333, 40.64574859684445], [-73.79492821666668, 40.64579022777779], [-73.7949114516, 40.6458281684], [-73.79489000173334, 40.64586241871111], [-73.79486386706667, 40.64589297871111], [-73.79483304760001, 40.6459198484], [-73.79479754333335, 40.645943027777776], [-73.79475735426666, 40.64596251684444], [-73.79471248040001, 40.645978315600004], [-73.79466292173333, 40.64599042404444], [-73.79460867826667, 40.645998842177775], [-73.79454975, 40.64600357], [-73.79474753, 40.64628505], [-73.79479929311111, 40.64626246213334], [-73.79485045977778, 40.6462444692], [-73.79490103, 40.64623107120001], [-73.79495100377778, 40.64622226813334], [-73.7950003811111, 40.64621806000001], [-73.795049162, 40.6462184468], [-73.79509734644444, 40.64622342853333], [-73.79514493444444, 40.6462330052], [-73.79519192599999, 40.6462471768], [-73.7952383211111, 40.64626594333333], [-73.79528411977776, 40.64628930480001], [-73.795329322, 40.646317261200004], [-73.79537392777777, 40.64634981253334], [-73.79541793711111, 40.6463869588], [-73.79546135, 40.6464287], [-73.79590652, 40.64692955], [-73.795937836, 40.64697177351112], [-73.79596355733335, 40.647013030711115], [-73.795983684, 40.64705332160001], [-73.795998216, 40.64709264617778], [-73.79600715333335, 40.647131004444454], [-73.796010496, 40.6471683964], [-73.796008244, 40.64720482204444], [-73.79600039733333, 40.64724028137778], [-73.795986956, 40.6472747744], [-73.79596792000001, 40.64730830111111], [-73.79594328933334, 40.64734086151111], [-73.795913064, 40.647372455600006], [-73.795877244, 40.647403083377775], [-73.79583582933333, 40.647432744844444], [-73.79578882, 40.64746144], [-73.79599094, 40.64768081], [-73.79604538164445, 40.64766017764444], [-73.79609908791112, 40.647643749911104], [-73.7961520588, 40.64763152679999], [-73.79620429431111, 40.64762350831111], [-73.79625579444445, 40.647619694444444], [-73.7963065592, 40.6476200852], [-73.79635658857778, 40.64762468057777], [-73.79640588257779, 40.647633480577774], [-73.79645444120001, 40.6476464852], [-73.79650226444446, 40.64766369444445], [-73.7965493523111, 40.64768510831111], [-73.79659570480001, 40.6477107268], [-73.79664132191112, 40.647740549911106], [-73.79668620364446, 40.64777457764444], [-73.79673035, 40.64781281], [-73.79675425195556, 40.64783643608888], [-73.79677649382224, 40.64786158635556], [-73.7967970756, 40.64788826080001], [-73.79681599728889, 40.64791645942223], [-73.7968332588889, 40.64794618222222], [-73.7968488604, 40.6479774292], [-73.79686280182221, 40.64801020035556], [-73.79687508315556, 40.648044495688886], [-73.7968857044, 40.648080315200005], [-73.79689466555556, 40.648117658888886], [-73.79690196662222, 40.64815652675556], [-73.7969076076, 40.648196918800004], [-73.79691158848888, 40.64823883502223], [-73.79691390928889, 40.648282275422225], [-73.79691457, 40.64832724], [-73.7968762, 40.64961234], [-73.7968716776889, 40.649695404533325], [-73.79686302542223, 40.649773147466675], [-73.79685024320001, 40.6498455688], [-73.79683333102223, 40.64991266853334], [-73.7968122888889, 40.649974446666675], [-73.7967871168, 40.6500309032], [-73.79675781475555, 40.650082038133334], [-73.79672438275556, 40.650127851466664], [-73.7966868208, 40.6501683432], [-73.7966451288889, 40.65020351333334], [-73.79659930702222, 40.65023336186667], [-73.7965493552, 40.650257888800006], [-73.79649527342222, 40.65027709413333], [-73.79643706168889, 40.65029097786667], [-73.79637472, 40.65029954], [-73.79626726, 40.65031119], [-73.79624359124443, 40.65031182573333], [-73.79622091564445, 40.65031157560001], [-73.7961992332, 40.6503104396], [-73.79617854391113, 40.650308417733335], [-73.79615884777778, 40.65030551000001], [-73.7961401448, 40.650301716399994], [-73.79612243497778, 40.65029703693333], [-73.79610571831111, 40.6502914716], [-73.7960899948, 40.650285020400005], [-73.79607526444445, 40.650277683333336], [-73.79606152724443, 40.6502694604], [-73.7960487832, 40.6502603516], [-73.79603703231112, 40.650250356933334], [-73.79602627457777, 40.6502394764], [-73.79601651, 40.65022771], [-73.79563784, 40.6503966], [-73.79567015404444, 40.650431402622225], [-73.79569602417779, 40.650466095822225], [-73.7957154504, 40.6505006796], [-73.7957284327111, 40.650535153955566], [-73.79573497111112, 40.650569518888894], [-73.79573506559998, 40.6506037744], [-73.79572871617776, 40.65063792048889], [-73.79571592284442, 40.65067195715555], [-73.79569668559999, 40.6507058844], [-73.79567100444443, 40.650739702222225], [-73.79563887937778, 40.65077341062222], [-73.79560031039999, 40.6508070096], [-73.7955552975111, 40.65084049915556], [-73.7955038407111, 40.650873879288895], [-73.79544594, 40.65090715], [-73.79514146, 40.65106439], [-73.79392611, 40.65159241], [-73.79386590742223, 40.65161417737777], [-73.79380811568889, 40.651632372844446], [-73.79375273480001, 40.651646996400004], [-73.79369976475557, 40.65165804804444], [-73.79364920555557, 40.65166552777778], [-73.7936010572, 40.6516694356], [-73.79355531968889, 40.651669771511116], [-73.79351199302222, 40.65166653551111], [-73.7934710772, 40.6516597276], [-73.79343257222223, 40.65164934777778], [-73.79339647808888, 40.65163539604444], [-73.7933627948, 40.6516178724], [-73.79333152235556, 40.65159677684444], [-73.79330266075556, 40.65157210937778], [-73.79327621, 40.65154387], [-73.79318921, 40.65144293], [-73.79279006, 40.65159046], [-73.79279617533334, 40.651616982355556], [-73.79280018266667, 40.65164256808889], [-73.792802082, 40.65166721720001], [-73.79280187333333, 40.65169092968889], [-73.79279955666668, 40.65171370555556], [-73.792795132, 40.6517355448], [-73.79278859933332, 40.65175644742222], [-73.79277995866667, 40.651776413422226], [-73.79276920999999, 40.6517954428], [-73.79275635333333, 40.65181353555556], [-73.79274138866666, 40.651830691688886], [-73.792724316, 40.651846911199996], [-73.79270513533334, 40.651862194088885], [-73.79268384666666, 40.65187654035555], [-73.79266045, 40.65188995], [-73.7926355444, 40.65190231955555], [-73.79260972893333, 40.65191354555556], [-73.7925830036, 40.651923628], [-73.7925553684, 40.651932566888895], [-73.79252682333335, 40.65194036222223], [-73.7924973684, 40.651947014], [-73.7924670036, 40.65195252222222], [-73.79243572893333, 40.65195688688889], [-73.7924035444, 40.651960108], [-73.79237045, 40.65196218555556], [-73.79233644573333, 40.65196311955555], [-73.7923015316, 40.65196291], [-73.7922657076, 40.65196155688889], [-73.79222897373333, 40.65195906022222], [-73.79219133, 40.65195542], [-73.79184335, 40.65189136], [-73.78973246, 40.65139246], [-73.78966882328889, 40.65137218395555], [-73.78961028115555, 40.65135018248889], [-73.7895568336, 40.6513264556], [-73.78950848062223, 40.65130100328889], [-73.78946522222222, 40.651273825555556], [-73.78942705840001, 40.6512449224], [-73.78939398915554, 40.65121429382222], [-73.78936601448888, 40.65118193982222], [-73.7893431344, 40.6511478604], [-73.78932534888888, 40.65111205555556], [-73.78931265795555, 40.65107452528889], [-73.7893050616, 40.6510352696], [-73.78930255982222, 40.65099428848889], [-73.78930515262222, 40.65095158195556], [-73.78931284, 40.65090715], [-73.78897254, 40.65087415], [-73.78895724573334, 40.6509244744], [-73.7889386536, 40.650971399599996], [-73.7889167636, 40.6510149256], [-73.78889157573333, 40.651055052400004], [-73.78886309, 40.65109178], [-73.7888313064, 40.651125108399995], [-73.78879622493332, 40.6511550376], [-73.7887578456, 40.6511815676], [-73.7887161684, 40.6512046984], [-73.78867119333333, 40.65122443], [-73.78862292039999, 40.65124076239999], [-73.7885713496, 40.651253695600005], [-73.78851648093332, 40.651263229600005], [-73.78845831439999, 40.6512693644], [-73.78839685, 40.6512721], [-73.78836324466667, 40.65127296231111], [-73.78832998066667, 40.65127399724445], [-73.78829705800001, 40.6512752048], [-73.78826447666667, 40.651276584977786], [-73.78823223666666, 40.65127813777779], [-73.788200338, 40.6512798632], [-73.78816878066667, 40.65128176124445], [-73.78813756466667, 40.65128383191111], [-73.78810668999998, 40.6512860752], [-73.78807615666665, 40.65128849111112], [-73.78804596466665, 40.65129107964444], [-73.788016114, 40.6512938408], [-73.78798660466666, 40.65129677457777], [-73.78795743666666, 40.651299880977774], [-73.78792861, 40.65130316], [-73.78790034062222, 40.651306611555555], [-73.78787284448889, 40.65131023555555], [-73.7878461216, 40.651314032], [-73.78782017195557, 40.65131800088889], [-73.78779499555557, 40.65132214222223], [-73.78777059240001, 40.651326456], [-73.7877469624889, 40.651330942222216], [-73.78772410582222, 40.651335600888885], [-73.7877020224, 40.651340432], [-73.78768071222223, 40.651345435555555], [-73.78766017528889, 40.65135061155556], [-73.78764041160001, 40.65135596], [-73.78762142115556, 40.651361480888895], [-73.78760320395556, 40.65136717422222], [-73.78758576, 40.65137304], [-73.78763129297778, 40.651364584], [-73.78767032124445, 40.651357336], [-73.7877028448, 40.651351296], [-73.78772886364446, 40.651346464000014], [-73.78774837777779, 40.65134284000001], [-73.78776138719999, 40.651340424], [-73.7877678919111, 40.651339216], [-73.78776789191112, 40.65133921600001], [-73.78776138719999, 40.651340424], [-73.78774837777777, 40.65134284000001], [-73.78772886364445, 40.651346464], [-73.78770284480001, 40.651351296], [-73.78767032124445, 40.651357336], [-73.78763129297778, 40.651364584], [-73.78758576, 40.65137304], [-73.78753805497779, 40.65138071951111], [-73.78749251057778, 40.65138563804445], [-73.78744912680001, 40.65138779560001], [-73.78740790364446, 40.65138719217778], [-73.78736884111112, 40.651383827777785], [-73.7873319392, 40.651377702400005], [-73.7872971979111, 40.651368816044446], [-73.78726461724445, 40.651357168711115], [-73.78723419720001, 40.6513427604], [-73.78720593777777, 40.65132559111112], [-73.78717983897778, 40.65130566084444], [-73.7871559008, 40.651282969600004], [-73.78713412324444, 40.65125751737778], [-73.78711450631111, 40.651229304177775], [-73.78709705, 40.65119833], [-73.78704782, 40.65104548], [-73.786644, 40.65114609], [-73.78676699, 40.65135557], [-73.78677654955555, 40.65138804986667], [-73.78678339622223, 40.651419228133335], [-73.78678753, 40.65144910480001], [-73.7867889508889, 40.651477679866666], [-73.7867876588889, 40.651504953333344], [-73.786783654, 40.65153092520001], [-73.78677693622222, 40.65155559546667], [-73.78676750555556, 40.651578964133336], [-73.786755362, 40.6516010312], [-73.78674050555556, 40.651621796666674], [-73.78672293622222, 40.65164126053334], [-73.78670265400001, 40.6516594228], [-73.78667965888889, 40.65167628346667], [-73.78665395088888, 40.65169184253333], [-73.78662553, 40.6517061], [-73.78700497, 40.65154191], [-73.78714482, 40.65173926], [-73.78669733, 40.65192784], [-73.78675278582223, 40.651917237199996], [-73.78680573462222, 40.6519091328], [-73.78685617640001, 40.6519035268], [-73.78690411115556, 40.651900419200004], [-73.78694953888889, 40.65189981], [-73.78699245960001, 40.651901699199996], [-73.7870328732889, 40.6519060868], [-73.78707077995556, 40.6519129728], [-73.7871061796, 40.65192235719999], [-73.78713907222223, 40.65193424], [-73.78716945782222, 40.6519486212], [-73.78719733640001, 40.651965500799996], [-73.78722270795556, 40.6519848788], [-73.7872455724889, 40.6520067552], [-73.78726593, 40.65203113], [-73.7872829396, 40.652056930444445], [-73.78729576040001, 40.652083083777775], [-73.7873043924, 40.65210959], [-73.78730883560002, 40.65213644911111], [-73.78730909000002, 40.65216366111111], [-73.7873051556, 40.652191226], [-73.7872970324, 40.65221914377777], [-73.78728472040001, 40.652247414444446], [-73.78726821960001, 40.652276038], [-73.78724753, 40.65230501444444], [-73.7872226516, 40.652334343777774], [-73.78719358440001, 40.652364026], [-73.7871603284, 40.65239406111111], [-73.7871228836, 40.65242444911111], [-73.78708125, 40.65245519], [-73.78742201, 40.65230872], [-73.78755813, 40.65250536], [-73.78770717, 40.65244173], [-73.78775165351111, 40.65242459875556], [-73.78779662671111, 40.65240834902223], [-73.78784208960002, 40.65239298080001], [-73.7878880421778, 40.6523784940889], [-73.78793448444445, 40.652364888888904], [-73.7879814164, 40.65235216520001], [-73.78802883804444, 40.65234032302222], [-73.78807674937778, 40.65232936235556], [-73.7881251504, 40.6523192832], [-73.78817404111112, 40.65231008555556], [-73.7882234215111, 40.65230176942222], [-73.7882732916, 40.652294334800004], [-73.78832365137778, 40.65228778168889], [-73.78837450084445, 40.65228211008889], [-73.78842584, 40.65227732], [-73.78847766591112, 40.65227343471111], [-73.78852997564444, 40.65227047751111], [-73.7885827692, 40.6522684484], [-73.78863604657778, 40.65226734737779], [-73.78868980777779, 40.652267174444454], [-73.7887440528, 40.6522679296], [-73.78879878164445, 40.65226961284444], [-73.78885399431111, 40.65227222417778], [-73.78890969080001, 40.6522757636], [-73.78896587111112, 40.652280231111106], [-73.78902253524444, 40.652285626711105], [-73.7890796832, 40.6522919504], [-73.78913731497778, 40.65229920217778], [-73.78919543057778, 40.65230738204444], [-73.78925403, 40.65231649], [-73.78961225, 40.6523922], [-73.78966158804447, 40.65240666137778], [-73.78970575417779, 40.65242188551112], [-73.78974474840001, 40.65243787240001], [-73.78977857071112, 40.652454622044445], [-73.78980722111113, 40.65247213444445], [-73.7898306996, 40.6524904096], [-73.78984900617777, 40.652509447511115], [-73.78986214084446, 40.65252924817778], [-73.78987010360001, 40.652549811600004], [-73.78987289444446, 40.652571137777784], [-73.78987051337778, 40.652593226711105], [-73.7898629604, 40.6526160784], [-73.78985023551112, 40.652639692844446], [-73.78983233871111, 40.652664070044445], [-73.78980927, 40.65268921], [-73.78962504, 40.6527785], [-73.78998326, 40.65286586], [-73.79045406, 40.65267756], [-73.79047085942224, 40.65267099364445], [-73.79048758302224, 40.652665129244454], [-73.79050423080001, 40.6526599668], [-73.79052080275558, 40.65265550631112], [-73.7905372988889, 40.65265174777779], [-73.7905537192, 40.65264869120001], [-73.7905700636889, 40.65264633657778], [-73.79058633235556, 40.65264468391112], [-73.79060252520001, 40.65264373320001], [-73.79061864222223, 40.652643484444454], [-73.79063468342224, 40.65264393764445], [-73.79065064880001, 40.6526450928], [-73.79066653835557, 40.652646949911116], [-73.7906823520889, 40.65264950897778], [-73.79069809, 40.65265277], [-73.79176155, 40.65291633], [-73.79190001992595, 40.652943070482955], [-73.79203657474076, 40.65296582239703], [-73.792171714, 40.65298425344001], [-73.79230593725927, 40.65299803130964], [-73.79243974407409, 40.65300682370371], [-73.792573634, 40.653010298320005], [-73.79270810659258, 40.6530081228563], [-73.7928436614074, 40.65299996501037], [-73.792980798, 40.652985492480006], [-73.79312001592594, 40.65296437296297], [-73.79326181474075, 40.652936274157035], [-73.79340669400001, 40.65290086376], [-73.79355515325926, 40.65285780946963], [-73.79370769207408, 40.6528067789837], [-73.79386481, 40.65274744], [-73.7960525, 40.65182535], [-73.7961108, 40.65180069315556], [-73.79616856933335, 40.651780815955554], [-73.79622580800002, 40.65176571840001], [-73.79628251600002, 40.651755400488895], [-73.79633869333335, 40.65174986222223], [-73.79639434, 40.6517491036], [-73.796449456, 40.65175312462222], [-73.79650404133334, 40.65176192528889], [-73.79655809600001, 40.6517755056], [-73.79661162, 40.651793865555554], [-73.79666461333335, 40.65181700515555], [-73.796717076, 40.651844924399995], [-73.79676900800001, 40.65187762328889], [-73.79682040933334, 40.65191510182222], [-73.79687128, 40.65195736], [-73.79719562, 40.65238774], [-73.79748508, 40.65277856], [-73.79750086524444, 40.65280507782222], [-73.79751590897779, 40.65283272462223], [-73.79753021120001, 40.652861500400014], [-73.79754377191112, 40.65289140515556], [-73.79755659111112, 40.65292243888889], [-73.79756866880001, 40.6529546016], [-73.79758000497777, 40.652987893288895], [-73.79759059964445, 40.65302231395556], [-73.7976004528, 40.653057863600004], [-73.79760956444446, 40.65309454222223], [-73.79761793457777, 40.65313234982223], [-73.7976255632, 40.6531712864], [-73.79763245031111, 40.65321135195556], [-73.79763859591111, 40.65325254648889], [-73.797644, 40.65329487], [-73.79754129, 40.65967624], [-73.79752074, 40.66095246], [-73.79750767, 40.66176443], [-73.79749459, 40.66257727], [-73.79776031, 40.66257684], [-73.79777318, 40.66175501], [-73.79777521, 40.66162557], [-73.79777590879999, 40.66161226919999], [-73.7977776772, 40.66159982813334], [-73.79778051520002, 40.6615882468], [-73.7977844228, 40.6615775252], [-73.79778940000003, 40.661567663333344], [-73.7977954468, 40.6615586612], [-73.79780256320001, 40.6615505188], [-73.79781074920001, 40.66154323613333], [-73.7978200048, 40.661536813199994], [-73.79783033000001, 40.66153125], [-73.79784172480001, 40.66152654653333], [-73.79785418920001, 40.6615227028], [-73.7978677232, 40.6615197188], [-73.7978823268, 40.66151759453333], [-73.797898, 40.66151633], [-73.79810902, 40.6615163], [-73.79812774, 40.66031721], [-73.79791932, 40.66031788], [-73.79790432840001, 40.66031641915555], [-73.79789031626667, 40.66031419128889], [-73.79787728360003, 40.6603111964], [-73.79786523040002, 40.6603074344889], [-73.79785415666667, 40.66030290555556], [-73.7978440624, 40.6602976096], [-73.79783494760001, 40.660291546622226], [-73.79782681226668, 40.66028471662222], [-73.79781965640001, 40.660277119599996], [-73.79781348, 40.660268755555556], [-73.79780828306667, 40.66025962448889], [-73.79780406560002, 40.6602497264], [-73.79780082760001, 40.66023906128889], [-73.79779856906669, 40.660227629155564], [-73.79779729, 40.66021543], [-73.79780631, 40.6596398], [-73.79781150497777, 40.65958890826667], [-73.79782037791111, 40.65954108373333], [-73.7978329288, 40.6594963264], [-73.79784915764446, 40.659454636266666], [-73.79786906444446, 40.65941601333334], [-73.7978926492, 40.659380457599994], [-73.79791991191111, 40.65934796906666], [-73.79795085257777, 40.659318547733335], [-73.7979854712, 40.6592921936], [-73.79802376777778, 40.65926890666667], [-73.79806574231111, 40.65924868693333], [-73.7981113948, 40.6592315344], [-73.79816072524444, 40.65921744906667], [-73.79821373364443, 40.65920643093333], [-73.79827042, 40.65919848], [-73.79827997, 40.65891758], [-73.79826178688887, 40.65891512355556], [-73.7982437468889, 40.6589120448889], [-73.79822585, 40.658908344], [-73.79820809622224, 40.6589040208889], [-73.79819048555557, 40.65889907555556], [-73.798173018, 40.658893508], [-73.79815569355556, 40.65888731822222], [-73.79813851222222, 40.658880506222225], [-73.798121474, 40.658873072], [-73.79810457888888, 40.65886501555556], [-73.79808782688889, 40.65885633688889], [-73.798071218, 40.658847036], [-73.79805475222223, 40.65883711288889], [-73.79803842955556, 40.65882656755556], [-73.79802225, 40.6588154], [-73.79800649084444, 40.65880386208889], [-73.79799142937779, 40.65879220568889], [-73.79797706560001, 40.65878043080001], [-73.79796339951112, 40.658768537422226], [-73.79795043111113, 40.65875652555556], [-73.79793816040001, 40.6587443952], [-73.79792658737779, 40.658732146355554], [-73.79791571204444, 40.65871977902222], [-73.7979055344, 40.6587072932], [-73.79789605444444, 40.658694688888886], [-73.79788727217777, 40.65868196608889], [-73.7978791876, 40.6586691248], [-73.7978718007111, 40.65865616502222], [-73.79786511151111, 40.65864308675556], [-73.79785912, 40.65862989], [-73.7978564896, 40.65862379911111], [-73.79785431573333, 40.65861784111111], [-73.79785259840001, 40.658612016], [-73.79785133760001, 40.65860632377778], [-73.79785053333335, 40.658600764444444], [-73.7978501856, 40.658595338], [-73.7978502944, 40.658590044444445], [-73.79785085973333, 40.65858488377778], [-73.7978518816, 40.658579856], [-73.79785336, 40.65857496111111], [-73.79785529493334, 40.65857019911111], [-73.79785768640001, 40.65856557], [-73.7978605344, 40.658561073777776], [-73.79786383893334, 40.658556710444444], [-73.7978676, 40.65855248], [-73.79787173488889, 40.6585484472], [-73.79787616088889, 40.6585446768], [-73.79788087800002, 40.6585411688], [-73.79788588622223, 40.6585379232], [-73.79789118555557, 40.65853494], [-73.797896776, 40.6585322192], [-73.79790265755555, 40.6585297608], [-73.79790883022223, 40.658527564799996], [-73.797915294, 40.6585256312], [-73.79792204888889, 40.65852396], [-73.79792909488889, 40.6585225512], [-73.797936432, 40.658521404800005], [-73.79794406022222, 40.658520520799996], [-73.79795197955555, 40.6585198992], [-73.79796019, 40.65851954], [-73.79815581, 40.65851952], [-73.79815897, 40.6583172], [-73.7979513, 40.65831328], [-73.7979361308, 40.658310700444446], [-73.79792198053333, 40.658307513777785], [-73.79790884920001, 40.65830372000001], [-73.79789673680001, 40.658299319111116], [-73.79788564333336, 40.65829431111112], [-73.79787556880001, 40.658288696], [-73.7978665132, 40.65828247377778], [-73.79785847653334, 40.658275644444444], [-73.79785145880001, 40.65826820800001], [-73.79784546, 40.65826016444445], [-73.79784048013333, 40.658251513777785], [-73.7978365192, 40.658242256], [-73.79783357720001, 40.65823239111111], [-73.79783165413335, 40.658221919111114], [-73.79783075, 40.65821084], [-73.7978283336889, 40.65817322751111], [-73.79782798608889, 40.65813581404445], [-73.79782970720001, 40.6580985996], [-73.79783349702224, 40.65806158417778], [-73.79783935555557, 40.65802476777778], [-73.7978472828, 40.6579881504], [-73.79785727875557, 40.657951732044445], [-73.79786934342224, 40.65791551271111], [-73.79788347680001, 40.6578794924], [-73.7978996788889, 40.65784367111111], [-73.7979179496889, 40.657808048844444], [-73.79793828920002, 40.6577726256], [-73.79796069742223, 40.65773740137778], [-73.79798517435556, 40.657702376177774], [-73.79801172, 40.65766755], [-73.7986621, 40.65682095], [-73.7986923036889, 40.65678291471111], [-73.79872415475556, 40.65674789684444], [-73.7987576532, 40.6567158964], [-73.79879279902222, 40.65668691337778], [-73.79882959222223, 40.65666094777778], [-73.79886803279999, 40.6566379996], [-73.79890812075556, 40.656618068844445], [-73.79894985608888, 40.65660115551111], [-73.7989932388, 40.6565872596], [-73.79903826888889, 40.656576381111115], [-73.79908494635555, 40.656568520044445], [-73.79913327119999, 40.6565636764], [-73.79918324342222, 40.65656185017778], [-73.79923486302222, 40.65656304137778], [-73.79928813, 40.65656725], [-73.79928161533333, 40.65658401391111], [-73.79927603133333, 40.656598382977776], [-73.79927137799999, 40.6566103572], [-73.79926765533332, 40.65661993657779], [-73.79926486333335, 40.65662712111112], [-73.79926300199999, 40.65663191080001], [-73.79926207133332, 40.65663430564445], [-73.79926300199999, 40.6566319108], [-73.79926486333332, 40.656627121111114], [-73.79926765533332, 40.65661993657778], [-73.79927137799999, 40.6566103572], [-73.79927603133333, 40.65659838297778], [-73.79928161533334, 40.656584013911115], [-73.79928813, 40.65656725], [-73.79929506088888, 40.65654924102222], [-73.79930189355557, 40.65653113675556], [-73.799308628, 40.656512937200006], [-73.79931526422223, 40.65649464235556], [-73.79932180222224, 40.656476252222234], [-73.799328242, 40.6564577668], [-73.79933458355556, 40.65643918608889], [-73.7993408268889, 40.656420510088886], [-73.799346972, 40.6564017388], [-73.7993530188889, 40.656382872222224], [-73.79935896755556, 40.65636391035555], [-73.799364818, 40.656344853200004], [-73.79937057022222, 40.65632570075556], [-73.79937622422223, 40.656306453022225], [-73.79938178, 40.65628711], [-73.79932500364446, 40.656268559377786], [-73.79927219191111, 40.65624813951111], [-73.7992233448, 40.656225850400006], [-73.79917846231112, 40.656201692044455], [-73.79913754444445, 40.65617566444445], [-73.79910059119999, 40.656147767600004], [-73.79906760257778, 40.65611800151112], [-73.79903857857778, 40.65608636617778], [-73.79901351919999, 40.6560528616], [-73.79899242444444, 40.65601748777778], [-73.7989752943111, 40.65598024471112], [-73.7989621288, 40.65594113240001], [-73.7989529279111, 40.655900150844445], [-73.79894769164444, 40.655857300044445], [-73.79894642, 40.65581258], [-73.79895815, 40.65511828], [-73.79896269724445, 40.65506851311112], [-73.79897122164446, 40.655021452444444], [-73.79898372320001, 40.65497709800001], [-73.79900020191113, 40.65493544977778], [-73.79902065777779, 40.654896507777785], [-73.7990450908, 40.654860272], [-73.79907350097778, 40.65482674244444], [-73.7991058883111, 40.65479591911111], [-73.7991422528, 40.654767802], [-73.79918259444445, 40.654742391111114], [-73.79922691324444, 40.65471968644444], [-73.7992752092, 40.654699688], [-73.79932748231111, 40.654682395777776], [-73.79938373257778, 40.65466780977777], [-73.79944396, 40.65465593], [-73.79944424, 40.65436072], [-73.79938638844443, 40.65434720613334], [-73.79933236977779, 40.654331128533336], [-73.799282184, 40.6543124872], [-73.7992358311111, 40.654291282133336], [-73.79919331111111, 40.65426751333334], [-73.799154624, 40.6542411808], [-73.79911976977777, 40.65421228453333], [-73.79908874844443, 40.654180824533334], [-73.79906156, 40.6541468008], [-73.79903820444443, 40.65411021333333], [-73.79901868177777, 40.654071062133326], [-73.799002992, 40.6540293472], [-73.79899113511111, 40.65398506853333], [-73.79898311111111, 40.653938226133334], [-73.79897892, 40.65388882], [-73.79899085, 40.65318247], [-73.79898774959999, 40.65313058008889], [-73.79898233373333, 40.653078297022226], [-73.79897460240001, 40.6530256208], [-73.7989645556, 40.65297255142222], [-73.79895219333334, 40.65291908888889], [-73.79893751559999, 40.652865233200004], [-73.7989205224, 40.65281098435556], [-73.79890121373333, 40.65275634235556], [-73.79887958959999, 40.652701307200005], [-73.79885565, 40.65264587888889], [-73.79882939493334, 40.65259005742223], [-73.79880082439999, 40.652533842800004], [-73.7987699384, 40.652477235022225], [-73.79873673693334, 40.65242023408889], [-73.79870122, 40.65236284], [-73.79867477053332, 40.652312711288886], [-73.79865341946667, 40.65226413315556], [-73.7986371668, 40.652217105599995], [-73.79862601253335, 40.65217162862223], [-73.79861995666668, 40.65212770222223], [-73.79861899920002, 40.6520853264], [-73.79862314013333, 40.65204450115556], [-73.79863237946667, 40.65200522648889], [-73.7986467172, 40.6519675024], [-73.79866615333333, 40.65193132888889], [-73.79869068786667, 40.65189670595555], [-73.7987203208, 40.6518636336], [-73.79875505213333, 40.651832111822216], [-73.79879488186667, 40.65180214062222], [-73.79883981, 40.65177372], [-73.79864614, 40.65152837], [-73.79858428697779, 40.6515370544], [-73.79852456257777, 40.65154246226667], [-73.7984669668, 40.6515445936], [-73.79841149964446, 40.651543448400005], [-73.79835816111112, 40.65153902666667], [-73.7983069512, 40.6515313284], [-73.79825786991111, 40.6515203536], [-73.79821091724445, 40.651506102266666], [-73.7981660932, 40.651488574400005], [-73.79812339777777, 40.65146777], [-73.79808283097776, 40.65144368906667], [-73.79804439280001, 40.6514163316], [-73.79800808324444, 40.6513856976], [-73.79797390231111, 40.65135178706667], [-73.79794185, 40.6513146], [-73.79777016, 40.65102689], [-73.79776289553185, 40.6510003718637], [-73.79775898345483, 40.65097312624297], [-73.79775837776, 40.65094499232001], [-73.79776103243853, 40.65091580927703], [-73.7977669014815, 40.650885416296305], [-73.79777593888001, 40.65085365256], [-73.79778809862518, 40.65082035725037], [-73.79780333470815, 40.65078536954963], [-73.79782160112, 40.65074852864], [-73.79784285185187, 40.65070967370371], [-73.79786704089481, 40.650668643922955], [-73.79789412224, 40.65062527848001], [-73.79792404987853, 40.650579416557036], [-73.79795677780149, 40.650530897336296], [-73.79799226, 40.65047956], [-73.79801700955555, 40.65043786093332], [-73.7980400848889, 40.65039507040001], [-73.798061486, 40.6503511884], [-73.7980812128889, 40.65030621493334], [-73.79809926555558, 40.65026015], [-73.798115644, 40.6502129936], [-73.79813034822223, 40.650164745733335], [-73.79814337822222, 40.6501154064], [-73.798154734, 40.650064975599996], [-73.79816441555556, 40.65001345333334], [-73.79817242288888, 40.6499608396], [-73.798178756, 40.6499071344], [-73.79818341488888, 40.649852337733336], [-73.79818639955556, 40.6497964496], [-73.79818771, 40.64973947], [-73.79820193, 40.64833611], [-73.79820300151113, 40.64825025311111], [-73.7981993173778, 40.64816524777778], [-73.7981908776, 40.648081094], [-73.7981776821778, 40.64799779177778], [-73.79815973111114, 40.647915341111116], [-73.7981370244, 40.647833742], [-73.79810956204446, 40.647752994444446], [-73.79807734404446, 40.64767309844444], [-73.7980403704, 40.647594054], [-73.79799864111112, 40.64751586111111], [-73.79795215617779, 40.64743851977778], [-73.79790091560001, 40.64736203], [-73.79784491937778, 40.647286391777776], [-73.79778416751111, 40.64721160511112], [-73.79771866, 40.64713767], [-73.79649237, 40.64583272], [-73.79645917555554, 40.64579616533334], [-73.79642781622222, 40.64576069866667], [-73.796398292, 40.64572632], [-73.7963706028889, 40.64569302933334], [-73.7963447488889, 40.64566082666668], [-73.79632073, 40.645629712], [-73.79629854622223, 40.64559968533334], [-73.79627819755555, 40.64557074666667], [-73.796259684, 40.645542896], [-73.79624300555555, 40.64551613333334], [-73.79622816222223, 40.64549045866667], [-73.796215154, 40.645465872], [-73.79620398088889, 40.64544237333334], [-73.79619464288889, 40.645419962666665], [-73.79618714, 40.64539864], [-73.79590651, 40.64545032]], [[-73.79586643, 40.64597672], [-73.79590438582224, 40.645961030622225], [-73.7959426372889, 40.64594933582222], [-73.79598118440002, 40.64594163560001], [-73.79602002715558, 40.64593792995556], [-73.79605916555558, 40.645938218888894], [-73.79609859960001, 40.6459425024], [-73.7961383292889, 40.64595078048889], [-73.79617835462223, 40.645963053155555], [-73.7962186756, 40.6459793204], [-73.79625929222223, 40.645999582222224], [-73.79630020448889, 40.64602383862221], [-73.79634141240001, 40.646052089600005], [-73.79638291595555, 40.64608433515556], [-73.79642471515555, 40.64612057528888], [-73.79646681, 40.64616081], [-73.79679174, 40.64651024], [-73.79682695706668, 40.64655907844444], [-73.79685721626667, 40.64660585777777], [-73.79688251760003, 40.646650578], [-73.79690286106668, 40.646693239111116], [-73.79691824666668, 40.64673384111111], [-73.7969286744, 40.646772384], [-73.79693414426667, 40.64680886777777], [-73.79693465626667, 40.646843292444444], [-73.7969302104, 40.646875658], [-73.79692080666666, 40.64690596444444], [-73.79690644506667, 40.646934211777776], [-73.79688712560001, 40.6469604], [-73.79686284826667, 40.64698452911111], [-73.79683361306668, 40.64700659911111], [-73.79679942, 40.64702661], [-73.79676252062222, 40.64704360115555], [-73.7967251664889, 40.64705661195556], [-73.7966873576, 40.6470656424], [-73.79664909395557, 40.647070692488896], [-73.79661037555556, 40.647071762222225], [-73.79657120239999, 40.6470688516], [-73.79653157448888, 40.647061960622224], [-73.79649149182222, 40.647051089288894], [-73.7964509544, 40.647036237600005], [-73.79640996222221, 40.64701740555556], [-73.79636851528889, 40.646994593155554], [-73.7963266136, 40.6469678004], [-73.79628425715556, 40.646937027288885], [-73.79624144595556, 40.64690227382222], [-73.79619818, 40.64686354], [-73.79580417, 40.64643647], [-73.79577690715556, 40.64639372088889], [-73.79575413195556, 40.64635270022223], [-73.7957358444, 40.646313408], [-73.7957220444889, 40.646275844222224], [-73.79571273222223, 40.646240008888896], [-73.79570790760002, 40.646205902], [-73.79570757062223, 40.646173523555554], [-73.7957117212889, 40.646142873555554], [-73.79572035960001, 40.646113952], [-73.79573348555556, 40.64608675888889], [-73.79575109915555, 40.64606129422222], [-73.7957732004, 40.646037558], [-73.79579978928889, 40.646015550222224], [-73.79583086582223, 40.64599527088889], [-73.79586643, 40.64597672]], [[-73.79710388, 40.64721879], [-73.79714215626664, 40.647207914755555], [-73.79718022773334, 40.64720081168888], [-73.79721809440001, 40.647197480799996], [-73.79725575626668, 40.647197922088885], [-73.79729321333335, 40.64720213555556], [-73.7973304656, 40.6472101212], [-73.79736751306666, 40.647221879022226], [-73.79740435573332, 40.64723740902222], [-73.7974409936, 40.6472567112], [-73.79747742666666, 40.647279785555554], [-73.79751365493333, 40.647306632088885], [-73.7975496784, 40.6473372508], [-73.79758549706666, 40.64737164168889], [-73.79762111093333, 40.64740980475556], [-73.79765652, 40.64745174], [-73.797623088, 40.647413328977784], [-73.79759443200001, 40.64738040524445], [-73.79757055200001, 40.6473529688], [-73.797551448, 40.647331019644454], [-73.79753712000002, 40.64731455777778], [-73.797527568, 40.6473035832], [-73.797522792, 40.64729809591111], [-73.797527568, 40.6473035832], [-73.79753712000002, 40.647314557777776], [-73.797551448, 40.64733101964444], [-73.79757055200001, 40.6473529688], [-73.79759443200001, 40.64738040524445], [-73.797623088, 40.647413328977784], [-73.79765652, 40.64745174], [-73.7976912369778, 40.64749411115556], [-73.79772374791112, 40.64753891528889], [-73.79775405280002, 40.64758615240001], [-73.79778215164445, 40.647635822488894], [-73.79780804444445, 40.64768792555556], [-73.7978317312, 40.647742461600004], [-73.7978532119111, 40.64779943062223], [-73.79787248657777, 40.64785883262222], [-73.7978895552, 40.647920667600005], [-73.79790441777777, 40.647984935555556], [-73.7979170743111, 40.64805163648889], [-73.7979275248, 40.648120770400006], [-73.79793576924445, 40.64819233728889], [-73.79794180764445, 40.648266337155555], [-73.79794564, 40.64834277], [-73.79792264, 40.6497424], [-73.79792044964444, 40.64978155048889], [-73.79791767057779, 40.64981919395555], [-73.79791430280001, 40.64985533040001], [-73.79791034631113, 40.649889959822225], [-73.79790580111111, 40.64992308222222], [-73.7979006672, 40.6499546976], [-73.79789494457778, 40.64998480595556], [-73.79788863324444, 40.65001340728889], [-73.7978817332, 40.650040501599996], [-73.79787424444444, 40.65006608888889], [-73.79786616697778, 40.650090169155554], [-73.7978575008, 40.650112742400005], [-73.79784824591111, 40.65013380862222], [-73.79783840231111, 40.65015336782223], [-73.79782797, 40.65017142], [-73.79781598160001, 40.65019005991111], [-73.79780207506666, 40.65020741431111], [-73.79778625040001, 40.65022348320001], [-73.79776850760001, 40.65023826657778], [-73.79774884666668, 40.65025176444445], [-73.7977272676, 40.650263976800005], [-73.7977037704, 40.650274903644444], [-73.79767835506667, 40.65028454497778], [-73.79765102159999, 40.6502929008], [-73.79762177, 40.65029997111111], [-73.79759060026666, 40.650305755911106], [-73.7975575124, 40.650310255200004], [-73.7975225064, 40.65031346897778], [-73.79748558226666, 40.65031539724445], [-73.79744674, 40.65031604], [-73.79740813653333, 40.6503150176], [-73.7973719288, 40.6503119504], [-73.7973381168, 40.650306838400006], [-73.79730670053334, 40.6502996816], [-73.79727768, 40.65029048000001], [-73.7972510552, 40.650279233599996], [-73.79722682613334, 40.6502659424], [-73.7972049928, 40.6502506064], [-73.7971855552, 40.650233225600005], [-73.79716851333333, 40.6502138], [-73.7971538672, 40.6501923296], [-73.7971416168, 40.650168814400004], [-73.79713176213333, 40.6501432544], [-73.79712430320001, 40.650115649600004], [-73.79711924, 40.650086], [-73.79716018, 40.64973464], [-73.79717553, 40.64830588], [-73.79717323226666, 40.648260688844445], [-73.79716906973333, 40.64821570471111], [-73.79716304240002, 40.648170927600006], [-73.79715515026668, 40.64812635751112], [-73.79714539333334, 40.648081994444446], [-73.7971337716, 40.6480378384], [-73.79712028506667, 40.64799388937777], [-73.79710493373334, 40.64795014737778], [-73.7970877176, 40.6479066124], [-73.79706863666667, 40.64786328444444], [-73.79704769093333, 40.647820163511106], [-73.7970248804, 40.647777249600004], [-73.79700020506667, 40.64773454271111], [-73.79697366493333, 40.64769204284444], [-73.79694526, 40.64764975], [-73.79692988426667, 40.64760611462222], [-73.79691821573334, 40.647564608488885], [-73.79691025440002, 40.6475252316], [-73.79690600026667, 40.647487983955564], [-73.79690545333334, 40.64745286555555], [-73.79690861360001, 40.647419876399994], [-73.79691548106666, 40.64738901648888], [-73.79692605573334, 40.647360285822224], [-73.79694033759999, 40.647333684399996], [-73.79695832666667, 40.64730921222222], [-73.79698002293333, 40.647286869288884], [-73.79700542639999, 40.64726665559999], [-73.79703453706666, 40.64724857115555], [-73.79706735493333, 40.64723261595555], [-73.79710388, 40.64721879]], [[-73.79680624, 40.65113725], [-73.79676027689186, 40.651132335312596], [-73.79671892820147, 40.65112515250075], [-73.79668200888001, 40.65111572144001], [-73.79664933387852, 40.651104062005935], [-73.79662071814815, 40.65109019407409], [-73.79659597663999, 40.651074137520006], [-73.79657492430518, 40.65105591221926], [-73.79655737609481, 40.65103553804741], [-73.79654314696, 40.65101303488001], [-73.79653205185186, 40.6509884225926], [-73.79652390572147, 40.650961721060746], [-73.79651852352, 40.650932950160005], [-73.79651572019851, 40.65090212976593], [-73.79651531070814, 40.65086927975408], [-73.79651711, 40.65083442], [-73.79652168595557, 40.65079979722371], [-73.79652956591111, 40.65076763912296], [-73.79654050400002, 40.65073793704001], [-73.79655425435557, 40.65071068231704], [-73.79657057111112, 40.65068586629631], [-73.79658920840001, 40.650663480320006], [-73.79660992035556, 40.650643515730366], [-73.79663246111112, 40.65062596386963], [-73.79665658480002, 40.650610816080004], [-73.79668204555557, 40.65059806370371], [-73.79670859751111, 40.65058769808296], [-73.79673599480002, 40.65057971056001], [-73.79676399155557, 40.650574092477044], [-73.79679234191113, 40.6505708351763], [-73.7968208, 40.65056993], [-73.79685031181039, 40.65057145650667], [-73.79688161848297, 40.650575498320016], [-73.79691416688001, 40.65058205288001], [-73.79694740386371, 40.650591117626675], [-73.79698077629631, 40.650602690000014], [-73.79701373104002, 40.650616767440006], [-73.79704571495702, 40.65063334738667], [-73.79707617490962, 40.650652427279994], [-73.79710455776001, 40.65067400456], [-73.79713031037038, 40.65069807666667], [-73.79715287960296, 40.65072464104], [-73.79717171232001, 40.65075369512], [-73.7971862553837, 40.65078523634667], [-73.79719595565629, 40.65081926216], [-73.79720026, 40.65085577], [-73.79719948593777, 40.650892473792595], [-73.79719441976889, 40.650927025940746], [-73.79718521152002, 40.650959331600006], [-73.79717201121778, 40.65098929592593], [-73.7971549688889, 40.65101682407408], [-73.79713423456, 40.6510418212], [-73.79710995825776, 40.65106419245926], [-73.79708229000887, 40.651083843007406], [-73.79705137984001, 40.651100678], [-73.79701737777779, 40.65111460259259], [-73.79698043384889, 40.65112552194074], [-73.79694069808, 40.6511333412], [-73.79689832049777, 40.651137965525926], [-73.79685345112888, 40.65113930007407], [-73.79680624, 40.65113725]], [[-73.79714909, 40.65138185], [-73.79719078853927, 40.65136594462519], [-73.79723524818074, 40.651355451001486], [-73.79728177296002, 40.65134990488001], [-73.79732966691259, 40.65134884201186], [-73.7973782340741, 40.651351798148156], [-73.79742677848002, 40.651358309040006], [-73.79747460416591, 40.651367910438516], [-73.7975210151674, 40.65138013809481], [-73.79756531552, 40.65139452776], [-73.79760680925926, 40.651410615185185], [-73.79764480042073, 40.65142793612148], [-73.79767859304, 40.65144602632], [-73.7977074911526, 40.651464421531855], [-73.79773079879408, 40.65148265750815], [-73.79774782, 40.65150027], [-73.79776021992296, 40.65151948500149], [-73.79777005538371, 40.65154245107853], [-73.79777721792001, 40.65156858784], [-73.79778159906964, 40.65159731489482], [-73.79778309037039, 40.65162805185186], [-73.79778158335999, 40.65166021832], [-73.79777696957629, 40.65169323390814], [-73.79776914055704, 40.651726518225175], [-73.79775798784, 40.65175949088], [-73.79774340296296, 40.651791571481475], [-73.7977252774637, 40.651822179638515], [-73.79770350288, 40.65185073495999], [-73.79767797074962, 40.651876657054814], [-73.79764857261037, 40.651899365531854], [-73.7976152, 40.65191828], [-73.79757836781926, 40.651932407881475], [-73.79753908122076, 40.651941454518514], [-73.79749796712002, 40.6519458864], [-73.7974556524326, 40.651946170014824], [-73.7974127640741, 40.651942771851864], [-73.79736992896, 40.651936158400005], [-73.79732777400592, 40.651926796148146], [-73.79728692612741, 40.651915151585186], [-73.79724801224, 40.651901691199996], [-73.79721165925926, 40.65188688148149], [-73.79717849410073, 40.65187118891852], [-73.79714914368, 40.65185508], [-73.79712423491259, 40.65183902121482], [-73.79710439471407, 40.65182347905185], [-73.79709025, 40.65180892], [-73.79707884654518, 40.6517925275763], [-73.79706718822816, 40.65177160567704], [-73.79705583912002, 40.65174680136001], [-73.79704536329187, 40.651718761682964], [-73.79703632481483, 40.65168813370371], [-73.79702928776, 40.65165556448001], [-73.79702481619853, 40.65162170106962], [-73.79702347420148, 40.651587190530364], [-73.79702582584001, 40.65155267992], [-73.79703243518519, 40.6515188162963], [-73.79704386630816, 40.651486246717035], [-73.79706068328002, 40.65145561824], [-73.79708345017185, 40.65142757792296], [-73.79711273105482, 40.65140277282371], [-73.79714909, 40.65138185]], [[-73.79786425, 40.65225994], [-73.79790339453334, 40.65224247724445], [-73.79794292946669, 40.652229776977784], [-73.79798285480001, 40.65222183920001], [-73.79802317053334, 40.652218663911114], [-73.79806387666667, 40.65222025111112], [-73.7981049732, 40.6522266008], [-73.79814646013332, 40.65223771297778], [-73.79818833746667, 40.65225358764445], [-73.79823060519999, 40.652274224799996], [-73.79827326333333, 40.652299624444446], [-73.79831631186667, 40.65232978657778], [-73.79835975079999, 40.6523647112], [-73.79840358013332, 40.652404398311106], [-73.79844779986666, 40.65244884791111], [-73.79849241, 40.65249806], [-73.79846560964444, 40.65246222622222], [-73.79844263791111, 40.65243151155556], [-73.7984234948, 40.652405916], [-73.79840818031111, 40.65238543955556], [-73.79839669444445, 40.65237008222223], [-73.7983890372, 40.652359844], [-73.79838520857777, 40.652354724888895], [-73.79838520857777, 40.65235472488889], [-73.7983890372, 40.652359844], [-73.79839669444445, 40.65237008222222], [-73.7984081803111, 40.65238543955555], [-73.7984234948, 40.652405916], [-73.79844263791111, 40.652431511555555], [-73.79846560964445, 40.65246222622223], [-73.79849241, 40.65249806], [-73.79852027937778, 40.652536948], [-73.79854645817777, 40.652576825333334], [-73.79857094639999, 40.652617692], [-73.79859374404445, 40.652659548], [-73.7986148511111, 40.65270239333334], [-73.7986342676, 40.652746228], [-73.7986519935111, 40.652791052], [-73.79866802884445, 40.652836865333335], [-73.7986823736, 40.652883668], [-73.79869502777777, 40.65293146], [-73.79870599137777, 40.65298024133333], [-73.7987152644, 40.653030012], [-73.79872284684444, 40.653080772], [-73.7987287387111, 40.65313252133333], [-73.79873294, 40.65318526], [-73.79871859, 40.65389768], [-73.79871073897776, 40.65395758404444], [-73.79870007657777, 40.65401331217778], [-73.79868660279999, 40.654064864400006], [-73.79867031764445, 40.65411224071111], [-73.7986512211111, 40.654155441111115], [-73.7986293132, 40.65419446559999], [-73.79860459391111, 40.654229314177776], [-73.79857706324444, 40.65425998684444], [-73.7985467212, 40.654286483599996], [-73.79851356777777, 40.65430880444444], [-73.79847760297778, 40.654326949377776], [-73.79843882680001, 40.654340918399996], [-73.79839723924445, 40.65435071151111], [-73.79835284031111, 40.65435632871111], [-73.79830563, 40.65435777], [-73.79825847013333, 40.654355251111106], [-73.79821422253335, 40.65434898777778], [-73.79817288720001, 40.65433898], [-73.79813446413334, 40.65432522777778], [-73.79809895333335, 40.65430773111112], [-73.7980663548, 40.65428649], [-73.79803666853333, 40.65426150444444], [-73.79800989453334, 40.654232774444445], [-73.79798603280001, 40.6542003], [-73.79796508333334, 40.65416408111111], [-73.79794704613334, 40.65412411777778], [-73.7979319212, 40.65408041], [-73.79791970853333, 40.65403295777779], [-73.79791040813333, 40.65398176111111], [-73.79790402, 40.65392682], [-73.7979167, 40.65318526], [-73.79791572480002, 40.65315107133333], [-73.79791301253333, 40.653117089333335], [-73.79790856320001, 40.653083314000014], [-73.79790237680001, 40.65304974533334], [-73.79789445333334, 40.65301638333334], [-73.7978847928, 40.652983228], [-73.7978733952, 40.65295027933333], [-73.79786026053334, 40.65291753733334], [-73.7978453888, 40.652885002], [-73.79782878, 40.65285267333333], [-73.79781043413334, 40.652820551333335], [-73.7977903512, 40.652788636], [-73.7977685312, 40.652756927333336], [-73.79774497413334, 40.65272542533334], [-73.79771968, 40.65269413], [-73.79770196075557, 40.65265668880001], [-73.79768814968888, 40.6526204612], [-73.7976782468, 40.6525854472], [-73.7976722520889, 40.6525516468], [-73.79767016555557, 40.65251906000001], [-73.7976719872, 40.6524876868], [-73.79767771702222, 40.6524575272], [-73.79768735502223, 40.6524285812], [-73.7977009012, 40.6524008488], [-73.79771835555556, 40.65237433], [-73.79773971808889, 40.6523490248], [-73.79776498880001, 40.652324933200006], [-73.79779416768889, 40.6523020552], [-73.79782725475556, 40.6522803908], [-73.79786425, 40.65225994]], [[-73.79830166, 40.65462861], [-73.79834904937779, 40.654630974044444], [-73.79839341484445, 40.654637204844455], [-73.79843475640001, 40.65464730240001], [-73.79847307404447, 40.65466126671111], [-73.79850836777777, 40.65467909777778], [-73.7985406376, 40.6547007956], [-73.7985698835111, 40.65472636017778], [-73.79859610551111, 40.65475579151111], [-73.7986193036, 40.6547890896], [-73.79863947777778, 40.654826254444444], [-73.79865662804445, 40.65486728604445], [-73.7986707544, 40.654912184400004], [-73.79868185684445, 40.654960949511114], [-73.79868993537778, 40.65501358137778], [-73.79869499, 40.65507008], [-73.79867909, 40.65585968], [-73.79867030395555, 40.65591504986667], [-73.79865882315556, 40.65596655146667], [-73.7986446476, 40.65601418479999], [-73.79862777728889, 40.65605794986667], [-73.79860821222222, 40.65609784666667], [-73.79858595239999, 40.65613387519999], [-73.79856099782222, 40.65616603546667], [-73.79853334848889, 40.656194327466665], [-73.7985030044, 40.6562187512], [-73.79846996555555, 40.65623930666666], [-73.79843423195555, 40.656255993866665], [-73.7983958036, 40.65626881279999], [-73.79835468048888, 40.65627776346667], [-73.79831086262222, 40.65628284586666], [-73.79826435, 40.65628406], [-73.79821793373333, 40.6562814156], [-73.79817440493335, 40.6562749224], [-73.7981337636, 40.656264580400006], [-73.79809600973334, 40.656250389600004], [-73.79806114333334, 40.65623235000001], [-73.7980291644, 40.6562104616], [-73.79800007293333, 40.65618472439999], [-73.79797386893334, 40.6561551384], [-73.79795055240001, 40.65612170360001], [-73.79793012333333, 40.65608442], [-73.79791258173333, 40.6560432876], [-73.7978979276, 40.6559983064], [-73.79788616093333, 40.6559494764], [-73.79787728173334, 40.6558967976], [-73.79787129, 40.65584027], [-73.79788477, 40.6550525], [-73.79789286124445, 40.65499746333333], [-73.7979037669778, 40.654946252], [-73.79791748720001, 40.654898866], [-73.79793402191112, 40.65485530533334], [-73.79795337111113, 40.65481557], [-73.7979755348, 40.65477966000001], [-73.79800051297778, 40.65474757533333], [-73.79802830564445, 40.654719316], [-73.7980589128, 40.654694882], [-73.79809233444445, 40.654674273333335], [-73.79812857057779, 40.65465749], [-73.79816762120001, 40.654644532], [-73.79820948631112, 40.65463539933334], [-73.79825416591112, 40.654630092], [-73.79830166, 40.65462861]], [[-73.79822397, 40.65655039], [-73.79825579146666, 40.6565517468], [-73.79828491453333, 40.656554737200004], [-73.79831133920001, 40.6565593612], [-73.79833506546667, 40.65656561880001], [-73.79835609333334, 40.65657351], [-73.7983744228, 40.6565830348], [-73.79839005386667, 40.6565941932], [-73.79840298653333, 40.6566069852], [-73.7984132208, 40.65662141080001], [-73.79842075666667, 40.65663747], [-73.79842559413333, 40.65665516280001], [-73.7984277332, 40.6566744892], [-73.79842717386667, 40.6566954492], [-73.79842391613333, 40.6567180428], [-73.79841796, 40.65674227], [-73.79803089, 40.65723582], [-73.79801128097778, 40.65725228462222], [-73.79799273124445, 40.65726608915555], [-73.7979752408, 40.6572772336], [-73.79795880964446, 40.65728571795556], [-73.79794343777779, 40.657291542222225], [-73.7979291252, 40.657294706399995], [-73.79791587191112, 40.65729521048889], [-73.79790367791111, 40.65729305448889], [-73.7978925432, 40.6572882384], [-73.79788246777778, 40.65728076222222], [-73.79787345164445, 40.657270625955555], [-73.7978654948, 40.6572578296], [-73.79785859724444, 40.657242373155555], [-73.79785275897777, 40.65722425662222], [-73.79784798, 40.65720348], [-73.79785337, 40.65688796], [-73.797862658, 40.65684411497778], [-73.79787414866666, 40.65680331857778], [-73.797887842, 40.6567655708], [-73.797903738, 40.65673087164445], [-73.79792183666667, 40.65669922111112], [-73.797942138, 40.6566706192], [-73.797964642, 40.65664506591111], [-73.79798934866666, 40.65662256124444], [-73.798016258, 40.6566031052], [-73.79804537, 40.656586697777776], [-73.79807668466665, 40.65657333897778], [-73.798110202, 40.6565630288], [-73.798145922, 40.65655576724444], [-73.79818384466667, 40.656551554311115], [-73.79822397, 40.65655039]], [[-73.79593612, 40.65162531], [-73.79443287, 40.65227384], [-73.79437000457779, 40.65229551], [-73.79430973364445, 40.652313472], [-73.7942520572, 40.652327726], [-73.79419697524445, 40.652338272], [-73.7941444877778, 40.65234511], [-73.79409459480001, 40.65234824], [-73.79404729631112, 40.652347662], [-73.79400259231112, 40.652343376], [-73.7939604828, 40.652335382], [-73.79392096777778, 40.65232368], [-73.79388404724445, 40.65230827], [-73.79384972120002, 40.652289152], [-73.79381798964445, 40.652266326], [-73.79378885257779, 40.652239792], [-73.79376231, 40.65220955], [-73.79374010684444, 40.652177643155554], [-73.79372398804445, 40.65214611462223], [-73.79371395360002, 40.652114964400006], [-73.79371000351112, 40.65208419248889], [-73.79371213777779, 40.65205379888889], [-73.79372035640002, 40.6520237836], [-73.79373465937778, 40.65199414662223], [-73.79375504671111, 40.65196488795556], [-73.79378151840001, 40.6519360076], [-73.79381407444444, 40.651907505555556], [-73.79385271484445, 40.65187938182222], [-73.79389743960002, 40.6518516364], [-73.79394824871112, 40.65182426928889], [-73.79400514217778, 40.651797280488886], [-73.79406812, 40.65177067], [-73.79574453, 40.65106064], [-73.79579305897778, 40.65105357697777], [-73.79583939791111, 40.65104872657778], [-73.7958835468, 40.6510460888], [-73.79592550564443, 40.651045663644446], [-73.79596527444444, 40.65104745111112], [-73.7960028532, 40.6510514512], [-73.7960382419111, 40.65105766391111], [-73.79607144057778, 40.65106608924445], [-73.79610244919999, 40.65107672720001], [-73.79613126777778, 40.65108957777778], [-73.79615789631112, 40.65110464097778], [-73.7961823348, 40.65112191680001], [-73.79620458324445, 40.651141405244445], [-73.79622464164444, 40.65116310631112], [-73.79624251, 40.65118702], [-73.79625601315556, 40.65121841773334], [-73.7962646692889, 40.651249504266666], [-73.79626847840001, 40.6512802796], [-73.79626744048889, 40.65131074373334], [-73.79626155555557, 40.651340896666674], [-73.79625082359999, 40.6513707384], [-73.79623524462222, 40.65140026893333], [-73.79621481862222, 40.65142948826667], [-73.7961895456, 40.6514583964], [-73.79615942555554, 40.651486993333336], [-73.79612445848889, 40.65151527906667], [-73.7960846444, 40.651543253599996], [-73.79603998328889, 40.65157091693333], [-73.79599047515555, 40.65159826906667], [-73.79593612, 40.65162531]], [[-73.79346018, 40.65237727], [-73.7934596292, 40.652407404044446], [-73.7934559288, 40.65243672084445], [-73.79344907880001, 40.6524652204], [-73.79343907920001, 40.65249290271111], [-73.79342593000001, 40.65251976777778], [-73.7934096312, 40.6525458156], [-73.79339018280001, 40.65257104617778], [-73.7933675848, 40.652595459511105], [-73.7933418372, 40.6526190556], [-73.79331294, 40.65264183444444], [-73.7932808932, 40.65266379604444], [-73.7932456968, 40.65268494040001], [-73.7932073508, 40.65270526751111], [-73.7931658552, 40.65272477737778], [-73.79312121, 40.65274347], [-73.79315636306667, 40.65273593364444], [-73.79318649426668, 40.65272947391111], [-73.79321160360001, 40.65272409080001], [-73.79323169106668, 40.65271978431112], [-73.79324675666668, 40.652716554444446], [-73.7932568004, 40.6527144012], [-73.79326182226666, 40.652713324577775], [-73.7932568004, 40.6527144012], [-73.79324675666666, 40.65271655444444], [-73.79323169106667, 40.65271978431111], [-73.7932116036, 40.6527240908], [-73.79318649426666, 40.65272947391111], [-73.79315636306667, 40.65273593364444], [-73.79312121, 40.65274347], [-73.79306329806222, 40.65275521428741], [-73.79300242543111, 40.65276606909926], [-73.79293839888, 40.65277580336001], [-73.79287102518224, 40.65278418599408], [-73.79280011111112, 40.65279098592593], [-73.79272546344, 40.65279597208], [-73.79264688894222, 40.652798913380735], [-73.7925641943911, 40.652799578752585], [-73.79247718655999, 40.652797737120004], [-73.79238567222222, 40.652793157407416], [-73.7922894581511, 40.65278560853926], [-73.79218835111999, 40.65277485944001], [-73.79208215790221, 40.652760679034074], [-73.79197068527111, 40.65274283624593], [-73.79185374, 40.6527211], [-73.7896357, 40.65218718], [-73.78957134013334, 40.65217053053333], [-73.78951226586666, 40.652152387466664], [-73.78945847720001, 40.6521327508], [-73.78940997413336, 40.65211162053334], [-73.78936675666668, 40.65208899666668], [-73.78932882480001, 40.652064879200005], [-73.78929617853333, 40.652039268133336], [-73.78926881786667, 40.65201216346667], [-73.7892467428, 40.6519835652], [-73.78922995333335, 40.651953473333336], [-73.78921844946667, 40.65192188786666], [-73.78921223120001, 40.6518888088], [-73.78921129853333, 40.65185423613334], [-73.78921565146668, 40.65181816986667], [-73.78922529, 40.65178061], [-73.7892394608889, 40.651744204177774], [-73.7892574108889, 40.65171160004445], [-73.78927914, 40.651682797599996], [-73.78930464822223, 40.651657796844454], [-73.78933393555558, 40.65163659777778], [-73.789367002, 40.651619200400006], [-73.78940384755556, 40.65160560471111], [-73.78944447222223, 40.651595810711115], [-73.789488876, 40.6515898184], [-73.7895370588889, 40.65158762777777], [-73.78958902088888, 40.651589238844444], [-73.789644762, 40.6515946516], [-73.78970428222223, 40.65160386604445], [-73.78976758155555, 40.65161688217778], [-73.78983466, 40.6516337], [-73.79209324, 40.6521788], [-73.79213921493333, 40.65218895204445], [-73.79218616640001, 40.652197840177784], [-73.79223409440002, 40.652205464400005], [-73.79228299893335, 40.65221182471112], [-73.79233288, 40.65221692111112], [-73.7923837376, 40.652220753600005], [-73.79243557173334, 40.652223322177775], [-73.7924883824, 40.65222462684445], [-73.79254216960001, 40.6522246676], [-73.79259693333333, 40.652223444444445], [-73.7926526736, 40.65222095737778], [-73.7927093904, 40.6522172064], [-73.79276708373334, 40.65221219151111], [-73.7928257536, 40.65220591271111], [-73.7928854, 40.65219837], [-73.79295852702224, 40.65219292173333], [-73.79302668142222, 40.65218995560001], [-73.79308986320001, 40.6521894716], [-73.79314807235556, 40.65219146973334], [-73.79320130888891, 40.65219595], [-73.7932495728, 40.6522029124], [-73.79329286408888, 40.65221235693334], [-73.79333118275555, 40.652224283600006], [-73.7933645288, 40.652238692400005], [-73.79339290222222, 40.65225558333334], [-73.79341630302221, 40.65227495640001], [-73.7934347312, 40.65229681160001], [-73.79344818675555, 40.65232114893334], [-73.7934566696889, 40.6523479684], [-73.79346018, 40.65237727]], [[-73.78885634, 40.65172388], [-73.78885415946668, 40.65175686888888], [-73.78884761786667, 40.651788536888894], [-73.7888367152, 40.651818884], [-73.78882145146667, 40.65184791022222], [-73.78880182666666, 40.65187561555556], [-73.7887778408, 40.651902], [-73.78874949386667, 40.651927063555554], [-73.78871678586665, 40.651950806222224], [-73.7886797168, 40.651973228], [-73.78863828666667, 40.65199432888889], [-73.78859249546667, 40.652014108888885], [-73.7885423432, 40.652032568], [-73.78848782986667, 40.65204970622222], [-73.78842895546669, 40.65206552355555], [-73.78836572, 40.65208002], [-73.78817044, 40.65210517], [-73.78810684164444, 40.65211174471111], [-73.78804664124443, 40.65211529551111], [-73.7879898388, 40.6521158224], [-73.78793643431112, 40.65211332537778], [-73.78788642777778, 40.652107804444455], [-73.7878398192, 40.65209925960001], [-73.78779660857776, 40.652087690844446], [-73.78775679591111, 40.65207309817777], [-73.78772038119999, 40.6520554816], [-73.78768736444444, 40.65203484111111], [-73.78765774564444, 40.65201117671111], [-73.78763152479999, 40.651984488400004], [-73.78760870191111, 40.65195477617778], [-73.78758927697777, 40.65192204004445], [-73.78757325, 40.65188628], [-73.78756130324444, 40.6518499312], [-73.78755411897778, 40.6518154288], [-73.7875516972, 40.651782772800004], [-73.78755403791112, 40.651751963200006], [-73.78756114111113, 40.651723], [-73.7875730068, 40.651695883200006], [-73.78758963497778, 40.651670612800004], [-73.78761102564445, 40.6516471888], [-73.7876371788, 40.651625611200004], [-73.78766809444444, 40.65160588], [-73.78770377257777, 40.6515879952], [-73.7877442132, 40.651571956800005], [-73.78778941631111, 40.6515577648], [-73.78783938191111, 40.651545419200005], [-73.78789411, 40.65153492], [-73.78827361, 40.65149298], [-73.78834871742222, 40.6514913344], [-73.78841864502223, 40.651492122933334], [-73.7884833928, 40.651495345600004], [-73.78854296075556, 40.6515010024], [-73.7885973488889, 40.65150909333334], [-73.7886465572, 40.65151961840001], [-73.7886905856889, 40.6515325776], [-73.78872943435556, 40.65154797093333], [-73.7887631032, 40.6515657984], [-73.78879159222222, 40.65158606], [-73.78881490142223, 40.651608755733335], [-73.78883303079999, 40.651633885600006], [-73.78884598035555, 40.6516614496], [-73.78885375008889, 40.651691447733334], [-73.78885634, 40.65172388]]]}}, {"type": "Feature", "properties": {"name": "New Taxiway 183", "surface_type": "UNKNOWN_54", "smoothness": 0.0, "texture_orientation": 31.0}, "geometry": {"type": "Polygon", "coordinates": [[[-73.78126114, 40.64817927], [-73.7784413, 40.64791838], [-73.77679106, 40.64713218], [-73.77484151, 40.64590532], [-73.77220791, 40.64588698], [-73.77191726, 40.64588496], [-73.77167161, 40.64617709], [-73.77166622, 40.64627236], [-73.77197146, 40.64670761], [-73.77361904, 40.64745486], [-73.77391921, 40.647591], [-73.77582004, 40.64845311], [-73.77616353, 40.6486089], [-73.77790545, 40.64939895], [-73.7782139, 40.64953884], [-73.78036145, 40.65051286], [-73.78067255, 40.65065396], [-73.78155952, 40.65105624], [-73.78187065, 40.65119735], [-73.78254819, 40.65150465], [-73.78286268, 40.65164728], [-73.78391778, 40.65212582], [-73.78392498382223, 40.652129960577774], [-73.7839327072889, 40.65213400097778], [-73.78394095040001, 40.6521379412], [-73.78394971315555, 40.65214178124445], [-73.78395899555557, 40.652145521111116], [-73.78396879759998, 40.65214916080001], [-73.78397911928889, 40.65215270031111], [-73.78398996062222, 40.65215613964445], [-73.78400132159999, 40.6521594788], [-73.78401320222221, 40.652162717777784], [-73.78402560248887, 40.65216585657778], [-73.7840385224, 40.652168895200006], [-73.78405196195556, 40.652171833644445], [-73.78406592115556, 40.65217467191112], [-73.7840804, 40.65217741], [-73.78409499973333, 40.65217997706667], [-73.7841093216, 40.65218230226667], [-73.78412336560001, 40.6521843856], [-73.78413713173333, 40.65218622706667], [-73.78415062, 40.65218782666667], [-73.78416383039999, 40.652189184399994], [-73.78417676293333, 40.65219030026666], [-73.7841894176, 40.65219117426666], [-73.7842017944, 40.6521918064], [-73.78421389333334, 40.65219219666666], [-73.7842257144, 40.652192345066666], [-73.78423725760001, 40.6521922516], [-73.78424852293334, 40.65219191626666], [-73.78425951039999, 40.65219133906666], [-73.78427022, 40.65219052], [-73.78430323928889, 40.652181670488886], [-73.78433503848888, 40.652172713955565], [-73.7843656176, 40.652163650400006], [-73.78439497662221, 40.65215447982223], [-73.78442311555555, 40.65214520222223], [-73.7844500344, 40.6521358176], [-73.78447573315556, 40.65212632595555], [-73.7845002118222, 40.65211672728889], [-73.78452347039999, 40.6521070216], [-73.7845455088889, 40.65209720888889], [-73.78456632728887, 40.65208728915556], [-73.7845859256, 40.6520772624], [-73.78460430382222, 40.65206712862222], [-73.78462146195555, 40.652056887822226], [-73.7846374, 40.65204654], [-73.78465280853334, 40.65203556555556], [-73.78466837813335, 40.6520234448889], [-73.78468410880001, 40.652010178], [-73.78470000053335, 40.651995764888895], [-73.78471605333334, 40.65198020555556], [-73.7847322672, 40.6519635], [-73.78474864213332, 40.651945648222224], [-73.78476517813333, 40.65192665022222], [-73.7847818752, 40.651906506], [-73.78479873333333, 40.65188521555555], [-73.78481575253333, 40.651862778888884], [-73.7848329328, 40.651839196], [-73.78485027413333, 40.65181446688889], [-73.78486777653333, 40.65178859155555], [-73.78488544, 40.65176157], [-73.78526665, 40.65086817], [-73.78527198, 40.65064573], [-73.78530375, 40.64917727], [-73.78530305662221, 40.64913116275555], [-73.7852975684889, 40.64908731302222], [-73.78528728560002, 40.6490457208], [-73.78527220795556, 40.6490063860889], [-73.78525233555558, 40.648969308888894], [-73.78522766840001, 40.648934489199995], [-73.7851982064889, 40.64890192702222], [-73.78516394982223, 40.64887162235556], [-73.78512489840001, 40.648843575200004], [-73.78508105222224, 40.648817785555565], [-73.78503241128891, 40.648794253422224], [-73.78497897560001, 40.6487729788], [-73.78492074515556, 40.64875396168889], [-73.78485771995557, 40.64873720208889], [-73.7847899, 40.6487227], [-73.78418225, 40.64872108], [-73.78377288, 40.64899609], [-73.78222922, 40.64873888], [-73.78152562, 40.64825842], [-73.78126114, 40.64817927]]]}}, {"type": "Feature", "properties": {"name": "New Taxiway 142", "surface_type": "ASPHALT", "smoothness": 0.0, "texture_orientation": 172.9}, "geometry": {"type": "Polygon", "coordinates": [[[-73.78217691, 40.63894694], [-73.78442446, 40.63882751], [-73.78425591, 40.637836], [-73.78418561, 40.63727483], [-73.7840348, 40.6363433], [-73.78375045, 40.63621442], [-73.78344347, 40.63607529], [-73.78273955, 40.63575624], [-73.78244916, 40.63562462], [-73.78167452, 40.63527353], [-73.7813873, 40.63526906], [-73.78139242, 40.63525525], [-73.78076716, 40.63505378], [-73.78005122, 40.63480816], [-73.77980424, 40.63479219], [-73.7797459, 40.63485189], [-73.77977284, 40.63498973], [-73.77955005, 40.63521575], [-73.77925834, 40.63504636], [-73.77869399, 40.63559486], [-73.778474, 40.63581422], [-73.77719282, 40.63743699], [-73.77932581, 40.63992733], [-73.78051418, 40.63981253], [-73.78217691, 40.63894694]]]}}, {"type": "Feature", "properties": {"name": "New Taxiway 42", "surface_type": "UNKNOWN_31", "smoothness": 0.0, "texture_orientation": 120.0}, "geometry": {"type": "Polygon", "coordinates": [[[-73.81997649, 40.65339247], [-73.81996432773333, 40.65338369782222], [-73.81995269160002, 40.65337453062222], [-73.8199415816, 40.653364968400005], [-73.81993099773334, 40.653355011155554], [-73.81992094000002, 40.65334465888889], [-73.8199114084, 40.653333911599994], [-73.81990240293334, 40.653322769288884], [-73.8198939236, 40.653311231955556], [-73.81988597040001, 40.6532992996], [-73.81987854333335, 40.65328697222222], [-73.8198716424, 40.65327424982222], [-73.81986526760001, 40.6532611324], [-73.81985941893333, 40.65324761995555], [-73.81985409640001, 40.653233712488884], [-73.8198493, 40.65321941], [-73.81984521257779, 40.65320502404444], [-73.81984201697777, 40.65319086617778], [-73.8198397132, 40.6531769364], [-73.81983830124446, 40.65316323471112], [-73.81983778111112, 40.653149761111116], [-73.8198381528, 40.6531365156], [-73.81983941631111, 40.65312349817778], [-73.81984157164445, 40.653110708844444], [-73.8198446188, 40.6530981476], [-73.81984855777779, 40.653085814444445], [-73.81985338857777, 40.65307370937778], [-73.8198591112, 40.6530618324], [-73.81986572564445, 40.65305018351111], [-73.81987323191112, 40.65303876271111], [-73.81988163, 40.65302757], [-73.81957911, 40.65288929], [-73.81783235, 40.65209865], [-73.81751662, 40.65195656], [-73.81348914, 40.65015804], [-73.81221832, 40.65180258], [-73.81334727, 40.65233849], [-73.8131803, 40.65256662], [-73.81292722, 40.65275591], [-73.8124229, 40.65308998], [-73.81167935, 40.65343011], [-73.81243073, 40.65445193], [-73.81318922, 40.65417671], [-73.81327774906667, 40.654162564], [-73.8133622056, 40.65415348066667], [-73.81344258960002, 40.65414946], [-73.81351890106666, 40.654150502000014], [-73.81359114000001, 40.654156606666675], [-73.8136593064, 40.654167774], [-73.81372340026667, 40.654184004], [-73.8137834216, 40.654205296666674], [-73.8138393704, 40.654231652], [-73.81389124666666, 40.65426307], [-73.8139390504, 40.65429955066667], [-73.8139827816, 40.654341094], [-73.81402244026667, 40.6543877], [-73.8140580264, 40.65443936866667], [-73.81408954, 40.6544961], [-73.81411567502221, 40.654554431600005], [-73.81413512542223, 40.65461090106667], [-73.81414789120001, 40.654665508400015], [-73.81415397235556, 40.65471825360001], [-73.81415336888888, 40.65476913666667], [-73.8141460808, 40.654818157600005], [-73.8141321080889, 40.654865316400006], [-73.81411145075555, 40.65491061306667], [-73.8140841088, 40.65495404760001], [-73.81405008222222, 40.65499562], [-73.81400937102222, 40.65503533026667], [-73.8139619752, 40.6550731784], [-73.81390789475556, 40.6551091644], [-73.81384712968888, 40.65514328826667], [-73.81377968, 40.65517555], [-73.81311165, 40.6554415], [-73.81171022, 40.65601028], [-73.81240903, 40.65708382], [-73.8147977, 40.65612381], [-73.81506342, 40.65578373], [-73.81630177, 40.65422872], [-73.81646624, 40.65417231], [-73.81663921, 40.6542501], [-73.81676998, 40.65430694], [-73.81692362, 40.65411256], [-73.8169863, 40.65413913], [-73.81705741, 40.65404395], [-73.81711983, 40.65407228], [-73.81722987, 40.65392977], [-73.81741681, 40.65401382], [-73.81752735, 40.65387008], [-73.81799989, 40.65408826], [-73.81891671, 40.65291196], [-73.81997649, 40.65339247]]]}}, {"type": "Feature", "properties": {"name": "New Taxiway 8", "surface_type": "ASPHALT", "smoothness": 0.0, "texture_orientation": 44.2}, "geometry": {"type": "Polygon", "coordinates": [[[-73.78716359, 40.63776139], [-73.78689611, 40.63809626], [-73.78662049, 40.6387248], [-73.7866833, 40.63884271], [-73.78668554, 40.63901016], [-73.78765903, 40.64010033], [-73.7878968, 40.64017551], [-73.7880785, 40.63992091], [-73.78882544, 40.64024386], [-73.78891068, 40.6402319], [-73.78935929, 40.63960821], [-73.79089652, 40.64027287], [-73.78999829, 40.64120617], [-73.78966058, 40.64197663], [-73.79095346, 40.64312707], [-73.79150925, 40.64416481], [-73.7929439, 40.64428899], [-73.79411057, 40.64435527], [-73.79423897, 40.64356478], [-73.79433875, 40.64238061], [-73.79437015, 40.64198475], [-73.7944254, 40.64138141], [-73.79442135777778, 40.64136152475555], [-73.79441693777778, 40.64134187435556], [-73.79441214, 40.641322458800005], [-73.79440696444443, 40.6413032780889], [-73.79440141111112, 40.64128433222223], [-73.79439548, 40.6412656212], [-73.7943891711111, 40.64124714502222], [-73.79438248444444, 40.64122890368889], [-73.79437542, 40.6412108972], [-73.79436797777777, 40.64119312555556], [-73.79436015777777, 40.64117558875556], [-73.79435196, 40.64115828680001], [-73.79434338444443, 40.64114121968889], [-73.79433443111111, 40.64112438742222], [-73.7943251, 40.64110779], [-73.79431520053333, 40.64109150235556], [-73.79430454213333, 40.64107559942222], [-73.7942931248, 40.6410600812], [-73.79428094853334, 40.64104494768889], [-73.79426801333335, 40.64103019888889], [-73.79425431920001, 40.6410158348], [-73.79423986613334, 40.64100185542222], [-73.79422465413333, 40.640988260755556], [-73.7942086832, 40.6409750508], [-73.79419195333332, 40.640962225555555], [-73.79417446453334, 40.64094978502222], [-73.7941562168, 40.640937729200004], [-73.79413721013333, 40.640926058088894], [-73.79411744453333, 40.64091477168889], [-73.79409692, 40.64090387], [-73.79257726, 40.64021509], [-73.79207199, 40.63998608], [-73.79066312, 40.63934753], [-73.79039032, 40.63922388], [-73.78887375, 40.63853651], [-73.78857014, 40.6383989], [-73.78716359, 40.63776139]]]}}, {"type": "Feature", "properties": {"name": "New Taxiway 65", "surface_type": "UNKNOWN_26", "smoothness": 0.0, "texture_orientation": 90.9}, "geometry": {"type": "Polygon", "coordinates": [[[-73.80454911, 40.65743815], [-73.80455033, 40.65725613], [-73.80455399, 40.656373], [-73.8045564, 40.65483629], [-73.80455791, 40.65386964], [-73.80166131, 40.65384811], [-73.80164267, 40.65426013], [-73.80159828, 40.65434245], [-73.79944512, 40.65433047], [-73.79944424, 40.65436072], [-73.79944397, 40.65465593], [-73.79938178, 40.65628711], [-73.79928813, 40.65656725], [-73.79920758, 40.65691266], [-73.79920246, 40.65746397], [-73.80080944, 40.65747278], [-73.80081256, 40.65739714], [-73.80454911, 40.65743815]]]}}, {"type": "Feature", "properties": {"name": "concrete_4D.pol", "surface_type": "UNKNOWN_54", "smoothness": 0.25, "texture_orientation": 32.0}, "geometry": {"type": "Polygon", "coordinates": [[[-73.80358294, 40.64571004], [-73.80276528, 40.64678695], [-73.80340165, 40.64704065], [-73.80335093, 40.64711251], [-73.80422396, 40.64749015], [-73.80511258, 40.64841598], [-73.80682, 40.65094681], [-73.80737817, 40.65071958], [-73.80842273, 40.65029434], [-73.80843752435555, 40.65028821684445], [-73.80845191542224, 40.65028206604445], [-73.80846590320002, 40.650275887599996], [-73.8084794876889, 40.65026968151112], [-73.8084926688889, 40.65026344777779], [-73.80850544680001, 40.6502571864], [-73.80851782142224, 40.650250897377774], [-73.80852979275556, 40.65024458071111], [-73.8085413608, 40.6502382364], [-73.80855252555557, 40.65023186444444], [-73.80856328702222, 40.65022546484444], [-73.8085736452, 40.6502190376], [-73.8085836000889, 40.650212582711106], [-73.8085931516889, 40.650206100177776], [-73.8086023, 40.65019959], [-73.8086113848, 40.650192774088886], [-73.80862074586669, 40.65018537435556], [-73.80863038320001, 40.6501773908], [-73.80864029680001, 40.65016882342223], [-73.80865048666668, 40.65015967222222], [-73.80866095280001, 40.6501499372], [-73.8086716952, 40.65013961835555], [-73.80868271386667, 40.65012871568889], [-73.8086940088, 40.6501172292], [-73.80870558, 40.650105158888884], [-73.80871742746666, 40.650092504755555], [-73.8087295512, 40.6500792668], [-73.8087419512, 40.65006544502222], [-73.80875462746667, 40.65005103942222], [-73.80876758, 40.65003605], [-73.80915664, 40.6495463], [-73.80924506, 40.64958655], [-73.81002485, 40.64860214], [-73.8086513, 40.6479805], [-73.80833965, 40.64783805], [-73.80739472, 40.6474162], [-73.80703101, 40.64725137], [-73.80510239, 40.64637627], [-73.80480074, 40.64623899], [-73.80359427, 40.6456937], [-73.80358294, 40.64571004]]]}}, {"type": "Feature", "properties": {"name": "asphalt_2D.pol", "surface_type": "UNKNOWN_30", "smoothness": 0.25, "texture_orientation": 62.3}, "geometry": {"type": "Polygon", "coordinates": [[[-73.8092116, 40.65332521], [-73.80941732, 40.65305265], [-73.81151699, 40.65222685], [-73.81148536, 40.65218194], [-73.81203932, 40.65198597], [-73.81346513, 40.65014695], [-73.81233132, 40.64964346], [-73.81174285, 40.64937967], [-73.81002485, 40.64860214], [-73.80924506, 40.64958655], [-73.80915664, 40.6495463], [-73.80876758, 40.65003605], [-73.80875462622221, 40.65005104066667], [-73.8087419488889, 40.65006544733333], [-73.808729548, 40.65007927], [-73.80871742355556, 40.650092508666674], [-73.80870557555556, 40.650105163333336], [-73.808694004, 40.650117234], [-73.8086827088889, 40.650128720666665], [-73.80867169022223, 40.65013962333333], [-73.80866094800001, 40.650149942], [-73.80865048222222, 40.65015967666667], [-73.8086402928889, 40.65016882733333], [-73.80863038000001, 40.650177394], [-73.80862074355557, 40.65018537666667], [-73.80861138355556, 40.65019277533334], [-73.8086023, 40.65019959], [-73.80859315293334, 40.65020609893334], [-73.8085836024, 40.6502125804], [-73.80857364840001, 40.650219034399996], [-73.80856329093334, 40.650225460933335], [-73.80855253000001, 40.65023186], [-73.8085413656, 40.6502382316], [-73.80852979773334, 40.650244575733325], [-73.80851782639999, 40.6502508924], [-73.8085054516, 40.6502571816], [-73.80849267333333, 40.65026344333333], [-73.8084794916, 40.6502696776], [-73.80846590640002, 40.6502758844], [-73.80845191773334, 40.650282063733336], [-73.80843752560001, 40.6502882156], [-73.80842273, 40.65029434], [-73.80737817, 40.65071958], [-73.80907907, 40.65313686], [-73.8092116, 40.65332521]], [[-73.80905417, 40.64985505], [-73.80909844, 40.64990939], [-73.80906198, 40.64992816], [-73.80915958, 40.65006465], [-73.80912058, 40.65008328], [-73.80907761, 40.65002993], [-73.80884842, 40.65012972], [-73.80887707, 40.65017319], [-73.80877289, 40.65021567], [-73.80875252, 40.65020555], [-73.80879763, 40.65016133], [-73.80905417, 40.64985505]], [[-73.80861042, 40.65031386], [-73.80865339, 40.65028422], [-73.80869245, 40.65029113], [-73.80869243844444, 40.65029444115556], [-73.80869240377777, 40.65029752395556], [-73.808692346, 40.650300378400004], [-73.8086922651111, 40.65030300448889], [-73.80869216111111, 40.65030540222222], [-73.80869203399999, 40.650307571599996], [-73.80869188377777, 40.65030951262222], [-73.80869171044444, 40.65031122528889], [-73.80869151399999, 40.6503127096], [-73.80869129444443, 40.650313965555554], [-73.80869105177776, 40.65031499315556], [-73.808690786, 40.6503157924], [-73.8086904971111, 40.65031636328889], [-73.8086901851111, 40.65031670582222], [-73.80868985, 40.65031682], [-73.80868637795555, 40.65031808902223], [-73.80867665515555, 40.65032189608889], [-73.80866068159999, 40.6503282412], [-73.8086384572889, 40.65033712435556], [-73.80860998222224, 40.650348545555566], [-73.8085752564, 40.6503625048], [-73.80853427982223, 40.65037900208888], [-73.80848705248889, 40.65039803742222], [-73.8084335744, 40.6504196108], [-73.80837384555556, 40.65044372222222], [-73.80830786595556, 40.65047037168889], [-73.80823563560001, 40.6504995592], [-73.8081571544889, 40.65053128475556], [-73.80807242262223, 40.65056554835556], [-73.80798144, 40.65060235], [-73.80796581, 40.65058457], [-73.80851145, 40.65036326], [-73.80861042, 40.65031386]]]}}, {"type": "Feature", "properties": {"name": "concrete_4D.pol", "surface_type": "UNKNOWN_53", "smoothness": 0.25, "texture_orientation": 120.0}, "geometry": {"type": "Polygon", "coordinates": [[[-73.82249947, 40.65421434], [-73.82224063, 40.65422368], [-73.82214572, 40.65416457], [-73.82216032, 40.65413967], [-73.82205595, 40.65408686], [-73.82204561062223, 40.654094441244446], [-73.82203491515557, 40.65410161964444], [-73.82202386360001, 40.6541083952], [-73.82201245595556, 40.65411476791111], [-73.82200069222223, 40.65412073777778], [-73.8219885724, 40.654126304799995], [-73.8219760964889, 40.65413146897778], [-73.82196326448889, 40.65413623031111], [-73.8219500764, 40.6541405888], [-73.82193653222222, 40.65414454444444], [-73.82192263195554, 40.65414809724444], [-73.8219083756, 40.654151247200005], [-73.82189376315554, 40.65415399431111], [-73.82187879462222, 40.65415633857778], [-73.82186347, 40.65415828], [-73.82184811924445, 40.65415983328889], [-73.82183307231112, 40.65416101315555], [-73.8218183292, 40.6541618196], [-73.82180388991112, 40.65416225262223], [-73.82178975444447, 40.654162312222226], [-73.8217759228, 40.6541619984], [-73.82176239497778, 40.654161311155555], [-73.8217491709778, 40.654160250488886], [-73.8217362508, 40.6541588164], [-73.82172363444445, 40.65415700888889], [-73.82171132191111, 40.65415482795555], [-73.8216993132, 40.654152273600005], [-73.82168760831111, 40.654149345822226], [-73.82167620724445, 40.65414604462223], [-73.82166511, 40.65414237], [-73.81997649, 40.65339247], [-73.81891671, 40.65291196], [-73.81799989, 40.65408826], [-73.81752735, 40.65387008], [-73.81741681, 40.65401382], [-73.81722987, 40.65392977], [-73.81711983, 40.65407228], [-73.81705741, 40.65404395], [-73.8169863, 40.65413913], [-73.81692362, 40.65411256], [-73.81676998, 40.65430694], [-73.81800122, 40.65485142], [-73.81788051, 40.65501227], [-73.8203963, 40.65616424], [-73.82049252, 40.65604922], [-73.82174678, 40.65663196], [-73.82206513, 40.65656434], [-73.82261268, 40.65679137], [-73.82289919, 40.65548715], [-73.82275385, 40.65439051], [-73.82249947, 40.65421434]]]}}, {"type": "Feature", "properties": {"name": "New Taxiway 182", "surface_type": "UNKNOWN_54", "smoothness": 0.0, "texture_orientation": 43.0}, "geometry": {"type": "Polygon", "coordinates": [[[-73.77172302, 40.64444022], [-73.77161599, 40.64459872], [-73.77156595, 40.64473669], [-73.77156594, 40.64521424], [-73.77169824, 40.64559405], [-73.77211643, 40.64573546], [-73.77220983, 40.64573609], [-73.77482323, 40.64575358], [-73.77599754, 40.64464578], [-73.77620818, 40.6447794], [-73.77669043, 40.64464351], [-73.77683882, 40.64466293], [-73.77730982, 40.64448674], [-73.77707717, 40.64410417], [-73.77627896, 40.64372562], [-73.77631472, 40.64368752], [-73.77615872, 40.64360721], [-73.77609732, 40.64351985], [-73.77620221, 40.6434422], [-73.77611267, 40.64338202], [-73.776105, 40.64314131], [-73.77604871, 40.64307725], [-73.77607941, 40.64298213], [-73.77586534, 40.64269803], [-73.77585666, 40.64268495], [-73.77563952, 40.64287247], [-73.77558068, 40.64283753], [-73.77544765, 40.64294041], [-73.77540416, 40.64290741], [-73.77521228, 40.64305107], [-73.77516623, 40.64301612], [-73.7749718, 40.64316754], [-73.77492506, 40.64313341], [-73.77479971, 40.64322641], [-73.77469372, 40.64316352], [-73.77471869, 40.64312612], [-73.77441772, 40.64271668], [-73.77303039, 40.64332522], [-73.77273071, 40.64312483], [-73.77179358, 40.64434836], [-73.77172302, 40.64444022]]]}}, {"type": "Feature", "properties": {"name": "New Taxiway 26", "surface_type": "UNKNOWN_30", "smoothness": 0.0, "texture_orientation": 120.8}, "geometry": {"type": "Polygon", "coordinates": [[[-73.78093166, 40.65849606], [-73.78150607, 40.65777569], [-73.78117222, 40.65761738], [-73.78169932, 40.65693188], [-73.77860052, 40.65553981], [-73.77818645, 40.65607144], [-73.77813642, 40.65605126], [-73.77782671, 40.65645312], [-73.77754935, 40.65681173], [-73.77753701639999, 40.65682603844445], [-73.77752387426666, 40.65683879844445], [-73.77750992360001, 40.65685001], [-73.77749516440001, 40.65685967311112], [-73.77747959666667, 40.656867787777784], [-73.7774632204, 40.656874354], [-73.77744603560001, 40.656879371777784], [-73.77742804226666, 40.65688284111111], [-73.7774092404, 40.656884762], [-73.77738962999999, 40.656885134444444], [-73.77736921106666, 40.656883958444446], [-73.7773479836, 40.656881234], [-73.77732594759999, 40.65687696111112], [-73.77730310306667, 40.65687113977778], [-73.77727945, 40.65686377], [-73.77637192, 40.65646188], [-73.77578732, 40.65722332], [-73.7774586, 40.65798066], [-73.77766412, 40.65801306], [-73.77889257, 40.65856108], [-73.77914548, 40.65867266], [-73.77971249, 40.65794501], [-73.78093166, 40.65849606]]]}}, {"type": "Feature", "properties": {"name": "concrete_4D.pol", "surface_type": "UNKNOWN_53", "smoothness": 0.25, "texture_orientation": 61.0}, "geometry": {"type": "Polygon", "coordinates": [[[-73.79196632, 40.64971013], [-73.79192717, 40.64965605], [-73.79169401, 40.64975489], [-73.79173248, 40.64980981], [-73.78974339, 40.65065772], [-73.79000879, 40.65101959], [-73.79157868, 40.65141772], [-73.79554033, 40.64972831], [-73.79571845, 40.64997001], [-73.79595227, 40.64986824], [-73.7957762, 40.64962768], [-73.79634272, 40.64938782], [-73.7963446, 40.64891458], [-73.79634645, 40.6483149], [-73.79634916, 40.64823536], [-73.79630044, 40.64809451], [-73.79616954, 40.64791656], [-73.79578037, 40.64808428], [-73.79574013, 40.64803258], [-73.79569987, 40.6480496], [-73.79573897, 40.6481019], [-73.79562085, 40.6481523], [-73.79558233, 40.64810085], [-73.79550317, 40.64813445], [-73.79554191, 40.64818597], [-73.79514879, 40.64835355], [-73.79485611, 40.6484783], [-73.79196632, 40.64971013]]]}}, {"type": "Feature", "properties": {"name": "asphalt_3D.pol", "surface_type": "ASPHALT", "smoothness": 0.25, "texture_orientation": 90.1}, "geometry": {"type": "Polygon", "coordinates": [[[-73.79720156, 40.65323336], [-73.79715099, 40.65307314], [-73.79703882, 40.6528886], [-73.7965537, 40.65222003], [-73.79654603599408, 40.652211682148156], [-73.79653831728594, 40.652203779185186], [-73.79653055184002, 40.652196310000015], [-73.79652274762074, 40.65218926348149], [-73.7965149125926, 40.65218262851853], [-73.79650705472, 40.652176394], [-73.7964991819674, 40.652170548814816], [-73.79649130229926, 40.652165081851855], [-73.79648342368, 40.652159982], [-73.79647555407408, 40.652155238148154], [-73.79646770144592, 40.65215083918518], [-73.79645987376, 40.652146774], [-73.79645207898074, 40.652143031481486], [-73.79644432507259, 40.65213960051852], [-73.79643662, 40.65213647], [-73.79628124, 40.65217509], [-73.79573318, 40.65241491], [-73.79568233, 40.65237434], [-73.79522252, 40.65256983], [-73.79516968, 40.65267801], [-73.79535939, 40.65272225], [-73.79544864, 40.65303165], [-73.79537872, 40.65739491], [-73.79563778, 40.65739219], [-73.79563458, 40.65732429], [-73.79613518, 40.65732314], [-73.79613157, 40.65739096], [-73.79699602, 40.65738881], [-73.79696774, 40.65963416], [-73.79706522, 40.65963656], [-73.79720156, 40.65323336]]]}}, {"type": "Feature", "properties": {"name": "concrete_4D.pol", "surface_type": "UNKNOWN_53", "smoothness": 0.25, "texture_orientation": 61.0}, "geometry": {"type": "Polygon", "coordinates": [[[-73.79525294, 40.64689461], [-73.79503233, 40.64678093], [-73.79478532, 40.64645479], [-73.79352578, 40.64654483], [-73.79305446, 40.64638185], [-73.7927611, 40.64641904], [-73.7913351, 40.64702913], [-73.79113204, 40.64711751], [-73.79182251, 40.64806474], [-73.7898445, 40.64891246], [-73.78992665, 40.64902672], [-73.78964251, 40.64913694], [-73.78968958, 40.64919983], [-73.78945072, 40.64929972], [-73.7894077, 40.64923883], [-73.78925096, 40.64930394], [-73.78929691, 40.64936614], [-73.78921404, 40.64939946], [-73.78930466, 40.64952001], [-73.78898857, 40.64965458], [-73.78903096, 40.64971364], [-73.78895242, 40.64974686], [-73.78899625, 40.64980617], [-73.78891886, 40.64983877], [-73.78896617, 40.64989885], [-73.78888517, 40.6499336], [-73.78897277, 40.65005274], [-73.78920215, 40.64995485], [-73.78975547, 40.64971871], [-73.79031324, 40.64948067], [-73.79069088, 40.64931951], [-73.7912167, 40.6490951], [-73.7912616, 40.64915567], [-73.79147908, 40.64906508], [-73.79143527, 40.64900182], [-73.79194875, 40.64878269], [-73.79220118, 40.64867496], [-73.79271344, 40.64845634], [-73.79309378, 40.64829402], [-73.79346312, 40.6481364], [-73.79383933, 40.64797585], [-73.79427559, 40.64778966], [-73.79452568, 40.64768293], [-73.79501059, 40.64747599], [-73.79526093, 40.64736915], [-73.79557811, 40.64723379], [-73.79525294, 40.64689461]]]}}, {"type": "Feature", "properties": {"name": "New Taxiway 188", "surface_type": "CONCRETE", "smoothness": 0.0, "texture_orientation": 0.0}, "geometry": {"type": "Polygon", "coordinates": [[[-73.79883981, 40.65177372], [-73.79892959, 40.6518852], [-73.79981202, 40.65150416], [-73.80178854, 40.65152859], [-73.80182095146667, 40.651529471333326], [-73.80185138853335, 40.65153161666667], [-73.80187985120001, 40.651535026], [-73.80190633946668, 40.651539699333334], [-73.80193085333335, 40.65154563666667], [-73.8019533928, 40.651552838], [-73.80197395786666, 40.65156130333333], [-73.80199254853333, 40.651571032666666], [-73.80200916480001, 40.651582026], [-73.80202380666665, 40.65159428333333], [-73.80203647413333, 40.65160780466666], [-73.80204716720002, 40.65162259], [-73.80205588586666, 40.651638639333335], [-73.80206263013334, 40.65165595266667], [-73.8020674, 40.65167453], [-73.80206691, 40.65177385], [-73.80076456, 40.65176345], [-73.80073882, 40.65331953], [-73.8021742, 40.65333296], [-73.80217575, 40.65344828], [-73.80289928, 40.65345732], [-73.80290994, 40.65320388], [-73.80379567, 40.65321259], [-73.80381957, 40.65114577], [-73.80237994, 40.65113925], [-73.80237814, 40.65107344], [-73.79941415, 40.65102514], [-73.79856294, 40.65140842], [-73.79864614, 40.65152837], [-73.79883981, 40.65177372]]]}}, {"type": "Feature", "properties": {"name": "concrete_4D.pol", "surface_type": "CONCRETE", "smoothness": 0.25, "texture_orientation": 0.0}, "geometry": {"type": "Polygon", "coordinates": [[[-73.7970035, 40.66253504], [-73.79704393, 40.66062082], [-73.79681179, 40.66062097], [-73.79683737, 40.65963094], [-73.79696774, 40.65963416], [-73.79699602, 40.65738881], [-73.79537872, 40.65739491], [-73.7953319, 40.65955969], [-73.79659944, 40.65956882], [-73.79656874, 40.66098593], [-73.79591023, 40.66097716], [-73.79586, 40.66385242], [-73.79690146, 40.66385702], [-73.79698966, 40.66318494], [-73.79699751, 40.66281653], [-73.7970035, 40.66253504]]]}}]}