{"type": "FeatureCollection", "features": [{"type": "Feature", "properties": {"name": "New Taxiway 139", "surface_type": "ASPHALT", "smoothness": 0.0, "texture_orientation": 151.0}, "geometry": {"type": "Polygon", "coordinates": [[[-73.79578882, 40.64746144], [-73.79557811, 40.64723379], [-73.79143527, 40.64900182], [-73.79147908, 40.64906508], [-73.7912616, 40.64915567], [-73.7912167, 40.6490951], [-73.78897277, 40.65005274], [-73.78906324, 40.65020178], [-73.78906327, 40.65026234], [-73.78911497, 40.65033499], [-73.78910015453334, 40.65035179875555], [-73.78908592946667, 40.65036861968889], [-73.78907229480001, 40.6503854528], [-73.78905925053334, 40.65040229808889], [-73.78904679666668, 40.65041915555556], [-73.7890349332, 40.650436025199994], [-73.78902366013332, 40.65045290702222], [-73.78901297746665, 40.65046980102222], [-73.7890028852, 40.650486707199995], [-73.78899338333332, 40.65050362555556], [-73.78898447186666, 40.650520556088885], [-73.7889761508, 40.6505374988], [-73.78896842013333, 40.65055445368888], [-73.78896127986667, 40.650571420755554], [-73.78895473, 40.6505884], [-73.78894875328889, 40.650605508355554], [-73.7889433324889, 40.650622862755554], [-73.78893846759999, 40.650640463200006], [-73.78893415862223, 40.65065830968889], [-73.78893040555558, 40.650676402222224], [-73.7889272084, 40.650694740800006], [-73.78892456715556, 40.650713325422224], [-73.78892248182223, 40.65073215608889], [-73.7889209524, 40.6507512328], [-73.7889199788889, 40.65077055555555], [-73.78891956128889, 40.65079012435555], [-73.7889196996, 40.6508099392], [-73.78892039382222, 40.65083000008889], [-73.78892164395556, 40.650850307022225], [-73.78892345, 40.65087086], [-73.78897254, 40.65087415], [-73.78931284, 40.65090715], [-73.79000879, 40.65101959], [-73.78974339, 40.65065772], [-73.79173248, 40.64980981], [-73.791694, 40.64975489], [-73.79192717, 40.64965605], [-73.79196632, 40.64971013], [-73.79554191, 40.64818597], [-73.79550317, 40.64813445], [-73.79558233, 40.64810085], [-73.79562085, 40.6481523], [-73.79573897, 40.6481019], [-73.79569987, 40.6480496], [-73.79574013, 40.64803258], [-73.79578037, 40.64808428], [-73.79616954, 40.64791656], [-73.79599094, 40.64768081], [-73.79578882, 40.64746144]]]}}, {"type": "Feature", "properties": {"name": "New Taxiway 2", "surface_type": "UNKNOWN_52", "smoothness": 0.0, "texture_orientation": 150.1}, "geometry": {"type": "Polygon", "coordinates": [[[-73.78888517, 40.6499336], [-73.78896617, 40.64989885], [-73.78891886, 40.64983877], [-73.78899625, 40.64980617], [-73.78895242, 40.64974686], [-73.78903096, 40.64971364], [-73.78898857, 40.64965458], [-73.78930466, 40.64952001], [-73.78921404, 40.64939946], [-73.78929691, 40.64936614], [-73.78925096, 40.64930394], [-73.7894077, 40.64923883], [-73.78945072, 40.64929972], [-73.78968958, 40.64919983], [-73.78964251, 40.64913694], [-73.78992665, 40.64902672], [-73.7898445, 40.64891246], [-73.78917824, 40.64798577], [-73.78854935, 40.64825829], [-73.78837002, 40.64801361], [-73.78818723, 40.64809616], [-73.78815239, 40.64804761], [-73.78795097, 40.64813306], [-73.78791443, 40.64808257], [-73.78773935, 40.64816154], [-73.78771216, 40.64813047], [-73.78725918, 40.64819649], [-73.78707221, 40.64827093], [-73.78709937, 40.64830506], [-73.78638141, 40.64861422], [-73.78637529, 40.64867403], [-73.78648237, 40.6488224], [-73.78632123, 40.64889231], [-73.78631919, 40.64893425], [-73.7864788, 40.64915335], [-73.78654131, 40.64912664], [-73.78675059, 40.64940576], [-73.78668838, 40.64943683], [-73.78714323, 40.6500567], [-73.78701881, 40.6501103], [-73.78729927, 40.65049402], [-73.787234, 40.65052121], [-73.78754326, 40.65093563], [-73.78756036, 40.65095854], [-73.78812203, 40.6508878], [-73.78873016, 40.65086604], [-73.78856457, 40.65064555], [-73.78869288, 40.65059008], [-73.78862296, 40.65049699], [-73.78868818, 40.65046879], [-73.78865126, 40.65041962], [-73.78871335, 40.65039278], [-73.78867818, 40.65034595], [-73.78874082, 40.65031887], [-73.78870444, 40.65027043], [-73.7887679, 40.650243], [-73.78871025, 40.65016623], [-73.78897277, 40.65005274], [-73.78888517, 40.6499336]]]}}, {"type": "Feature", "properties": {"name": "asphalt_1D.pol", "surface_type": "UNKNOWN_27", "smoothness": 0.25, "texture_orientation": 0.0}, "geometry": {"type": "Polygon", "coordinates": [[[-73.797898, 40.66151633], [-73.79788232804445, 40.66151759453333], [-73.79786772551111, 40.6615197188], [-73.79785419240001, 40.6615227028], [-73.79784172871112, 40.66152654653334], [-73.79783033444446, 40.66153125], [-73.7978200096, 40.6615368132], [-73.79781075417779, 40.661543236133326], [-73.79780256817777, 40.6615505188], [-73.7977954516, 40.6615586612], [-73.79778940444444, 40.66156766333333], [-73.7977844267111, 40.661577525199995], [-73.7977805184, 40.661588246799994], [-73.79777767951111, 40.66159982813333], [-73.79777591004444, 40.6616122692], [-73.79777521, 40.66162557], [-73.79777318, 40.66175501], [-73.79776031, 40.66257684], [-73.79749459, 40.66257727], [-73.79750767, 40.66176443], [-73.79754129, 40.65967624], [-73.79764401, 40.65329487], [-73.79763860462222, 40.65325254773333], [-73.79763245782222, 40.65321135426667], [-73.79762556960002, 40.65317128960001], [-73.79761793995556, 40.65313235373334], [-73.7976095688889, 40.65309454666667], [-73.7976004564, 40.653057868400005], [-73.7975906024889, 40.65302231893333], [-73.79758000715556, 40.65298789826667], [-73.7975686704, 40.6529546064], [-73.79755659222224, 40.65292244333334], [-73.79754377262222, 40.65289140906667], [-73.7975302116, 40.6528615036], [-73.79751590915555, 40.65283272693334], [-73.7975008652889, 40.652805079066674], [-73.79748508, 40.65277856], [-73.79719562, 40.65238774], [-73.79687128, 40.65195736], [-73.79643662, 40.65213647], [-73.79644432345482, 40.6521396021363], [-73.79645207643853, 40.65214303402371], [-73.79645987088, 40.65214677688001], [-73.79646769870817, 40.652150841922975], [-73.79647555185187, 40.65215524037038], [-73.79648342224, 40.65215998344001], [-73.7964913018015, 40.652165082349626], [-73.79649918246518, 40.652170548317045], [-73.79650705616001, 40.65217639256], [-73.79651491481482, 40.65218262629631], [-73.79652275035852, 40.6521892607437], [-73.79653055472001, 40.65219630712001], [-73.79653831982816, 40.65220377664297], [-73.79654603761185, 40.65221168053037], [-73.7965537, 40.65222003], [-73.79703882, 40.6528886], [-73.79715099, 40.65307314], [-73.79720156, 40.65323336], [-73.79706522, 40.65963656], [-73.79683737, 40.65963094], [-73.79681179, 40.66062097], [-73.79704393, 40.66062082], [-73.79698966, 40.66318494], [-73.79793243, 40.66321056], [-73.79808424, 40.66310385], [-73.79810902, 40.6615163], [-73.797898, 40.66151633]]]}}, {"type": "Feature", "properties": {"name": "New Taxiway 27", "surface_type": "UNKNOWN_27", "smoothness": 0.0, "texture_orientation": 89.8}, "geometry": {"type": "Polygon", "coordinates": [[[-73.7757583, 40.65565974], [-73.77635296, 40.65493566], [-73.77458721, 40.65419827], [-73.77372773, 40.65383355], [-73.7732364, 40.65443774], [-73.77334402, 40.65526327], [-73.77335353, 40.65533619], [-73.77355024, 40.65544918], [-73.77305736, 40.65606922], [-73.77408926, 40.65606345], [-73.77408919, 40.65611048], [-73.77574941, 40.65612935], [-73.77575457, 40.65586525], [-73.7757583, 40.65565974]]]}}, {"type": "Feature", "properties": {"name": "concrete_1D.pol", "surface_type": "UNKNOWN_53", "smoothness": 0.25, "texture_orientation": 0.0}, "geometry": {"type": "Polygon", "coordinates": [[[-73.79899484, 40.64998517], [-73.7989974, 40.65042709], [-73.79941415, 40.65102514], [-73.80237814, 40.65107344], [-73.80237994, 40.65113925], [-73.80330106, 40.65114342], [-73.80332147, 40.65051444], [-73.80316796, 40.65050473], [-73.80317633, 40.65000848], [-73.79899484, 40.64998517]]]}}, {"type": "Feature", "properties": {"name": "New Taxiway 146", "surface_type": "ASPHALT", "smoothness": 0.0, "texture_orientation": 43.0}, "geometry": {"type": "Polygon", "coordinates": [[[-73.77273071, 40.64312483], [-73.77303039, 40.64332522], [-73.77441772, 40.64271668], [-73.77471869, 40.64312612], [-73.77469372, 40.64316352], [-73.77479971, 40.64322641], [-73.77492506, 40.64313341], [-73.7749718, 40.64316754], [-73.77516623, 40.64301612], [-73.77521228, 40.64305107], [-73.77540416, 40.64290741], [-73.77544765, 40.64294041], [-73.77558068, 40.64283753], [-73.77563952, 40.64287247], [-73.77585666, 40.64268495], [-73.7759144, 40.64264763], [-73.77518755, 40.64166416], [-73.77444201, 40.64097307], [-73.77273071, 40.64312483]]]}}, {"type": "Feature", "properties": {"name": "New Taxiway 86", "surface_type": "ASPHALT", "smoothness": 0.0, "texture_orientation": 183.5}, "geometry": {"type": "Polygon", "coordinates": [[[-73.7957852, 40.64123254], [-73.79580399457777, 40.641243102711115], [-73.79582149297777, 40.64125439351111], [-73.7958376952, 40.6412664124], [-73.79585260124445, 40.64127915937778], [-73.79586621111112, 40.64129263444445], [-73.7958785248, 40.6413068376], [-73.79588954231112, 40.641321768844435], [-73.79589926364444, 40.64133742817778], [-73.7959076888, 40.6413538156], [-73.79591481777778, 40.64137093111111], [-73.79592065057778, 40.6413887747111], [-73.7959251872, 40.6414073464], [-73.79592842764444, 40.64142664617778], [-73.79593037191111, 40.641446674044445], [-73.79593102, 40.64146743], [-73.79593005355555, 40.64148809964444], [-73.79592715422223, 40.64150786857778], [-73.79592232200001, 40.64152673680001], [-73.79591555688889, 40.641544704311116], [-73.7959068588889, 40.641561771111114], [-73.795896228, 40.6415779372], [-73.79588366422223, 40.64159320257778], [-73.79586916755555, 40.64160756724444], [-73.795852738, 40.6416210312], [-73.79583437555556, 40.64163359444444], [-73.79581408022221, 40.64164525697778], [-73.795791852, 40.641656018800006], [-73.7957676908889, 40.64166587991111], [-73.79574159688889, 40.64167484031111], [-73.79571357, 40.6416829], [-73.79533771, 40.64176609], [-73.79531980924445, 40.64176990657778], [-73.79530307497778, 40.64177238564444], [-73.79528750720002, 40.641773527199994], [-73.79527310591112, 40.641773331244444], [-73.79525987111111, 40.64177179777778], [-73.7952478028, 40.6417689268], [-73.79523690097778, 40.64176471831111], [-73.79522716564443, 40.64175917231111], [-73.7952185968, 40.6417522888], [-73.79521119444445, 40.64174406777778], [-73.79520495857778, 40.64173450924444], [-73.7951998892, 40.6417236132], [-73.79519598631111, 40.64171137964444], [-73.79519324991112, 40.64169780857778], [-73.79519168, 40.6416829], [-73.79520192, 40.64109471], [-73.79520626075556, 40.64107803377778], [-73.79521178435556, 40.64106305577778], [-73.79521849080001, 40.64104977600001], [-73.79522638008889, 40.64103819444444], [-73.79523545222224, 40.641028311111114], [-73.7952457072, 40.641020126], [-73.79525714502223, 40.64101363911111], [-73.79526976568889, 40.64100885044444], [-73.79528356920001, 40.64100576], [-73.79529855555556, 40.64100436777778], [-73.79531472475557, 40.64100467377777], [-73.79533207680001, 40.641006678], [-73.79535061168889, 40.64101038044444], [-73.79537032942223, 40.641015781111115], [-73.79539123, 40.64102288], [-73.79428841, 40.64051148], [-73.79432557355555, 40.64053072328889], [-73.79436179222223, 40.640550578488885], [-73.794397066, 40.6405710456], [-73.79443139488889, 40.64059212462223], [-73.7944647788889, 40.64061381555556], [-73.79449721799999, 40.640636118399996], [-73.79452871222222, 40.64065903315555], [-73.79455926155555, 40.64068255982222], [-73.794588866, 40.640706698399995], [-73.79461752555555, 40.640731448888886], [-73.79464524022221, 40.64075681128888], [-73.79467201, 40.640782785599995], [-73.7946978348889, 40.640809371822215], [-73.79472271488889, 40.64083656995555], [-73.79474665, 40.64086438], [-73.79476943035554, 40.64089236493333], [-73.79479084608889, 40.640920087733335], [-73.79481089720001, 40.6409475484], [-73.7948295836889, 40.64097474693333], [-73.79484690555556, 40.641001683333336], [-73.79486286279999, 40.6410283576], [-73.79487745542221, 40.64105476973334], [-73.79489068342222, 40.64108091973333], [-73.7949025468, 40.641106807599996], [-73.79491304555555, 40.64113243333334], [-73.79492217968888, 40.64115779693333], [-73.7949299492, 40.641182898400004], [-73.79493635408889, 40.64120773773333], [-73.79494139435555, 40.64123231493333], [-73.79494507, 40.64125663], [-73.79493739, 40.64157887], [-73.79493494964446, 40.641612736266666], [-73.79493003924445, 40.641645015066665], [-73.79492265880002, 40.6416757064], [-73.79491280831111, 40.64170481026667], [-73.7949004877778, 40.64173232666667], [-73.7948856972, 40.641758255599996], [-73.79486843657779, 40.641782597066666], [-73.79484870591112, 40.641805351066665], [-73.7948265052, 40.641826517599995], [-73.79480183444446, 40.64184609666667], [-73.79477469364444, 40.641864088266665], [-73.7947450828, 40.641880492400006], [-73.7947130019111, 40.64189530906667], [-73.79467845097778, 40.64190853826667], [-73.79464143, 40.64192018], [-73.79437015, 40.64198475], [-73.79433875, 40.64238061], [-73.79434361213333, 40.642378761822215], [-73.79434921720001, 40.642377214622215], [-73.79435556520001, 40.6423759684], [-73.79436265613333, 40.64237502315556], [-73.79437049, 40.64237437888889], [-73.7943790668, 40.64237403559999], [-73.79438838653334, 40.642373993288885], [-73.7943984492, 40.64237425195555], [-73.7944092548, 40.64237481159999], [-73.79442080333334, 40.642375672222215], [-73.79443309480001, 40.64237683382222], [-73.79444612920001, 40.6423782964], [-73.79445990653335, 40.64238005995555], [-73.79447442680001, 40.64238212448889], [-73.79448969, 40.64238449], [-73.79452605542224, 40.642394499422224], [-73.7945602956889, 40.64240906902222], [-73.7945924108, 40.642428198800005], [-73.79462240075557, 40.64245188875556], [-73.79465026555556, 40.6424801388889], [-73.7946760052, 40.6425129492], [-73.7946996196889, 40.64255031968889], [-73.79472110902223, 40.642592250355555], [-73.79474047320001, 40.642638741199995], [-73.79475771222224, 40.64268979222222], [-73.79477282608889, 40.642745403422225], [-73.79478581480001, 40.6428055748], [-73.79479667835557, 40.642870306355555], [-73.79480541675557, 40.64293959808889], [-73.79481203, 40.64301345], [-73.7947614, 40.64387431], [-73.7950414, 40.64387107], [-73.79504509417778, 40.64380766346667], [-73.79505191537778, 40.64374865453333], [-73.79506186360001, 40.64369404320001], [-73.79507493884445, 40.643643829466676], [-73.79509114111113, 40.64359801333334], [-73.7951104704, 40.643556594799996], [-73.79513292671112, 40.64351957386667], [-73.79515851004444, 40.64348695053334], [-73.79518722040001, 40.6434587248], [-73.79521905777779, 40.64343489666667], [-73.79525402217777, 40.643415466133334], [-73.7952921136, 40.64340043320001], [-73.79533333204445, 40.64338979786667], [-73.79537767751111, 40.64338356013333], [-73.79542515, 40.64338172], [-73.79547247404444, 40.643384023555555], [-73.79551637417778, 40.643390216888896], [-73.7955568504, 40.64340030000001], [-73.79559390271112, 40.6434142728889], [-73.79562753111112, 40.643432135555564], [-73.7956577356, 40.643453888], [-73.79568451617777, 40.64347953022222], [-73.79570787284445, 40.64350906222222], [-73.7957278056, 40.643542484], [-73.79574431444445, 40.64357979555556], [-73.79575739937778, 40.64362099688889], [-73.79576706040001, 40.643666088], [-73.79577329751112, 40.643715068888895], [-73.79577611071112, 40.64376793955556], [-73.7957755, 40.6438247], [-73.79605763, 40.6438371], [-73.79616256, 40.64231622], [-73.79616547862221, 40.64227329502222], [-73.7961709624889, 40.642232109422224], [-73.7961790116, 40.6421926632], [-73.79618962595556, 40.642154956355554], [-73.79620280555555, 40.642118988888896], [-73.79621855039998, 40.6420847608], [-73.79623686048888, 40.64205227208889], [-73.79625773582221, 40.642021522755556], [-73.79628117639999, 40.641992512799995], [-73.79630718222222, 40.64196524222222], [-73.79633575328887, 40.64193971102222], [-73.7963668896, 40.6419159192], [-73.79640059115555, 40.64189386675555], [-73.79643685795554, 40.64187355368889], [-73.79647569, 40.64185498], [-73.79651591377778, 40.641838332], [-73.79655635577778, 40.641823796], [-73.796597016, 40.641811372], [-73.79663789444446, 40.64180106], [-73.79667899111114, 40.64179286000001], [-73.796720306, 40.641786772], [-73.7967618391111, 40.641782796], [-73.79680359044445, 40.641780932], [-73.79684556, 40.64178118], [-73.79688774777779, 40.64178354], [-73.79693015377778, 40.641788012], [-73.79697277800001, 40.641794596], [-73.79701562044445, 40.641803292], [-73.79705868111111, 40.6418141], [-73.79710196, 40.64182702], [-73.7957852, 40.64123254]], [[-73.7955315, 40.6420196], [-73.79557377462223, 40.64202174808889], [-73.79561342515557, 40.64202711235556], [-73.79565045160001, 40.6420356928], [-73.79568485395556, 40.642047489422225], [-73.79571663222222, 40.64206250222223], [-73.7957457864, 40.6420807312], [-73.7957723164889, 40.64210217635556], [-73.79579622248889, 40.64212683768889], [-73.7958175044, 40.6421547152], [-73.79583616222223, 40.6421858088889], [-73.79585219595555, 40.64222011875556], [-73.7958656056, 40.642257644800004], [-73.79587639115556, 40.64229838702222], [-73.79588455262223, 40.64234234542222], [-73.79589009, 40.64238952], [-73.79586451, 40.64271953], [-73.79585364755555, 40.642768659644446], [-73.79584046288889, 40.642814301911116], [-73.79582495600002, 40.64285645680001], [-73.7958071268889, 40.64289512431111], [-73.79578697555557, 40.64293030444445], [-73.79576450200001, 40.6429619972], [-73.79573970622224, 40.64299020257778], [-73.79571258822223, 40.64301492057777], [-73.795683148, 40.64303615119999], [-73.79565138555556, 40.64305389444444], [-73.79561730088889, 40.64306815031111], [-73.79558089400001, 40.6430789188], [-73.7955421648889, 40.64308619991111], [-73.79550111355556, 40.643089993644445], [-73.79545774, 40.6430903], [-73.79541466204444, 40.64308731062222], [-73.79537449751113, 40.643081217155554], [-73.79533724640001, 40.643072019600005], [-73.79530290871112, 40.64305971795555], [-73.79527148444446, 40.64304431222223], [-73.79524297360001, 40.6430258024], [-73.79521737617777, 40.64300418848889], [-73.79519469217777, 40.64297947048889], [-73.7951749216, 40.6429516484], [-73.79515806444445, 40.64292072222223], [-73.79514412071111, 40.64288669195555], [-73.7951330904, 40.6428495576], [-73.79512497351111, 40.64280931915556], [-73.79511977004444, 40.64276597662222], [-73.79511748, 40.64271953], [-73.79513795, 40.64238563], [-73.79514799333332, 40.6423379488], [-73.79516035, 40.6422935932], [-73.79517502, 40.64225256320001], [-73.79519200333334, 40.6422148588], [-73.7952113, 40.64218048], [-73.79523291, 40.642149426799996], [-73.79525683333333, 40.6421216992], [-73.79528306999998, 40.642097297199996], [-73.79531162, 40.6420762208], [-73.79534248333333, 40.64205847], [-73.79537566, 40.6420440448], [-73.79541115, 40.6420329452], [-73.79544895333332, 40.6420251712], [-73.79548907, 40.6420207228], [-73.7955315, 40.6420196]]]}}, {"type": "Feature", "properties": {"name": "New Taxiway 144", "surface_type": "ASPHALT", "smoothness": 0.0, "texture_orientation": 151.0}, "geometry": {"type": "Polygon", "coordinates": [[[-73.79601651, 40.65022771], [-73.79614582, 40.65016196], [-73.79617313635556, 40.65014205391111], [-73.79619840542223, 40.65012142364445], [-73.79622162720001, 40.6501000692], [-73.79624280168889, 40.650077990577785], [-73.7962619288889, 40.65005518777779], [-73.7962790088, 40.6500316608], [-73.79629404142221, 40.650007409644445], [-73.79630702675556, 40.64998243431111], [-73.7963179648, 40.6499567348], [-73.79632685555555, 40.64993031111112], [-73.79633369902221, 40.649903163244446], [-73.79633849519999, 40.649875291200004], [-73.79634124408888, 40.64984669497778], [-73.79634194568888, 40.64981737457778], [-73.7963406, 40.64978733], [-73.79634272, 40.64938782], [-73.7957762, 40.64962768], [-73.79595227, 40.64986824], [-73.79571845, 40.64997001], [-73.79554033, 40.64972831], [-73.79157867, 40.65141772], [-73.79228326, 40.65157861], [-73.79232107617779, 40.65158509395556], [-73.79235831671112, 40.65159076448889], [-73.7923949816, 40.6515956216], [-73.79243107084446, 40.65159966528889], [-73.79246658444445, 40.65160289555556], [-73.7925015224, 40.651605312399994], [-73.79253588471113, 40.65160691582222], [-73.79256967137778, 40.65160770582222], [-73.7926028824, 40.6516076824], [-73.79263551777778, 40.65160684555556], [-73.79266757751111, 40.651605195288894], [-73.7926990616, 40.6516027316], [-73.79272997004445, 40.65159945448889], [-73.79276030284446, 40.651595363955565], [-73.79279006, 40.65159046], [-73.79318921, 40.65144293], [-73.79563784, 40.6503966], [-73.79601651, 40.65022771]]]}}, {"type": "Feature", "properties": {"name": "New Taxiway 11", "surface_type": "CONCRETE", "smoothness": 0.0, "texture_orientation": 172.9}, "geometry": {"type": "Polygon", "coordinates": [[[-73.78557633, 40.64003833], [-73.78555297, 40.63986983], [-73.78524854, 40.63989413], [-73.78499032, 40.63814577], [-73.78425591, 40.637836], [-73.78442446, 40.63882751], [-73.78468726, 40.64037341], [-73.78539816, 40.64131836], [-73.78549553, 40.64131058], [-73.7854816, 40.64121015], [-73.78554212, 40.64120532], [-73.78553439, 40.64114955], [-73.78560481, 40.64114393], [-73.78557353, 40.64091841], [-73.78549521, 40.64092466], [-73.78546548, 40.64071028], [-73.78538444, 40.64071675], [-73.78531544, 40.64021921], [-73.78537717, 40.64021428], [-73.78537047, 40.64016599], [-73.78544668, 40.6401599], [-73.78543951, 40.64010821], [-73.78551199, 40.64010242], [-73.78550391, 40.64004411], [-73.78557633, 40.64003833]]]}}, {"type": "Feature", "properties": {"name": "asphalt_4D.pol", "surface_type": "UNKNOWN_29", "smoothness": 0.25, "texture_orientation": 0.0}, "geometry": {"type": "Polygon", "coordinates": [[[-73.78998326, 40.65286586], [-73.78962504, 40.6527785], [-73.7890813, 40.65265334], [-73.78899832724446, 40.652642837466665], [-73.78891692631112, 40.6526346872], [-73.78883709720002, 40.6526288892], [-73.78875883991113, 40.65262544346667], [-73.78868215444446, 40.65262435], [-73.7886070408, 40.652625608799994], [-73.78853349897778, 40.65262921986666], [-73.78846152897778, 40.6526351832], [-73.78839113080001, 40.652643498799996], [-73.78832230444445, 40.652654166666665], [-73.78825504991111, 40.6526671868], [-73.7881893672, 40.6526825592], [-73.78812525631112, 40.652700283866665], [-73.78806271724446, 40.6527203608], [-73.78800175, 40.65274279], [-73.78779799, 40.65284561], [-73.78776797173333, 40.652860565599994], [-73.78774093826667, 40.65287587773334], [-73.7877168896, 40.6528915464], [-73.78769582573332, 40.652907571600004], [-73.78767774666667, 40.65292395333334], [-73.78766265239999, 40.6529406916], [-73.78765054293333, 40.652957786399995], [-73.78764141826666, 40.65297523773334], [-73.78763527839999, 40.6529930456], [-73.78763212333334, 40.65301121], [-73.78763195306666, 40.65302973093333], [-73.7876347676, 40.6530486084], [-73.78764056693333, 40.653067842400006], [-73.78764935106666, 40.65308743293333], [-73.78766112, 40.65310738], [-73.78844265, 40.65400394], [-73.78847207755557, 40.65402513515555], [-73.78850220022223, 40.654044275288896], [-73.788533018, 40.65406136040001], [-73.78856453088889, 40.654076390488896], [-73.7885967388889, 40.654089365555556], [-73.78862964199999, 40.6541002856], [-73.7886632402222, 40.654109150622226], [-73.78869753355555, 40.65411596062222], [-73.788732522, 40.6541207156], [-73.78876820555556, 40.65412341555556], [-73.78880458422222, 40.65412406048888], [-73.788841658, 40.654122650400005], [-73.78887942688888, 40.65411918528889], [-73.78891789088888, 40.654113665155556], [-73.78895705, 40.65410609], [-73.78920684, 40.65400178], [-73.78873776, 40.65336198], [-73.78966337, 40.65297472], [-73.78979198, 40.65315794], [-73.78993316, 40.65309944], [-73.78998326, 40.65286586]]]}}, {"type": "Feature", "properties": {"name": "concrete_4D.pol", "surface_type": "UNKNOWN_52", "smoothness": 0.25, "texture_orientation": 0.0}, "geometry": {"type": "Polygon", "coordinates": [[[-73.80455033, 40.65725613], [-73.80454911, 40.65743815], [-73.80081256, 40.65739714], [-73.80080944, 40.65747278], [-73.80103106, 40.657474], [-73.80102716, 40.65776122], [-73.80487177, 40.65779379], [-73.80487762, 40.65725488], [-73.80455033, 40.65725613]]]}}, {"type": "Feature", "properties": {"name": "New Taxiway 140", "surface_type": "ASPHALT", "smoothness": 0.0, "texture_orientation": 151.0}, "geometry": {"type": "Polygon", "coordinates": [[[-73.79454975, 40.64600357], [-73.79438519, 40.64581337], [-73.79379573, 40.64582968], [-73.79322468, 40.64565962], [-73.79243005, 40.64571302], [-73.79294891, 40.64639523], [-73.79305446, 40.64638185], [-73.79352578, 40.64654483], [-73.79478532, 40.64645479], [-73.79474753, 40.64628505], [-73.79454975, 40.64600357]]]}}, {"type": "Feature", "properties": {"name": "New Taxiway 140", "surface_type": "ASPHALT", "smoothness": 0.0, "texture_orientation": 240.9}, "geometry": {"type": "Polygon", "coordinates": [[[-73.79243005, 40.64571302], [-73.79195159, 40.64574518], [-73.79176638, 40.64582968], [-73.79175154, 40.64597048], [-73.79160053, 40.64604405], [-73.79129906, 40.64698105], [-73.7913351, 40.64702913], [-73.7927611, 40.64641904], [-73.79294891, 40.64639523], [-73.79243005, 40.64571302]]]}}, {"type": "Feature", "properties": {"name": "concrete_1L.pol", "surface_type": "CONCRETE", "smoothness": 0.25, "texture_orientation": 60.0}, "geometry": {"type": "Polygon", "coordinates": [[[-73.78873776, 40.65336198], [-73.78920684, 40.65400178], [-73.79011853, 40.65361248], [-73.78979198, 40.65315794], [-73.78966337, 40.65297472], [-73.78873776, 40.65336198]]]}}, {"type": "Feature", "properties": {"name": "worn.pol", "surface_type": "UNKNOWN_54", "smoothness": 0.25, "texture_orientation": 172.9}, "geometry": {"type": "Polygon", "coordinates": [[[-73.78418561, 40.63727483], [-73.78525694, 40.63716158], [-73.78544386, 40.63696816], [-73.7840348, 40.6363433], [-73.78418561, 40.63727483]]]}}, {"type": "Feature", "properties": {"name": "New Taxiway 135", "surface_type": "CONCRETE", "smoothness": 0.0, "texture_orientation": 175.0}, "geometry": {"type": "Polygon", "coordinates": [[[-73.79614791, 40.64521853], [-73.79611221, 40.64488109], [-73.79605857, 40.6443741], [-73.79603739, 40.64417585], [-73.79605763, 40.6438371], [-73.7957755, 40.6438247], [-73.79575003, 40.64417585], [-73.79577069, 40.64437906], [-73.79582074, 40.64486943], [-73.79585687, 40.64522691], [-73.79590651, 40.64545032], [-73.79618714, 40.64539864], [-73.79614791, 40.64521853]]]}}, {"type": "Feature", "properties": {"name": "New Taxiway 138", "surface_type": "CONCRETE", "smoothness": 0.0, "texture_orientation": 61.0}, "geometry": {"type": "Polygon", "coordinates": [[[-73.78669733, 40.65192784], [-73.78714482, 40.65173926], [-73.78700497, 40.65154191], [-73.78662553, 40.6517061], [-73.78637348, 40.65181517], [-73.78578593, 40.65206943], [-73.78514273, 40.65234776], [-73.78527607, 40.65252676], [-73.78571156, 40.65234325], [-73.78589391, 40.6522664], [-73.78649194, 40.65201439], [-73.78669733, 40.65192784]]]}}, {"type": "Feature", "properties": {"name": "New Taxiway 137", "surface_type": "CONCRETE", "smoothness": 0.0, "texture_orientation": 61.0}, "geometry": {"type": "Polygon", "coordinates": [[[-73.78755813, 40.65250536], [-73.78742201, 40.65230872], [-73.78708125, 40.65245519], [-73.78682131, 40.65256693], [-73.78620488, 40.65283189], [-73.78590524, 40.65296069], [-73.78562331, 40.65308187], [-73.78576575, 40.65327053], [-73.786052, 40.65314833], [-73.78631565, 40.65303578], [-73.78755813, 40.65250536]]]}}, {"type": "Feature", "properties": {"name": "New Taxiway 136", "surface_type": "CONCRETE", "smoothness": 0.0, "texture_orientation": 175.0}, "geometry": {"type": "Polygon", "coordinates": [[[-73.7950414, 40.64387107], [-73.7947614, 40.64387431], [-73.7948203, 40.64442661], [-73.79487336, 40.64492418], [-73.79493175, 40.64547167], [-73.79521573, 40.64545032], [-73.79515553, 40.64490494], [-73.79510029, 40.64440454], [-73.7950414, 40.64387107]]]}}, {"type": "Feature", "properties": {"name": "New Taxiway 1", "surface_type": "UNKNOWN_54", "smoothness": 0.0, "texture_orientation": 89.8}, "geometry": {"type": "Polygon", "coordinates": [[[-73.77334402, 40.65526327], [-73.77289299, 40.65526303], [-73.77292732, 40.65535931], [-73.7730155, 40.6555376], [-73.77305736, 40.65606922], [-73.77355024, 40.65544918], [-73.77335353, 40.65533619], [-73.77334402, 40.65526327]]]}}, {"type": "Feature", "properties": {"name": "New Taxiway 1", "surface_type": "UNKNOWN_27", "smoothness": 0.0, "texture_orientation": 150.1}, "geometry": {"type": "Polygon", "coordinates": [[[-73.78897277, 40.65005274], [-73.78871025, 40.65016623], [-73.7887679, 40.650243], [-73.78870444, 40.65027043], [-73.78874082, 40.65031887], [-73.78867818, 40.65034595], [-73.78871335, 40.65039278], [-73.78865126, 40.65041962], [-73.78868818, 40.65046879], [-73.78862296, 40.65049699], [-73.78869288, 40.65059008], [-73.78856457, 40.65064555], [-73.78873016, 40.65086604], [-73.78892345, 40.65087086], [-73.78892164271112, 40.65085030702221], [-73.78892039151111, 40.650830000088895], [-73.7889196964, 40.6508099392], [-73.78891955737778, 40.65079012435556], [-73.78891997444445, 40.65077055555556], [-73.7889209476, 40.6507512328], [-73.78892247684445, 40.650732156088885], [-73.78892456217778, 40.65071332542222], [-73.7889272036, 40.6506947408], [-73.78893040111112, 40.65067640222222], [-73.78893415471111, 40.65065830968888], [-73.7889384644, 40.6506404632], [-73.78894333017777, 40.650622862755554], [-73.78894875204445, 40.650605508355554], [-73.78895473, 40.6505884], [-73.78896128111111, 40.650571420755554], [-73.78896842244446, 40.65055445368888], [-73.78897615400001, 40.6505374988], [-73.78898447577778, 40.650520556088885], [-73.7889933877778, 40.650503625555565], [-73.78900289, 40.650486707199995], [-73.78901298244445, 40.65046980102222], [-73.78902366511112, 40.65045290702222], [-73.789034938, 40.650436025199994], [-73.78904680111111, 40.650419155555554], [-73.78905925444445, 40.65040229808889], [-73.789072298, 40.650385452799995], [-73.78908593177778, 40.65036861968889], [-73.78910015577777, 40.65035179875555], [-73.78911497, 40.65033499], [-73.78906327, 40.65026234], [-73.78906324, 40.65020178], [-73.78897277, 40.65005274]]]}}, {"type": "Feature", "properties": {"name": "New Taxiway 196", "surface_type": "CONCRETE", "smoothness": 0.0, "texture_orientation": 38.0}, "geometry": {"type": "Polygon", "coordinates": [[[-73.77955005, 40.63521575], [-73.77977284, 40.63498973], [-73.7797459, 40.63485189], [-73.7796101, 40.63476696], [-73.77943069, 40.63487885], [-73.77925834, 40.63504636], [-73.77955005, 40.63521575]]]}}, {"type": "Feature", "properties": {"name": "concrete_5L.pol", "surface_type": "CONCRETE", "smoothness": 0.25, "texture_orientation": 175.0}, "geometry": {"type": "Polygon", "coordinates": [[[-73.7948203, 40.64442661], [-73.79471882, 40.64443434], [-73.79477774, 40.64493066], [-73.79487336, 40.64492418], [-73.7948203, 40.64442661]]]}}, {"type": "Feature", "properties": {"name": "concrete_5L.pol", "surface_type": "CONCRETE", "smoothness": 0.25, "texture_orientation": 175.0}, "geometry": {"type": "Polygon", "coordinates": [[[-73.79611221, 40.64488109], [-73.79620234, 40.64488467], [-73.79614822, 40.64437255], [-73.79605857, 40.6443741], [-73.79611221, 40.64488109]]]}}, {"type": "Feature", "properties": {"name": "concrete_5L.pol", "surface_type": "CONCRETE", "smoothness": 0.25, "texture_orientation": 175.0}, "geometry": {"type": "Polygon", "coordinates": [[[-73.79577069, 40.64437906], [-73.79568029, 40.64438064], [-73.79573359, 40.64486595], [-73.79582074, 40.64486943], [-73.79577069, 40.64437906]]]}}, {"type": "Feature", "properties": {"name": "concrete_5L.pol", "surface_type": "CONCRETE", "smoothness": 0.25, "texture_orientation": 175.0}, "geometry": {"type": "Polygon", "coordinates": [[[-73.79517453, 40.64439884], [-73.79510029, 40.64440454], [-73.79515553, 40.64490494], [-73.79523642, 40.64489943], [-73.79517453, 40.64439884]]]}}, {"type": "Feature", "properties": {"name": "concrete_4L.pol", "surface_type": "CONCRETE", "smoothness": 0.25, "texture_orientation": 61.0}, "geometry": {"type": "Polygon", "coordinates": [[[-73.78679527, 40.65252377], [-73.78618063, 40.65278896], [-73.78620488, 40.65283189], [-73.78682131, 40.65256693], [-73.78679527, 40.65252377]]]}}, {"type": "Feature", "properties": {"name": "concrete_4L.pol", "surface_type": "CONCRETE", "smoothness": 0.25, "texture_orientation": 61.0}, "geometry": {"type": "Polygon", "coordinates": [[[-73.78694112, 40.65276876], [-73.78631565, 40.65303578], [-73.78634033, 40.65308005], [-73.78696521, 40.65280919], [-73.78694112, 40.65276876]]]}}, {"type": "Feature", "properties": {"name": "concrete_4L.pol", "surface_type": "CONCRETE", "smoothness": 0.25, "texture_orientation": 61.0}, "geometry": {"type": "Polygon", "coordinates": [[[-73.78651824, 40.65205848], [-73.78649194, 40.65201439], [-73.78589391, 40.6522664], [-73.78591582, 40.65231194], [-73.78651824, 40.65205848]]]}}, {"type": "Feature", "properties": {"name": "concrete_4L.pol", "surface_type": "CONCRETE", "smoothness": 0.25, "texture_orientation": 61.0}, "geometry": {"type": "Polygon", "coordinates": [[[-73.78637348, 40.65181517], [-73.78634961, 40.65177527], [-73.78575841, 40.65201937], [-73.78578593, 40.65206943], [-73.78637348, 40.65181517]]]}}]}