{"type": "FeatureCollection", "features": [{"type": "Feature", "properties": {"name": "New Taxiway 85", "surface_type": "ASPHALT", "smoothness": 0.0, "texture_orientation": 0.0}, "geometry": {"type": "Polygon", "coordinates": [[[77.11363241, 28.5563992], [77.11206433, 28.5511549], [77.11204914, 28.55110409], [77.1119943, 28.5509207], [77.1117944, 28.55025215], [77.11036303, 28.54546505], [77.11027252, 28.54516234], [77.11020493, 28.54493632], [77.11019780297778, 28.544908876533334], [77.11019070991111, 28.544882359466673], [77.11018365080001, 28.5448567688], [77.11017662564444, 28.544832104533338], [77.11016963444445, 28.54480836666667], [77.1101626772, 28.544785555199997], [77.1101557539111, 28.54476367013333], [77.11014886457778, 28.544742711466668], [77.11014200919999, 28.5447226792], [77.11013518777779, 28.54470357333333], [77.11012840031111, 28.544685393866665], [77.1101216468, 28.5446681408], [77.11011492724444, 28.54465181413333], [77.11010824164444, 28.544636413866666], [77.11010159, 28.54462194], [77.11009192266964, 28.54460051009778], [77.11008263642373, 28.544578345048897], [77.11007344888002, 28.54455558384], [77.1100640776563, 28.544532365457783], [77.11005424037039, 28.544508828888894], [77.11004365464, 28.544485113120007], [77.11003203808298, 28.544461357137777], [77.11001910831705, 28.544437699928892], [77.11000458296, 28.544414280480005], [77.10998817962964, 28.54439123777778], [77.1099696159437, 28.54436871080889], [77.10994860951999, 28.544346838560006], [77.10992487797628, 28.544325760017777], [77.10989813893036, 28.54430561416889], [77.10986811, 28.54428654], [77.10984687688888, 28.544274711866667], [77.10982553488888, 28.54426388346667], [77.109804084, 28.544254054800003], [77.10978252422223, 28.544245225866675], [77.10976085555556, 28.54423739666667], [77.109739078, 28.544230567200003], [77.10971719155555, 28.544224737466664], [77.10969519622222, 28.54421990746667], [77.109673092, 28.544216077200005], [77.10965087888889, 28.54421324666667], [77.10962855688888, 28.544211415866666], [77.109606126, 28.544210584800005], [77.10958358622223, 28.54421075346667], [77.10956093755556, 28.54421192186667], [77.10953818, 28.54421409], [77.11062267, 28.54397278], [77.11061909257778, 28.543976739022227], [77.11061539231112, 28.54398228008889], [77.1106115692, 28.543989403200005], [77.11060762324446, 28.543998108355556], [77.11060355444447, 28.544008395555558], [77.1105993628, 28.5440202648], [77.11059504831113, 28.54403371608889], [77.11059061097778, 28.544048749422224], [77.11058605080001, 28.5440653648], [77.1105813677778, 28.54408356222222], [77.11057656191112, 28.54410334168889], [77.11057163320001, 28.5441247032], [77.11056658164445, 28.544147646755555], [77.11056140724445, 28.54417217235556], [77.11055611, 28.54419828], [77.11054883779259, 28.54423726566223], [77.11054304727409, 28.544273636231107], [77.11053866360002, 28.544307556080003], [77.11053561192594, 28.54433918958223], [77.11053381740743, 28.544368701111114], [77.1105332052, 28.54439625504], [77.11053370045924, 28.54442201574222], [77.11053522834074, 28.544446147591113], [77.11053771399999, 28.54446881496], [77.1105410825926, 28.544490182222226], [77.11054525927406, 28.544510413751112], [77.1105501692, 28.544529673920003], [77.11055573752593, 28.544548127102225], [77.1105618894074, 28.544565937671113], [77.11056855, 28.54458327], [77.11058225136001, 28.544626412325925], [77.11061581048, 28.54473626460741], [77.11066785791999, 28.544908232800008], [77.11073702424001, 28.545137722859266], [77.11082194, 28.545420140740745], [77.11092123576, 28.545750892400005], [77.11103354208, 28.546125383792592], [77.11115748952001, 28.546539020874075], [77.11129170864, 28.5469872096], [77.11143483, 28.54746535592593], [77.11158548415999, 28.547968865807405], [77.11174230168001, 28.548493145200005], [77.11190391312, 28.54903360005926], [77.11206894904001, 28.54958563634074], [77.11223604, 28.55014466], [77.11225417984001, 28.5502053587763], [77.11227232618667, 28.550266079277044], [77.11229047728003, 28.55032681576001], [77.11230863136002, 28.550387562482967], [77.11232678666669, 28.550448313703708], [77.11234494144003, 28.550509063680007], [77.11236309392, 28.550569806669632], [77.11238124234667, 28.55063053693037], [77.11239938496001, 28.55069124872], [77.11241752000002, 28.550751936296297], [77.11243564570667, 28.550812593917033], [77.11245376032002, 28.55087321584], [77.11247186208001, 28.550933796322965], [77.11248994922668, 28.550994329623705], [77.11250802, 28.55105481], [77.11261564093334, 28.55141500466667], [77.11272278106668, 28.551773615333335], [77.1128294404, 28.552130642], [77.11293561893335, 28.55248608466667], [77.11304131666667, 28.55283994333334], [77.1131465336, 28.553192218], [77.11325126973334, 28.553542908666664], [77.11335552506667, 28.553892015333332], [77.1134592996, 28.554239538], [77.11356259333334, 28.554585476666666], [77.11366540626668, 28.554929831333332], [77.11376773840001, 28.555272602], [77.11386958973334, 28.555613788666665], [77.11397096026667, 28.555953391333333], [77.11407185, 28.55629141], [77.11363241, 28.5563992]]]}}, {"type": "Feature", "properties": {"name": "New Taxiway 86", "surface_type": "ASPHALT", "smoothness": 0.0, "texture_orientation": 0.0}, "geometry": {"type": "Polygon", "coordinates": [[[77.11452316, 28.55616275], [77.11297037, 28.55097088], [77.11270284, 28.55007638], [77.11112506, 28.54480097], [77.11111079537778, 28.54475900857778], [77.1110970921778, 28.54471919897778], [77.1110839504, 28.5446815412], [77.11107137004447, 28.544646035244448], [77.11105935111111, 28.544612681111115], [77.1110478936, 28.544581478800005], [77.11103699751112, 28.544552428311114], [77.11102666284444, 28.544525529644446], [77.1110168896, 28.5445007828], [77.11100767777776, 28.54447818777778], [77.11099902737777, 28.544457744577777], [77.11099093840001, 28.544439453200006], [77.11098341084444, 28.544423313644447], [77.11097644471111, 28.544409325911115], [77.11097004, 28.54439749], [77.11096070080592, 28.54438054072889], [77.11095105524741, 28.544362133697785], [77.11094110336002, 28.544342510080003], [77.11093084517927, 28.54432191104889], [77.11092028074076, 28.544300577777783], [77.11090941008001, 28.54427875144], [77.11089823323259, 28.544256673208892], [77.11088675023409, 28.544234584257783], [77.11087496112, 28.544212725760005], [77.11086286592592, 28.544191338888893], [77.1108504646874, 28.544170664817777], [77.11083775744001, 28.544150944720002], [77.11082474421926, 28.544132419768893], [77.11081142506075, 28.544115331137778], [77.1107978, 28.54409992], [77.11078844866667, 28.544090337688893], [77.11077876533335, 28.544080913422228], [77.11076875, 28.5440716472], [77.11075840266668, 28.544062539022224], [77.11074772333336, 28.54405358888889], [77.110736712, 28.5440447968], [77.11072536866666, 28.544036162755553], [77.11071369333334, 28.544027686755555], [77.110701686, 28.5440193688], [77.11068934666667, 28.54401120888889], [77.11067667533334, 28.54400320702222], [77.11066367200002, 28.5439953632], [77.11065033666667, 28.543987677422223], [77.11063666933333, 28.543980149688892], [77.11062267, 28.54397278], [77.11150174, 28.54377717], [77.11149240973333, 28.543790031822223], [77.11148372293333, 28.543803073288892], [77.11147567959999, 28.543816294400006], [77.11146827973333, 28.543829695155562], [77.11146152333335, 28.543843275555556], [77.1114554104, 28.543857035600002], [77.11144994093333, 28.54387097528889], [77.11144511493333, 28.54388509462222], [77.1114409324, 28.5438993936], [77.11143739333332, 28.543913872222223], [77.11143449773334, 28.54392853048889], [77.1114322456, 28.5439433684], [77.11143063693332, 28.543958385955555], [77.11142967173332, 28.543973583155555], [77.11142935, 28.54398896], [77.11143088955258, 28.544017801274077], [77.11143523602075, 28.544056819259264], [77.11144198112001, 28.54410435520001], [77.11145071656594, 28.544158750340745], [77.1114610340741, 28.54421834592593], [77.11147252536, 28.544281483200006], [77.11148478213926, 28.544346503407404], [77.1114973961274, 28.544411747792594], [77.11150995903999, 28.544475557600002], [77.1115220625926, 28.544536274074076], [77.11153329850075, 28.54459223845926], [77.11154325848, 28.544641792], [77.11155153424593, 28.54468327594074], [77.11155771751407, 28.544715031525925], [77.1115614, 28.5447354], [77.11157233294222, 28.544774817348152], [77.11160210780444, 28.54487687398519], [77.11164945264002, 28.5450373348], [77.11171309550224, 28.54525196468149], [77.11179176444446, 28.545516528518526], [77.11188418752, 28.5458267912], [77.11198909278222, 28.546178517614816], [77.11210520828445, 28.54656747265185], [77.11223126208, 28.5469894212], [77.11236598222223, 28.54744012814815], [77.11250809676444, 28.547915358385183], [77.11265633376001, 28.5484108768], [77.11280942126223, 28.548922448281484], [77.11296608732445, 28.549445837718523], [77.11312506, 28.54997681], [77.11313837535111, 28.55002127906667], [77.11315169694223, 28.550065768666673], [77.11316502408002, 28.55011027640001], [77.11317835607112, 28.550154799866668], [77.11319169222224, 28.550199336666672], [77.11320503184002, 28.550243884400004], [77.11321837423112, 28.550288440666662], [77.11323171870222, 28.550333003066665], [77.11324506456, 28.5503775692], [77.11325841111113, 28.55042213666667], [77.11327175766223, 28.55046670306666], [77.11328510352001, 28.550511266], [77.11329844799113, 28.550555823066667], [77.11331179038224, 28.550600371866665], [77.11332513, 28.55064491], [77.11332830199112, 28.55065549946963], [77.11333147392891, 28.550666087890374], [77.11333464576002, 28.55067667528001], [77.11333781743114, 28.5506872616563], [77.11334098888891, 28.550697847037043], [77.11334416008, 28.55070843144], [77.1133473309511, 28.550719014882965], [77.11335050144889, 28.550729597383704], [77.11335367152, 28.550740178959998], [77.11335684111111, 28.55075075962963], [77.11336001016889, 28.55076133941037], [77.11336317864, 28.550771918320002], [77.11336634647111, 28.550782496376293], [77.11336951360889, 28.550793073597035], [77.11337268, 28.55080365], [77.11337427199703, 28.550808965863705], [77.1133758639763, 28.550814281442964], [77.11337745592002, 28.55081959672], [77.1133790478104, 28.550824911677044], [77.11338063962965, 28.5508302262963], [77.11338223136002, 28.550835540560005], [77.11338382298369, 28.55084085445037], [77.11338541448296, 28.55084616794963], [77.11338700584001, 28.55085148104], [77.11338859703704, 28.5508567937037], [77.1133901880563, 28.55086210592296], [77.11339177888001, 28.550867417680003], [77.11339336949038, 28.55087272895704], [77.11339495986964, 28.550878039736297], [77.11339655, 28.55088335], [77.11350266302223, 28.551237608844442], [77.1136084020889, 28.551590590711115], [77.11371376720001, 28.551942295600004], [77.11381875835556, 28.552292723511115], [77.11392337555556, 28.552641874444447], [77.1140276188, 28.552989748399998], [77.11413148808889, 28.553336345377776], [77.11423498342222, 28.553681665377773], [77.1143381048, 28.554025708399998], [77.1144408522222, 28.554368474444445], [77.11454322568889, 28.554709963511108], [77.1146452252, 28.5550501756], [77.11474685075555, 28.55538911071111], [77.11484810235555, 28.555726768844444], [77.11494898, 28.55606315], [77.11452316, 28.55616275]]]}}, {"type": "Feature", "properties": {"name": "New Taxiway 12", "surface_type": "CONCRETE", "smoothness": 0.0, "texture_orientation": 15.0}, "geometry": {"type": "Polygon", "coordinates": [[[77.09077448, 28.5616979], [77.09079187137777, 28.56169555035555], [77.09080838151111, 28.56169336275556], [77.0908240104, 28.5616913372], [77.09083875804444, 28.56168947368889], [77.09085262444444, 28.561687772222225], [77.0908656096, 28.5616862328], [77.0908777135111, 28.56168485542222], [77.09088893617778, 28.56168364008889], [77.09089927759999, 28.5616825868], [77.09090873777777, 28.561681695555556], [77.0909173167111, 28.561680966355556], [77.0909250144, 28.5616803992], [77.09093183084444, 28.561679994088887], [77.09093776604443, 28.561679751022222], [77.09094282, 28.56167967], [77.09094796622222, 28.561679561955557], [77.09095417822222, 28.561679237822226], [77.090961456, 28.561678697599998], [77.09096979955555, 28.56167794128889], [77.09097920888888, 28.561676968888897], [77.090989684, 28.5616757804], [77.09100122488888, 28.56167437582222], [77.09101383155556, 28.561672755155556], [77.091027504, 28.5616709184], [77.09104224222222, 28.561668865555557], [77.09105804622222, 28.56166659662222], [77.091074916, 28.561664111600003], [77.09109285155556, 28.561661410488888], [77.09111185288889, 28.56165849328889], [77.09113192, 28.56165536], [77.09641522, 28.56040564], [77.09659279, 28.56083707], [77.09658131097778, 28.56083283995556], [77.09657024191111, 28.560828789822224], [77.09655958280001, 28.560824919600005], [77.09654933364446, 28.560821229288887], [77.09653949444447, 28.56081771888889], [77.09653006520001, 28.5608143884], [77.09652104591112, 28.56081123782222], [77.09651243657778, 28.56080826715555], [77.09650423720001, 28.560805476399995], [77.09649644777778, 28.560802865555555], [77.09648906831112, 28.56080043462222], [77.09648209880001, 28.5607981836], [77.09647553924445, 28.560796112488887], [77.09646938964445, 28.560794221288887], [77.09646365, 28.56079251], [77.09645799231112, 28.560791005733336], [77.09645208857779, 28.5607897356], [77.09644593880002, 28.560788699600003], [77.0964395429778, 28.560787897733338], [77.09643290111111, 28.56078733], [77.0964260132, 28.560786996400005], [77.09641887924445, 28.560786896933333], [77.09641149924445, 28.5607870316], [77.0964038732, 28.560787400400002], [77.09639600111112, 28.560788003333336], [77.09638788297778, 28.5607888404], [77.0963795188, 28.560789911600004], [77.09637090857777, 28.560791216933332], [77.09636205231112, 28.560792756399998], [77.09635295, 28.56079453], [77.09653744, 28.56135154], [77.0912034, 28.56252835], [77.09105235, 28.56198788], [77.09104842915555, 28.561987519377784], [77.09104435462223, 28.561987338844446], [77.0910401264, 28.561987338400005], [77.09103574448888, 28.561987518044447], [77.0910312088889, 28.56198787777778], [77.0910265196, 28.561988417600006], [77.09102167662222, 28.561989137511112], [77.09101667995554, 28.561990037511116], [77.0910115296, 28.5619911176], [77.09100622555556, 28.561992377777784], [77.09100076782221, 28.56199381804445], [77.0909951564, 28.561995438400004], [77.09098939128889, 28.561997238844448], [77.09098347248889, 28.561999219377782], [77.0909774, 28.56200138], [77.09097110546668, 28.562004020755555], [77.09096452053333, 28.562007441688895], [77.0909576452, 28.5620116428], [77.09095047946668, 28.56201662408889], [77.09094302333335, 28.56202238555556], [77.09093527680001, 28.5620289272], [77.09092723986667, 28.562036249022224], [77.09091891253334, 28.562044351022223], [77.09091029480001, 28.562053233199997], [77.09090138666667, 28.562062895555556], [77.09089218813334, 28.562073338088886], [77.09088269920001, 28.5620845608], [77.09087291986667, 28.56209656368889], [77.09086285013335, 28.562109346755555], [77.09085249, 28.56212291], [77.09077448, 28.5616979]]]}}, {"type": "Feature", "properties": {"name": "NW Apron asph", "surface_type": "ASPHALT", "smoothness": 0.0, "texture_orientation": 104.7}, "geometry": {"type": "Polygon", "coordinates": [[[77.07904625, 28.56482403], [77.07844994, 28.56496366], [77.07841295, 28.5650103], [77.07769978, 28.56514871], [77.07753339, 28.56459606], [77.07661737, 28.5647961], [77.07666845, 28.56498451], [77.0764533, 28.56503403], [77.07623879, 28.56428339], [77.07646242, 28.56423601], [77.07641367, 28.56404807], [77.07869908, 28.56352547], [77.07873276, 28.56365146], [77.07879135, 28.5638706], [77.07904625, 28.56482403]]]}}]}