{"type": "FeatureCollection", "features": [{"type": "Feature", "properties": {"name": "New Taxiway 19", "surface_type": "CONCRETE", "smoothness": 0.0, "texture_orientation": 0.0}, "geometry": {"type": "Polygon", "coordinates": [[[77.08484299, 28.56242943], [77.08477268, 28.56219859], [77.08493338, 28.56207989], [77.0852337, 28.56174017], [77.08559847, 28.56125166], [77.08587683, 28.56039678], [77.08567792, 28.56030191], [77.08560187, 28.55973165], [77.08560732, 28.55960441], [77.0856129, 28.55947444], [77.085615, 28.55942539], [77.08593689, 28.55934642], [77.0863829, 28.55933669], [77.0881944, 28.55805103], [77.0884214, 28.55772181], [77.08838973, 28.55739723], [77.0895828, 28.55724421], [77.08977813, 28.55722102], [77.09032717, 28.56023501], [77.09050138, 28.56076361], [77.09067033, 28.56159825], [77.0902955, 28.56168635], [77.09027449879999, 28.561663784044445], [77.09025232453334, 28.561643072844447], [77.0902289772, 28.561624216400002], [77.09020445680001, 28.561607214711117], [77.09017876333334, 28.56159206777778], [77.0901518968, 28.5615787756], [77.0901238572, 28.56156733817778], [77.09009464453334, 28.56155775551111], [77.0900642588, 28.5615500276], [77.0900327, 28.561544154444444], [77.08999996813333, 28.561540136044442], [77.0899660632, 28.561537972400004], [77.0899309852, 28.561537663511114], [77.08989473413334, 28.56153920937778], [77.08985731, 28.56154261], [77.08982075786666, 28.5615479824], [77.08978712279999, 28.561555443599996], [77.08975640480001, 28.561564993600005], [77.08972860386667, 28.561576632400005], [77.08970372, 28.56159036], [77.0896817532, 28.5616061764], [77.08966270346667, 28.5616240816], [77.0896465708, 28.5616440756], [77.0896333552, 28.5616661584], [77.08962305666665, 28.56169033], [77.08961567520001, 28.561716590399996], [77.0896112108, 28.5617449396], [77.08960966346666, 28.5617753776], [77.0896110332, 28.5618079044], [77.08961532, 28.56184252], [77.0898814, 28.56269942], [77.08997009, 28.5626883], [77.09005245, 28.56296651], [77.08971668, 28.5629832], [77.089647, 28.5627495], [77.08879175, 28.56293869], [77.08876504, 28.5628882], [77.08665949, 28.56336832], [77.08666945, 28.56343391], [77.08644828, 28.56348435], [77.08657351, 28.56386454], [77.08667747, 28.56384218], [77.08674112, 28.56404902], [77.08355905, 28.56476156], [77.0822126, 28.56409327], [77.08208062, 28.56410255], [77.08160019, 28.56374087], [77.08155944, 28.56312437], [77.08484299, 28.56242943]], [[77.08678553, 28.56184705], [77.08679601582223, 28.56184432106667], [77.08680938262223, 28.5618405476], [77.08682563040001, 28.561835729600006], [77.08684475915557, 28.56182986706667], [77.08686676888891, 28.56182296], [77.0868916596, 28.561815008399996], [77.08691943128889, 28.56180601226667], [77.08695008395556, 28.5617959716], [77.0869836176, 28.561784886399998], [77.08702003222223, 28.561772756666663], [77.08705932782222, 28.5617595824], [77.0871015044, 28.561745363600004], [77.08714656195555, 28.561730100266665], [77.08719450048888, 28.5617137924], [77.08724532, 28.56169644], [77.08727771426666, 28.56168431737778], [77.08730806506667, 28.561672224177777], [77.0873363724, 28.561660160400002], [77.08736263626668, 28.561648126044446], [77.08738685666668, 28.561636121111114], [77.0874090336, 28.5616241456], [77.08742916706667, 28.56161219951111], [77.08744725706666, 28.561600282844445], [77.0874633036, 28.561588395599998], [77.08747730666667, 28.56157653777778], [77.08748926626666, 28.561564709377777], [77.0874991824, 28.5615529104], [77.08750705506667, 28.56154114084444], [77.08751288426667, 28.56152940071111], [77.08751667, 28.56151769], [77.08751857133333, 28.561506119066667], [77.08751874733332, 28.56149479826667], [77.087517198, 28.561483727600002], [77.08751392333333, 28.56147290706667], [77.08750892333335, 28.561462336666672], [77.08750219800001, 28.561452016399997], [77.08749374733334, 28.56144194626667], [77.08748357133334, 28.561432126266666], [77.08747167000001, 28.5614225564], [77.08745804333333, 28.561413236666667], [77.08744269133334, 28.561404167066662], [77.08742561400001, 28.561395347600005], [77.08740681133334, 28.56138677826667], [77.08738628333334, 28.561378459066667], [77.08736403, 28.56137039], [77.08678553, 28.56113206], [77.08676138542224, 28.56112057733333], [77.08673769302223, 28.561110404], [77.08671445280002, 28.56110154], [77.08669166475556, 28.56109398533334], [77.0866693288889, 28.56108774], [77.08664744520001, 28.561082804], [77.0866260136889, 28.561079177333333], [77.08660503435556, 28.56107686], [77.08658450720002, 28.561075852], [77.08656443222223, 28.56107615333334], [77.08654480942224, 28.561077764], [77.08652563880001, 28.561080684], [77.08650692035556, 28.561084913333335], [77.0864886540889, 28.561090452], [77.08647084, 28.5610973], [77.08645357026667, 28.561104824755557], [77.08643693706667, 28.561112393688894], [77.08642094040002, 28.561120006800003], [77.08640558026669, 28.56112766408889], [77.08639085666667, 28.561135365555558], [77.0863767696, 28.5611431112], [77.08636331906666, 28.561150901022224], [77.08635050506666, 28.56115873502222], [77.0863383276, 28.5611666132], [77.08632678666666, 28.561174535555555], [77.08631588226666, 28.56118250208889], [77.0863056144, 28.561190512800003], [77.08629598306666, 28.561198567688887], [77.08628698826666, 28.561206666755556], [77.08627863, 28.56121481], [77.08611028, 28.56138068], [77.08600375, 28.56148565], [77.08598466, 28.56150445], [77.08581695, 28.56174112], [77.08580728644442, 28.561756993955555], [77.08579889577777, 28.56177239715556], [77.085791778, 28.561787329600005], [77.08578593311111, 28.561801791288897], [77.0857813611111, 28.56181578222223], [77.08577806199999, 28.561829302400003], [77.08577603577778, 28.56184235182222], [77.08577528244444, 28.56185493048889], [77.08577580199999, 28.561867038400003], [77.08577759444444, 28.56187867555556], [77.08578065977778, 28.56188984195556], [77.085784998, 28.561900537600003], [77.08579060911111, 28.561910762488893], [77.08579749311112, 28.561920516622223], [77.08580565, 28.5619298], [77.08581031661038, 28.56193349761778], [77.08581665194963, 28.56193675960889], [77.08582458928002, 28.561939599680006], [77.08583406186371, 28.561942031537782], [77.08584500296298, 28.561944068888895], [77.08585734584, 28.561945725440005], [77.08587102375704, 28.561947014897775], [77.0858859699763, 28.56194795096889], [77.08590211776001, 28.561948547360004], [77.08591940037039, 28.561948817777782], [77.08593775106964, 28.561948775928883], [77.08595710312001, 28.56194843552], [77.08597738978371, 28.561947810257777], [77.08599854432296, 28.56194691384889], [77.0860205, 28.56194576], [77.08602702679113, 28.561945377786667], [77.08603361406223, 28.561944975360003], [77.08604026016002, 28.561944553040007], [77.08604696343113, 28.561944111146673], [77.08605372222225, 28.56194365], [77.08606053488002, 28.561943169920003], [77.0860673997511, 28.561942671226667], [77.08607431518223, 28.56194215424], [77.08608127952, 28.56194161928], [77.08608829111111, 28.561941066666666], [77.08609534830221, 28.56194049672], [77.08610244944, 28.56193990976], [77.08610959287111, 28.561939306106666], [77.08611677694222, 28.56193868608], [77.086124, 28.56193805], [77.08617899648888, 28.561932834948145], [77.08623539831112, 28.561926891185184], [77.086292522, 28.561920358800005], [77.08634968408892, 28.56191337788149], [77.08640620111113, 28.561906088518523], [77.0864613896, 28.561898630800002], [77.0865145660889, 28.561891144814812], [77.08656504711112, 28.561883770651857], [77.0866121492, 28.561876648400002], [77.0866551888889, 28.56186991814815], [77.08669348271111, 28.561863719985183], [77.0867263472, 28.561858194], [77.08675309888889, 28.561853480281485], [77.08677305431112, 28.561849718918516], [77.08678553, 28.56184705]]]}}, {"type": "Feature", "properties": {"name": "New Taxiway 24", "surface_type": "UNKNOWN_25", "smoothness": 0.0, "texture_orientation": 15.0}, "geometry": {"type": "Polygon", "coordinates": [[[77.07879135, 28.5638706], [77.07873276, 28.56365146], [77.07880346635555, 28.563637943155555], [77.07886971075555, 28.563624093955553], [77.0789314932, 28.563609912400004], [77.07898881368891, 28.56359539848889], [77.07904167222225, 28.563580552222223], [77.07909006880001, 28.563565373600003], [77.07913400342223, 28.563549862622224], [77.0791734760889, 28.563534019288888], [77.07920848680001, 28.563517843599996], [77.07923903555557, 28.563501335555557], [77.07926512235557, 28.563484495155556], [77.0792867472, 28.5634673224], [77.0793039100889, 28.56344981728889], [77.07931661102224, 28.563431979822223], [77.07932485, 28.56341381], [77.07933148008594, 28.56337885304889], [77.07933372268742, 28.563330480257783], [77.07933214232003, 28.56327092672001], [77.07932730349927, 28.563202427528893], [77.07931977074074, 28.563127217777787], [77.07931010855998, 28.563047532560006], [77.0792988814726, 28.56296560696889], [77.07928665399407, 28.56288367609778], [77.07927399063999, 28.562803975039998], [77.07926145592592, 28.562728738888886], [77.0792496143674, 28.562660202737774], [77.07923903048, 28.562600601680003], [77.07923026877926, 28.562552170808893], [77.07922389378074, 28.56251714521778], [77.07922047, 28.56249776], [77.0791830292326, 28.562367654343706], [77.07908084626075, 28.562021160082967], [77.07892385008, 28.561491551280007], [77.07872196968594, 28.56081210199704], [77.0784851340741, 28.560016086296304], [77.07822327224001, 28.55913677824], [77.07794631317927, 28.558207451890368], [77.07766418588741, 28.55726138130963], [77.07738681936002, 28.556331840560006], [77.07712414259261, 28.555452103703708], [77.07688608458074, 28.55465544480296], [77.07668257432002, 28.55397513792], [77.07652354080594, 28.55344445711704], [77.07641891303408, 28.553096676456295], [77.07637862, 28.55296507], [77.0763698639674, 28.55294344747556], [77.07635390347261, 28.552905161271116], [77.07633175192002, 28.552852799440007], [77.07630442271409, 28.552788950035563], [77.07627292925926, 28.552716201111117], [77.07623828495998, 28.552637140719998], [77.07620150322074, 28.55255435691555], [77.07616359744593, 28.55247043775111], [77.07612558104, 28.55238797128], [77.07608846740742, 28.55230954555556], [77.07605326995258, 28.552237748631107], [77.07602100208001, 28.55217516856], [77.07599267719408, 28.552124393395555], [77.07596930869926, 28.55208801119111], [77.07595191, 28.55206861], [77.07594041839704, 28.55206533934519], [77.07591739504298, 28.552063457561484], [77.07588346312002, 28.552063039920004], [77.0758392458104, 28.552064161691856], [77.07578536629632, 28.55206689814816], [77.07572244776001, 28.55207132456], [77.0756511133837, 28.552077516198516], [77.07557198634963, 28.55208554833482], [77.07548568984002, 28.552095496240003], [77.07539284703705, 28.552107435185192], [77.07529408112296, 28.552121440441482], [77.07519001528001, 28.55213758728], [77.07508127269038, 28.552155950971855], [77.0749684765363, 28.552176606788148], [77.07485225, 28.55219963], [77.07474063111113, 28.55222620471111], [77.07462528111112, 28.552253603511108], [77.07450620000002, 28.552281826400005], [77.07438338777779, 28.55231087337778], [77.07425684444445, 28.55234074444445], [77.07412657, 28.5523714396], [77.07399256444444, 28.552402958844443], [77.07385482777778, 28.552435302177777], [77.07371336, 28.5524684696], [77.07356816111111, 28.55250246111111], [77.07341923111112, 28.55253727671111], [77.07326657, 28.552572916400003], [77.07311017777778, 28.552609380177778], [77.07295005444445, 28.552646668044446], [77.0727862, 28.55268478], [77.07240292, 28.55158414], [77.07688247, 28.55054701], [77.07882419, 28.55009746], [77.07925942, 28.55185473], [77.07909239, 28.55210812], [77.07905853071112, 28.55208516168889], [77.0790263075111, 28.552062558755555], [77.07899572040002, 28.552040311200003], [77.07896676937779, 28.552018419022225], [77.07893945444445, 28.551996882222223], [77.07891377559999, 28.5519757008], [77.07888973284443, 28.55195487475556], [77.07886732617777, 28.55193440408889], [77.0788465556, 28.5519142888], [77.07882742111111, 28.551894528888887], [77.07880992271112, 28.551875124355554], [77.07879406040001, 28.5518560752], [77.07877983417778, 28.55183738142222], [77.07876724404444, 28.55181904302222], [77.07875629, 28.55180106], [77.0787415771615, 28.551774043348146], [77.0787277835585, 28.551746599318523], [77.07871481456002, 28.55171901280001], [77.07870257553483, 28.551691568681488], [77.07869097185187, 28.551664551851857], [77.07867990888002, 28.551638247200007], [77.07866929198816, 28.551612939614813], [77.0786590265452, 28.551588913985185], [77.07864901792, 28.551566455200003], [77.07863917148148, 28.55154584814815], [77.07862939259851, 28.551527377718518], [77.07861958664002, 28.551511328800004], [77.07860965897481, 28.551497986281483], [77.07859951497186, 28.551487635051856], [77.07858906, 28.55148056], [77.078580918, 28.551477325111115], [77.07857068133335, 28.551474743111118], [77.07855835, 28.551472814], [77.07854392400002, 28.551471537777783], [77.07852740333334, 28.551470914444447], [77.078508788, 28.551470944], [77.078488078, 28.551471626444446], [77.07846527333334, 28.551472961777783], [77.078440374, 28.55147495], [77.07841338, 28.551477591111116], [77.07838429133332, 28.55148088511111], [77.078353108, 28.551484832], [77.07831983, 28.551489431777778], [77.07828445733333, 28.551494684444442], [77.07824699, 28.55150059], [77.07819688724445, 28.55151533888889], [77.07814996031111, 28.551529316222222], [77.0781062092, 28.551542522], [77.07806563391111, 28.55155495622223], [77.07802823444446, 28.55156661888889], [77.0779940108, 28.55157751], [77.07796296297778, 28.551587629555556], [77.07793509097777, 28.551596977555555], [77.0779103948, 28.551605554], [77.07788887444445, 28.551613358888886], [77.07787052991111, 28.55162039222222], [77.0778553612, 28.551626654], [77.07784336831111, 28.55163214422222], [77.07783455124445, 28.551636862888888], [77.07782891, 28.55164081], [77.07782361589629, 28.55164829042963], [77.07781979450371, 28.55165969957038], [77.0778172972, 28.551674515200006], [77.07781597536297, 28.5516922150963], [77.07781568037038, 28.55171227703704], [77.07781626359998, 28.5517341788], [77.07781757642962, 28.551757398162962], [77.07781947023703, 28.551781412903704], [77.0778217964, 28.5518057008], [77.07782440629629, 28.551829739629632], [77.0778271513037, 28.55185300717037], [77.07782988279999, 28.5518749812], [77.07783245216297, 28.551895139496295], [77.07783471077038, 28.55191295983704], [77.07783651, 28.55192792], [77.07783882503703, 28.551941869392593], [77.0778426670963, 28.551956886874084], [77.07784794160001, 28.551972794400005], [77.0778545539704, 28.551989413925934], [77.07786240962966, 28.552006567407414], [77.07787141400001, 28.552024076800006], [77.0778814725037, 28.55204176405926], [77.07789249056296, 28.552059451140746], [77.0779043736, 28.55207696], [77.07791702703705, 28.5520941125926], [77.0779303562963, 28.552110730874077], [77.07794426680002, 28.552126636800004], [77.07795866397038, 28.55214165232593], [77.07797345322963, 28.55215559940741], [77.07798854, 28.5521683], [77.07800774856, 28.55217825861926], [77.07803436261334, 28.552184407087413], [77.07806747672001, 28.552187208320007], [77.07810618544, 28.5521871252326], [77.07814958333334, 28.552184620740746], [77.07819676496001, 28.552180157760002], [77.07824682488001, 28.552174199205922], [77.07829885765335, 28.552167207994074], [77.07835195784001, 28.55215964704], [77.07840522, 28.552151979259257], [77.07845773869333, 28.552144667567404], [77.07850860848, 28.55213817488], [77.07855692392, 28.552132964112594], [77.07860177957333, 28.55212949818074], [77.07864227, 28.55212824], [77.07866752364446, 28.552128749911112], [77.07869260991112, 28.552130279644444], [77.07871752880001, 28.5521328292], [77.07874228031113, 28.552136398577783], [77.07876686444446, 28.552140987777776], [77.07879128120001, 28.5521465968], [77.07881553057778, 28.552153225644446], [77.07883961257778, 28.552160874311113], [77.07886352720001, 28.5521695428], [77.07888727444444, 28.55217923111111], [77.07891085431112, 28.552189939244442], [77.0789342668, 28.552201667200002], [77.07895751191111, 28.55221441497778], [77.07898058964444, 28.55222818257778], [77.0790035, 28.55224297], [77.07864218, 28.5527911], [77.07862426271112, 28.552791617244445], [77.07860609217778, 28.55279271564445], [77.0785876684, 28.552794395200003], [77.0785689913778, 28.552796655911113], [77.07855006111113, 28.55279949777778], [77.0785308776, 28.552802920799998], [77.07851144084445, 28.552806924977777], [77.07849175084445, 28.55281151031111], [77.0784718076, 28.5528166768], [77.07845161111112, 28.552822424444443], [77.07843116137778, 28.55282875324444], [77.0784104584, 28.5528356632], [77.07838950217777, 28.552843154311113], [77.07836829271112, 28.55285122657778], [77.07834683, 28.55285988], [77.07832610968889, 28.552869515733335], [77.07830712742225, 28.552880534933337], [77.07828988320001, 28.552892937600003], [77.07827437702224, 28.55290672373334], [77.0782606088889, 28.552921893333338], [77.0782485788, 28.5529384464], [77.07823828675555, 28.55295638293333], [77.07822973275556, 28.552975702933335], [77.0782229168, 28.552996406400002], [77.07821783888889, 28.553018493333337], [77.07821449902222, 28.553041963733335], [77.0782128972, 28.5530668176], [77.07821303342222, 28.553093054933335], [77.07821490768887, 28.553120675733332], [77.07821852, 28.55314968], [77.07822366533333, 28.553205052933336], [77.07822851200001, 28.553256681066667], [77.07823306, 28.5533045644], [77.07823730933333, 28.553348702933338], [77.07824126000001, 28.55338909666667], [77.078244912, 28.553425745599995], [77.07824826533333, 28.55345864973333], [77.07825132, 28.553487809066667], [77.078254076, 28.5535132236], [77.07825653333333, 28.55353489333333], [77.078258692, 28.553552818266667], [77.078260552, 28.553566998399997], [77.07826211333334, 28.55357743373333], [77.07826337600001, 28.553584124266663], [77.07826434, 28.55358707], [77.07826571769185, 28.553590921448887], [77.0782673778015, 28.553598918657787], [77.07826927688004, 28.553610555920006], [77.07827137147852, 28.55362532752889], [77.07827361814816, 28.553642727777785], [77.07827597344, 28.553662250960002], [77.07827839390518, 28.55368339136889], [77.07828083609482, 28.553705643297775], [77.07828325656001, 28.553728501040005], [77.07828561185185, 28.55375145888889], [77.07828785852148, 28.55377401113778], [77.07828995311999, 28.553795652080005], [77.07829185219852, 28.553815876008894], [77.07829351230815, 28.55383417721778], [77.07829489, 28.55385005], [77.0782979830163, 28.553869828124448], [77.07830448133038, 28.553899152062225], [77.07831387984001, 28.55393647616001], [77.07832567344296, 28.553980254764447], [77.07833935703705, 28.554028942222224], [77.07835442552, 28.55408099288], [77.07837037378964, 28.554134861084442], [77.0783866967437, 28.55418900118222], [77.07840288928, 28.554241867520002], [77.0784184462963, 28.55429191444445], [77.07843286269036, 28.55433759630222], [77.07844563336, 28.554377367440004], [77.07845625320296, 28.554409682204444], [77.07846421711704, 28.55443299494222], [77.07846902, 28.55444576], [77.07847172942223, 28.554452665555555], [77.0784757856889, 28.55446408088889], [77.07848118880001, 28.554480006], [77.07848793875557, 28.554500440888894], [77.07849603555556, 28.55452538555556], [77.0785054792, 28.55455484], [77.07851626968889, 28.554588804222224], [77.07852840702222, 28.55462727822222], [77.0785418912, 28.554670262], [77.07855672222222, 28.554717755555558], [77.07857290008889, 28.554769758888888], [77.07859042480001, 28.554826272], [77.07860929635555, 28.55488729488889], [77.07862951475556, 28.554952827555553], [77.07865108, 28.55502287], [77.07865858364443, 28.55504137217778], [77.07866570524445, 28.555058628044446], [77.07867244479999, 28.555074637600004], [77.07867880231112, 28.555089400844448], [77.0786847777778, 28.555102917777784], [77.0786903712, 28.555115188400006], [77.07869558257778, 28.555126212711112], [77.07870041191111, 28.555135990711115], [77.0787048592, 28.555144522400003], [77.07870892444444, 28.555151807777783], [77.07871260764445, 28.555157846844445], [77.0787159088, 28.555162639600006], [77.0787188279111, 28.555166186044445], [77.07872136497777, 28.55516848617778], [77.07872352, 28.55516954], [77.07872721899557, 28.55516870210963], [77.07873229303112, 28.555165115010375], [77.07873854568001, 28.55515910656001], [77.07874578051556, 28.555151004616306], [77.07875380111112, 28.55514113703704], [77.07876241103999, 28.555129831680002], [77.07877141387553, 28.55511741640296], [77.0787806131911, 28.5551042190637], [77.07878981255999, 28.55509056752], [77.07879881555556, 28.55507678962963], [77.0788074257511, 28.55506321325037], [77.07881544672, 28.55505016624], [77.07882268203555, 28.555037976456298], [77.0788289352711, 28.555026971757037], [77.07883401, 28.55501748], [77.07883696911111, 28.55501124297778], [77.07883995311111, 28.555004033244444], [77.07884296200001, 28.5549958508], [77.07884599577778, 28.554986695644445], [77.07884905444446, 28.554976567777782], [77.078852138, 28.5549654672], [77.07885524644445, 28.554953393911113], [77.07885837977778, 28.55494034791111], [77.07886153800001, 28.5549263292], [77.07886472111113, 28.554911337777778], [77.07886792911111, 28.55489537364444], [77.07887116200001, 28.5548784368], [77.07887441977778, 28.554860527244443], [77.07887770244446, 28.554841644977778], [77.07888101, 28.55482179], [77.07894588, 28.55504381], [77.07906139, 28.55543994], [77.0794206, 28.55666791], [77.07941390506667, 28.55666028017778], [77.07940718026668, 28.556653156044447], [77.07940042560001, 28.556646537600002], [77.07939364106669, 28.556640424844446], [77.07938682666669, 28.556634817777777], [77.07937998240001, 28.5566297164], [77.07937310826668, 28.55662512071111], [77.07936620426668, 28.556621030711113], [77.0793592704, 28.556617446399997], [77.07935230666668, 28.556614367777776], [77.07934531306668, 28.556611794844443], [77.0793382896, 28.5566097276], [77.07933123626668, 28.55660816604444], [77.07932415306668, 28.556607110177776], [77.07931704, 28.55660656], [77.07931033062223, 28.556607087511107], [77.0793044584889, 28.556609264711113], [77.0792994236, 28.5566130916], [77.07929522595556, 28.556618568177782], [77.07929186555558, 28.55662569444445], [77.0792893424, 28.5566344704], [77.07928765648889, 28.556644896044446], [77.07928680782223, 28.55665697137778], [77.0792867964, 28.556670696399998], [77.07928762222221, 28.55668607111111], [77.0792892852889, 28.55670309551111], [77.07929178559999, 28.556721769600003], [77.07929512315555, 28.55674209337778], [77.07929929795556, 28.556764066844448], [77.07930431, 28.55678769], [77.07935268, 28.55723045], [77.07935335995556, 28.557255495022222], [77.0793540398222, 28.557279347422224], [77.0793547196, 28.5573020072], [77.0793553992889, 28.55732347435556], [77.07935607888888, 28.55734374888889], [77.0793567584, 28.557362830800002], [77.07935743782222, 28.55738072008889], [77.07935811715555, 28.557397416755556], [77.07935879639999, 28.557412920800004], [77.07935947555555, 28.557427232222224], [77.07936015462221, 28.557440351022223], [77.07936083359999, 28.557452277200007], [77.07936151248889, 28.557463010755555], [77.0793621912889, 28.557472551688893], [77.07936287, 28.5574809], [77.07936383155555, 28.557489168800004], [77.07936535888888, 28.557498471200002], [77.079367452, 28.55750880720001], [77.07937011088889, 28.557520176800008], [77.07937333555556, 28.55753258], [77.079377126, 28.5575460168], [77.07938148222222, 28.5575604872], [77.07938640422222, 28.5575759912], [77.079391892, 28.5575925288], [77.07939794555557, 28.5576101], [77.07940456488889, 28.557628704800003], [77.07941175, 28.5576483432], [77.07941950088889, 28.5576690152], [77.07942781755555, 28.5576907208], [77.0794367, 28.55771346], [77.07948596533333, 28.55787181097778], [77.07953192666668, 28.558019487911114], [77.07957458400001, 28.558156490800002], [77.07961393733333, 28.558282819644447], [77.07964998666668, 28.558398474444445], [77.079682732, 28.558503455199997], [77.07971217333333, 28.55859776191111], [77.07973831066666, 28.558681394577782], [77.079761144, 28.558754353199994], [77.07978067333333, 28.558816637777777], [77.07979689866667, 28.55886824831111], [77.07980982, 28.5589091848], [77.07981943733333, 28.558939447244445], [77.07982575066667, 28.558959035644442], [77.07982876, 28.55896795], [77.0798314864889, 28.55897433], [77.0798369512889, 28.558986315333332], [77.0798451544, 28.559003906], [77.07985609582224, 28.559027102], [77.07986977555557, 28.559055903333334], [77.07988619359999, 28.55909031], [77.07990534995555, 28.559130322], [77.07992724462223, 28.559175939333336], [77.0799518776, 28.559227162], [77.07997924888889, 28.55928399], [77.0800093584889, 28.55934642333333], [77.08004220640001, 28.559414462], [77.08007779262222, 28.559488106], [77.08011611715555, 28.559567355333332], [77.08015718, 28.55965221], [77.08015722475555, 28.55966269488889], [77.08015803902224, 28.559672682888884], [77.08015962280001, 28.559682174], [77.08016197608889, 28.559691168222223], [77.0801650988889, 28.559699665555556], [77.0801689912, 28.559707666], [77.08017365302223, 28.559715169555556], [77.08017908435555, 28.559722176222223], [77.0801852852, 28.559728686], [77.08019225555554, 28.55973469888889], [77.08019999542222, 28.559740214888883], [77.0802085048, 28.559745234], [77.08021778368888, 28.55974975622222], [77.0802278320889, 28.559753781555553], [77.08023865, 28.55975731], [77.08024943684444, 28.55975997475555], [77.08025939204444, 28.559761409022222], [77.08026851560001, 28.559761612800003], [77.08027680751111, 28.559760586088895], [77.08028426777778, 28.559758328888893], [77.0802908964, 28.5597548412], [77.08029669337778, 28.559750123022226], [77.08030165871111, 28.559744174355558], [77.0803057924, 28.559736995199998], [77.08030909444444, 28.559728585555558], [77.08031156484444, 28.559718945422226], [77.0803132036, 28.559708074800003], [77.0803140107111, 28.55969597368889], [77.08031398617777, 28.55968264208889], [77.08031313, 28.55966808], [77.08078433, 28.56130503], [77.08076163595555, 28.561290268755556], [77.0807399244889, 28.56127688368889], [77.0807191956, 28.5612648748], [77.0806994492889, 28.56125424208889], [77.08068068555555, 28.561244985555557], [77.08066290439999, 28.5612371052], [77.08064610582221, 28.56123060102222], [77.08063028982221, 28.56122547302222], [77.0806154564, 28.5612217212], [77.08060160555556, 28.561219345555553], [77.08058873728888, 28.561218346088886], [77.0805768516, 28.5612187228], [77.08056594848888, 28.561220475688888], [77.08055602795555, 28.561223604755554], [77.08054709, 28.56122811], [77.08053931906667, 28.56123426782222], [77.0805328996, 28.561242354622223], [77.0805278316, 28.561252370400005], [77.08052411506667, 28.561264315155558], [77.08052175000002, 28.561278188888892], [77.08052073639999, 28.561293991600003], [77.08052107426667, 28.56131172328889], [77.0805227636, 28.561331383955554], [77.0805258044, 28.561352973600002], [77.08053019666667, 28.561376492222223], [77.08053594040001, 28.561401939822222], [77.0805430356, 28.5614293164], [77.08055148226667, 28.561458621955552], [77.0805612804, 28.561489856488887], [77.08057243, 28.56152302], [77.08074348, 28.56212396], [77.08078534671111, 28.562213382800003], [77.0808247921778, 28.562297661866673], [77.08086181640002, 28.5623767972], [77.0808964193778, 28.562450788800003], [77.08092860111111, 28.56251963666667], [77.08095836160001, 28.562583340800003], [77.08098570084445, 28.562641901200003], [77.08101061884446, 28.562695317866662], [77.08103311560001, 28.562743590799997], [77.08105319111112, 28.56278672], [77.08107084537778, 28.562824705466667], [77.0810860784, 28.562857547200004], [77.08109889017778, 28.5628852452], [77.08110928071112, 28.562907799466668], [77.08111725, 28.56292521], [77.08112552337778, 28.56293994457778], [77.08113682617778, 28.562954470977775], [77.08115115840002, 28.562968789200006], [77.08116852004446, 28.56298289924445], [77.08118891111111, 28.562996801111108], [77.08121233160001, 28.563010494799997], [77.08123878151112, 28.563023980311108], [77.08126826084444, 28.563037257644446], [77.0813007696, 28.563050326800003], [77.08133630777778, 28.56306318777778], [77.08137487537778, 28.56307584057778], [77.08141647240001, 28.563088285200003], [77.08146109884446, 28.563100521644444], [77.08150875471111, 28.563112549911114], [77.08155944, 28.56312437], [77.07879135, 28.5638706]], [[77.08023653, 28.56318269], [77.08024423488888, 28.56318078475556], [77.08025092288891, 28.563177127688892], [77.080256594, 28.563171718800007], [77.08026124822224, 28.56316455808889], [77.08026488555555, 28.563155645555558], [77.080267506, 28.5631449812], [77.08026910955556, 28.563132565022222], [77.08026969622222, 28.563118397022222], [77.080269266, 28.5631024772], [77.08026781888888, 28.563084805555555], [77.0802653548889, 28.563065382088887], [77.080261874, 28.5630442068], [77.08025737622222, 28.56302127968889], [77.08025186155555, 28.562996600755557], [77.08024533, 28.56297017], [77.0802389952889, 28.562898160400003], [77.08023289515556, 28.562830512933335], [77.08022702960001, 28.562767227600002], [77.08022139862223, 28.562708304400005], [77.08021600222224, 28.562653743333332], [77.0802108404, 28.562603544399998], [77.08020591315555, 28.562557707600003], [77.0802012204889, 28.562516232933334], [77.0801967624, 28.5624791204], [77.0801925388889, 28.56244637], [77.08018854995555, 28.562417981733333], [77.08018479560002, 28.5623939556], [77.08018127582223, 28.562374291599998], [77.08017799062222, 28.562358989733337], [77.08017494, 28.56234805], [77.08016891336, 28.562327631549632], [77.08015993061335, 28.562294030663708], [77.08014843752001, 28.562249315040006], [77.08013487984002, 28.562195552376295], [77.08011970333335, 28.56213481037038], [77.08010335376002, 28.56206915672], [77.08008627688001, 28.56200065912296], [77.08006891845334, 28.56193138527704], [77.08005172424002, 28.56186340288], [77.08003514, 28.561798779629626], [77.08001961149334, 28.5617395832237], [77.08000558448, 28.56168788136], [77.07999350472001, 28.5616457417363], [77.07998381797334, 28.56161523205037], [77.07997697, 28.56159842], [77.07997217906669, 28.561589506755556], [77.07996484626668, 28.561575132355557], [77.0799549716, 28.561555296800005], [77.07994255506668, 28.56153000008889], [77.07992759666666, 28.561499242222222], [77.0799100964, 28.561463023199998], [77.07989005426666, 28.561421343022225], [77.07986747026666, 28.561374201688892], [77.07984234439999, 28.5613215992], [77.07981467666667, 28.561263535555554], [77.07978446706667, 28.561200010755556], [77.0797517156, 28.561131024800005], [77.07971642226667, 28.561056577688888], [77.07967858706667, 28.560976669422224], [77.07963821, 28.5608913], [77.07963105399999, 28.56087294017778], [77.07962366333334, 28.56085598871111], [77.079616038, 28.560840445600004], [77.07960817800002, 28.56082631084445], [77.07960008333336, 28.56081358444445], [77.079591754, 28.5608022664], [77.07958319, 28.56079235671111], [77.07957439133335, 28.560783855377775], [77.07956535800001, 28.5607767624], [77.07955609000001, 28.56077107777778], [77.07954658733334, 28.560766801511107], [77.07953685000001, 28.5607639336], [77.07952687800001, 28.56076247404444], [77.07951667133334, 28.560762422844444], [77.07950623, 28.56076378], [77.07949310853334, 28.560775893825188], [77.07948502386668, 28.560804425534815], [77.07948138160002, 28.560846936480008], [77.07948158733335, 28.560900988011852], [77.07948504666669, 28.56096414148149], [77.0794911652, 28.56103395824], [77.07949934853332, 28.56110799963852], [77.07950900226668, 28.56118382702815], [77.079519532, 28.561259001760003], [77.07953034333333, 28.561331085185184], [77.07954084186665, 28.56139763865481], [77.07955043320001, 28.561456223520004], [77.07955852293333, 28.561504401131852], [77.07956451666666, 28.56153973284148], [77.07956782, 28.56155978], [77.07957194074962, 28.561580423671117], [77.07958037106371, 28.561617457902226], [77.07959249304002, 28.56166831352001], [77.07960768877629, 28.561730421351115], [77.07962534037038, 28.561801212222225], [77.07964482992, 28.56187811696], [77.07966553952296, 28.561958566391112], [77.07968685127703, 28.562039991342225], [77.07970814728, 28.562119822640003], [77.07972880962963, 28.562195491111115], [77.0797482204237, 28.56226442758222], [77.07976576176, 28.562324062880002], [77.0797808157363, 28.562371827831115], [77.07979276445037, 28.562405153262226], [77.07980099, 28.56242147], [77.07980636635556, 28.562428752044447], [77.07981428475556, 28.562441323511113], [77.07982474520001, 28.562459184400005], [77.0798377476889, 28.562482334711113], [77.07985329222223, 28.562510774444444], [77.0798713788, 28.5625445036], [77.07989200742223, 28.562583522177782], [77.0799151780889, 28.562627830177778], [77.0799408908, 28.562677427599997], [77.07996914555557, 28.562732314444446], [77.07999994235556, 28.56279249071111], [77.0800332812, 28.562857956400002], [77.08006916208889, 28.562928711511113], [77.08010758502223, 28.563004756044446], [77.08014855, 28.56308609], [77.08015222386666, 28.563099501377778], [77.08015621080001, 28.56311191684445], [77.0801605108, 28.563123336400007], [77.08016512386666, 28.56313376004445], [77.08017005, 28.563143187777783], [77.08017528919999, 28.563151619600003], [77.08018084146666, 28.563159055511115], [77.08018670679999, 28.563165495511115], [77.08019288519999, 28.5631709396], [77.08019937666666, 28.563175387777783], [77.0802061812, 28.563178840044444], [77.0802132988, 28.563181296400003], [77.08022072946666, 28.563182756844444], [77.0802284732, 28.56318322137778], [77.08023653, 28.56318269]], [[77.07929156, 28.55998742], [77.0792977243111, 28.559985212844445], [77.07930318257779, 28.559981455377777], [77.07930793480001, 28.559976147600004], [77.07931198097778, 28.559969289511113], [77.07931532111112, 28.559960881111113], [77.0793179552, 28.559950922400002], [77.07931988324445, 28.559939413377773], [77.07932110524445, 28.559926354044443], [77.07932162120001, 28.559911744400004], [77.07932143111111, 28.559895584444448], [77.07932053497777, 28.559877874177776], [77.0793189328, 28.559858613600003], [77.07931662457779, 28.559837802711108], [77.07931361031112, 28.559815441511113], [77.07930989, 28.55979153], [77.07930157848891, 28.559714951911108], [77.07929375595556, 28.559643358977777], [77.0792864224, 28.559576751199998], [77.07927957782223, 28.559515128577782], [77.07927322222224, 28.559458491111112], [77.0792673556, 28.5594068388], [77.07926197795555, 28.559360171644443], [77.0792570892889, 28.559318489644447], [77.0792526896, 28.5592817928], [77.0792487788889, 28.559250081111113], [77.07924535715556, 28.559223354577778], [77.07924242440001, 28.559201613200003], [77.07923998062222, 28.55918485697778], [77.07923802582222, 28.559173085911112], [77.07923656, 28.5591663], [77.07922962877333, 28.559142286284448], [77.07921344778667, 28.559086391342227], [77.07918944008001, 28.55900351448001], [77.07915902869334, 28.558898555004454], [77.07912363666668, 28.558776412222226], [77.07908468704001, 28.558641985440005], [77.07904360285333, 28.558500173964447], [77.07900180714665, 28.558355877102226], [77.07896072296, 28.558213994160003], [77.07892177333333, 28.55807942444445], [77.07888638130666, 28.557957067262222], [77.07885596992, 28.557851821920003], [77.07883196221334, 28.557768587724446], [77.07881578122668, 28.55771226398222], [77.07880885, 28.55768775], [77.07880632515555, 28.557680475555557], [77.0788011932889, 28.55766795355555], [77.07879345440001, 28.557650184], [77.07878310848889, 28.557627166888892], [77.07877015555556, 28.557598902222228], [77.0787545956, 28.55756539], [77.07873642862222, 28.55752663022222], [77.07871565462221, 28.55748262288889], [77.0786922736, 28.557433368], [77.07866628555556, 28.557378865555556], [77.07863769048889, 28.557319115555558], [77.0786064884, 28.557254118], [77.0785726792889, 28.557183872888892], [77.07853626315556, 28.557108380222225], [77.07849724, 28.55702764], [77.07848788426668, 28.556999673688892], [77.07847855573333, 28.55697373475556], [77.07846925440002, 28.5569498232], [77.07845998026666, 28.556927939022227], [77.07845073333336, 28.55690808222223], [77.0784415136, 28.556890252800002], [77.07843232106666, 28.556874450755558], [77.07842315573333, 28.556860676088892], [77.0784140176, 28.5568489288], [77.07840490666666, 28.55683920888889], [77.07839582293333, 28.556831516355558], [77.0783867664, 28.556825851200003], [77.07837773706666, 28.556822213422222], [77.07836873493333, 28.556820603022224], [77.07835976, 28.55682102], [77.07835127386666, 28.55682332128889], [77.07834373813334, 28.556827363822226], [77.0783371528, 28.556833147600006], [77.07833151786667, 28.556840672622226], [77.07832683333334, 28.55684993888889], [77.07832309919999, 28.5568609464], [77.07832031546667, 28.556873695155556], [77.07831848213333, 28.556888185155557], [77.07831759919999, 28.556904416400002], [77.07831766666666, 28.55692238888889], [77.07831868453333, 28.556942102622223], [77.0783206528, 28.5569635576], [77.07832357146665, 28.556986753822223], [77.07832744053334, 28.55701169128889], [77.07833226, 28.55703837], [77.07833979631111, 28.55710881817778], [77.07834692524445, 28.55717490137778], [77.07835364680001, 28.557236619600005], [77.07835996097779, 28.55729397284445], [77.0783658677778, 28.55734696111111], [77.07837136720002, 28.557395584400002], [77.07837645924445, 28.557439842711112], [77.07838114391112, 28.557479736044446], [77.07838542120001, 28.5575152644], [77.07838929111114, 28.557546427777776], [77.07839275364447, 28.557573226177777], [77.07839580880001, 28.557595659600004], [77.07839845657779, 28.557613728044444], [77.0784006969778, 28.55762743151111], [77.07840253, 28.55763677], [77.0784101518489, 28.55766504570074], [77.07842716985779, 28.55772515453926], [77.07845214472002, 28.55781222112001], [77.0784836371289, 28.55792137004741], [77.0785202077778, 28.55804772592593], [77.07856041736001, 28.55818641336], [77.07860282656891, 28.55833255695407], [77.07864599609778, 28.55848128131259], [77.07868848664, 28.558627711040003], [77.07872885888891, 28.55876697074074], [77.07876567353779, 28.558894185019255], [77.07879749128001, 28.559004478480002], [77.0788228728089, 28.55909297572741], [77.07884037881779, 28.559154801365928], [77.07884857, 28.55918508], [77.07885190955557, 28.559195968444442], [77.07885785622223, 28.55921146044445], [77.07886641, 28.559231556], [77.0788775708889, 28.559256255111116], [77.07889133888891, 28.559285557777777], [77.078907714, 28.559319464], [77.07892669622223, 28.559357973777775], [77.07894828555555, 28.55940108711111], [77.078972482, 28.559448804], [77.07899928555555, 28.559501124444445], [77.07902869622222, 28.559558048444444], [77.079060714, 28.559619576], [77.07909533888889, 28.55968570711111], [77.0791325708889, 28.559756441777775], [77.07917241, 28.55983178], [77.07918168426666, 28.5598531768], [77.07919076840001, 28.5598729992], [77.07919966240001, 28.559891247200003], [77.07920836626667, 28.559907920800004], [77.07921688000002, 28.55992302], [77.0792252036, 28.559936544800003], [77.07923333706668, 28.5599484952], [77.0792412804, 28.5599588712], [77.07924903360001, 28.559967672800003], [77.07925659666668, 28.5599749], [77.07926396959999, 28.5599805528], [77.07927115240001, 28.559984631200003], [77.07927814506667, 28.559987135199997], [77.07928494760002, 28.559988064800002], [77.07929156, 28.55998742]], [[77.07813147, 28.55603432], [77.07813802742221, 28.556031016933336], [77.07814385168889, 28.556026115733335], [77.0781489428, 28.556019616400004], [77.07815330075557, 28.55601151893334], [77.07815692555556, 28.556001823333336], [77.0781598172, 28.5559905296], [77.07816197568889, 28.555977637733335], [77.07816340102221, 28.555963147733337], [77.0781640932, 28.5559470596], [77.07816405222223, 28.555929373333335], [77.07816327808888, 28.55591008893333], [77.07816177080001, 28.5558892064], [77.07815953035555, 28.55586672573333], [77.07815655675556, 28.555842646933332], [77.07815285, 28.55581697], [77.0781433604, 28.55574035613333], [77.07813444093333, 28.55566865586667], [77.07812609160001, 28.555601869200004], [77.07811831240001, 28.555539996133334], [77.07811110333336, 28.555483036666665], [77.0781044644, 28.555430990799998], [77.07809839560001, 28.555383858533336], [77.07809289693336, 28.55534163986667], [77.07808796840001, 28.5553043348], [77.07808361000002, 28.55527194333333], [77.07807982173335, 28.555244465466664], [77.07807660360001, 28.555221901200003], [77.0780739556, 28.555204250533336], [77.07807187773335, 28.555191513466667], [77.07807037, 28.55518369], [77.07806483385777, 28.555162774097784], [77.07805256326223, 28.55511847344889], [77.07803456296001, 28.555054308640003], [77.07801183769779, 28.55497380025778], [77.07798539222223, 28.554880468888896], [77.07795623128, 28.55477783512], [77.07792535961777, 28.554669419537777], [77.07789378198221, 28.55455874272889], [77.07786250311999, 28.554449325280004], [77.07783252777777, 28.55434468777778], [77.0778048607022, 28.55424835080889], [77.07778050664, 28.55416383496], [77.07776047033778, 28.554094660817775], [77.07774575654221, 28.55404434896889], [77.07773737, 28.55401642], [77.07773283506667, 28.5540037184], [77.0777257476, 28.553986365600004], [77.0777161076, 28.553964361600002], [77.07770391506668, 28.5539377064], [77.07768917000001, 28.5539064], [77.0776718724, 28.553870442399997], [77.07765202226668, 28.5538298336], [77.07762961959999, 28.553784573599998], [77.0776046644, 28.5537346624], [77.07757715666666, 28.5536801], [77.0775470964, 28.553620886399997], [77.0775144836, 28.5535570216], [77.07747931826667, 28.553488505599997], [77.07744160040001, 28.5534153384], [77.07740133, 28.55333752], [77.0773885545778, 28.553316112533334], [77.0773762949778, 28.55329625546667], [77.0773645512, 28.5532779488], [77.07735332324445, 28.553261192533334], [77.07734261111112, 28.553245986666667], [77.07733241480001, 28.5532323312], [77.07732273431111, 28.553220226133334], [77.07731356964445, 28.55320967146666], [77.0773049208, 28.553200667199995], [77.07729678777778, 28.553193213333333], [77.07728917057779, 28.553187309866665], [77.07728206920001, 28.5531829568], [77.07727548364446, 28.553180154133333], [77.07726941391113, 28.553178901866666], [77.07726386, 28.5531792], [77.07725887631112, 28.553181167777776], [77.07725451724444, 28.553184924444448], [77.07725078280001, 28.55319047], [77.07724767297779, 28.553197804444448], [77.07724518777778, 28.55320692777778], [77.0772433272, 28.55321784], [77.07724209124446, 28.55323054111111], [77.07724147991111, 28.55324503111111], [77.0772414932, 28.55326131], [77.07724213111112, 28.553279377777777], [77.07724339364444, 28.553299234444445], [77.0772452808, 28.55332088], [77.07724779257778, 28.553344314444445], [77.07725092897779, 28.55336953777778], [77.07725469, 28.55339655], [77.07726065128891, 28.55346702328889], [77.07726631382222, 28.553533179155558], [77.07727167760001, 28.553595017600003], [77.07727674262225, 28.553652538622224], [77.0772815088889, 28.553705742222224], [77.07728597639999, 28.5537546284], [77.07729014515556, 28.553799197155556], [77.07729401515556, 28.55383944848889], [77.0772975864, 28.5538753824], [77.07730085888889, 28.55390699888889], [77.07730383262222, 28.553934297955557], [77.0773065076, 28.553957279600002], [77.07730888382221, 28.553975943822223], [77.07731096128889, 28.553990290622224], [77.07731274, 28.55400032], [77.07731923548148, 28.554025629502224], [77.07733309531852, 28.554075430417782], [77.0773532116, 28.554145949360006], [77.07737847641482, 28.55423341294223], [77.07740778185187, 28.554334047777783], [77.07744002, 28.55444408048], [77.07747408294813, 28.55455973766222], [77.07750886278518, 28.554677245937782], [77.0775432516, 28.554792831920004], [77.07757614148149, 28.554902722222227], [77.0776064245185, 28.555003143457775], [77.0776329928, 28.555090322240005], [77.07765473841482, 28.555160485182224], [77.07767055345185, 28.555209858897776], [77.07767933, 28.55523467], [77.07768381066667, 28.55524461755556], [77.07769073533332, 28.55525943088889], [77.077700104, 28.55527911], [77.07771191666667, 28.555303654888892], [77.07772617333333, 28.555333065555555], [77.077742874, 28.555367342], [77.07776201866666, 28.55540648422222], [77.07778360733334, 28.55545049222222], [77.07780764, 28.555499366], [77.07783411666666, 28.555553105555553], [77.07786303733333, 28.55561171088889], [77.077894402, 28.555675182], [77.07792821066667, 28.55574351888889], [77.07796446333333, 28.55581672155556], [77.07800316, 28.55589479], [77.07801323533333, 28.55591511093333], [77.07802309333334, 28.555933857733336], [77.078032734, 28.5559510304], [77.07804215733334, 28.555966628933337], [77.07805136333333, 28.555980653333336], [77.078060352, 28.5559931036], [77.07806912333334, 28.55600397973333], [77.07807767733334, 28.55601328173333], [77.078086014, 28.556021009600002], [77.07809413333334, 28.556027163333333], [77.07810203533333, 28.55603174293333], [77.07810972000001, 28.556034748400002], [77.07811718733333, 28.55603617973333], [77.07812443733334, 28.55603603693333], [77.07813147, 28.55603432]], [[77.0770351, 28.5523553], [77.07704243137778, 28.552352867955555], [77.07704894817778, 28.552349147822223], [77.0770546504, 28.552344139600002], [77.07705953804445, 28.552337843288893], [77.07706361111113, 28.552330258888894], [77.0770668696, 28.5523213864], [77.07706931351112, 28.552311225822223], [77.07707094284444, 28.552299777155557], [77.07707175760001, 28.552287040400003], [77.07707175777779, 28.552273015555556], [77.07707094337778, 28.552257702622224], [77.0770693144, 28.552241101600004], [77.07706687084445, 28.55222321248889], [77.07706361271111, 28.552204035288888], [77.07705954, 28.55218357], [77.07701677, 28.55201451], [77.07698622, 28.55192596], [77.07697885959999, 28.551913222266666], [77.07697144506666, 28.5519014864], [77.0769639764, 28.551890752400002], [77.0769564536, 28.55188102026667], [77.07694887666668, 28.55187229], [77.07694124560001, 28.551864561599995], [77.07693356040001, 28.551857835066663], [77.07692582106667, 28.5518521104], [77.0769180276, 28.5518473876], [77.07691018000001, 28.551843666666663], [77.07690227826666, 28.5518409476], [77.07689432240001, 28.5518392304], [77.0768863124, 28.551838515066667], [77.07687824826667, 28.5518388016], [77.07687013, 28.55184009], [77.07686241911112, 28.551842380222222], [77.07685557711112, 28.551845672222225], [77.076849604, 28.551849966], [77.07684449977779, 28.551855261555556], [77.07684026444446, 28.551861558888888], [77.076836898, 28.551868858], [77.07683440044444, 28.551877158888892], [77.07683277177779, 28.551886461555554], [77.07683201200001, 28.551896766], [77.07683212111111, 28.551908072222226], [77.07683309911111, 28.55192038022222], [77.076834946, 28.55193369], [77.07683766177779, 28.551948001555555], [77.07684124644445, 28.55196331488889], [77.0768457, 28.55197963], [77.0768508724889, 28.552001596311108], [77.07685580062223, 28.552022417911115], [77.07686048440002, 28.552042094800004], [77.07686492382223, 28.55206062697778], [77.0768691188889, 28.552078014444447], [77.07687306960001, 28.5520942572], [77.07687677595557, 28.552109355244447], [77.07688023795555, 28.552123308577777], [77.07688345560001, 28.552136117200003], [77.07688642888888, 28.55214778111111], [77.07688915782222, 28.55215830031111], [77.07689164240001, 28.552167674800003], [77.07689388262223, 28.55217590457778], [77.0768958784889, 28.552182989644447], [77.07689763, 28.55218893], [77.07690078818965, 28.552198230743702], [77.07690529871707, 28.55220973008296], [77.07691104752003, 28.552222979680003], [77.07691792053632, 28.55223753119704], [77.07692580370372, 28.5522529362963], [77.07693458296, 28.55226874664], [77.07694414424296, 28.552284513890367], [77.07695437349037, 28.55229978970963], [77.07696515664, 28.55231412576], [77.07697637962964, 28.5523270737037], [77.07698792839703, 28.552338185202963], [77.07699968888001, 28.55234701192], [77.07701154701631, 28.552353105517035], [77.07702338874371, 28.552356017656294], [77.0770351, 28.5523553]], [[77.07759192, 28.55085939], [77.07759814201779, 28.55087124544889], [77.07761016387556, 28.550880166657787], [77.07762718728003, 28.550886439920006], [77.07764841393781, 28.550890351528896], [77.07767304555558, 28.550892187777784], [77.07770028384, 28.550892234960003], [77.07772933049776, 28.55089077936889], [77.07775938723555, 28.550888107297776], [77.07778965576001, 28.550884505040003], [77.0778193377778, 28.550880258888895], [77.07784763499556, 28.55087565513778], [77.07787374912002, 28.55087098008], [77.07789688185778, 28.55086652000889], [77.07791623491556, 28.55086256121778], [77.07793101, 28.55085939], [77.07794643946963, 28.55085559700148], [77.07796760362372, 28.55084971881185], [77.07799347608002, 28.550841960640007], [77.07802303045631, 28.55083252769482], [77.0780552403704, 28.55082162518519], [77.07808907944, 28.550809458320003], [77.07812352128296, 28.55079623230815], [77.07815753951704, 28.55078215235852], [77.07819010776001, 28.55076742368], [77.07822019962964, 28.550752251481487], [77.07824678874371, 28.550736840971854], [77.07826884872, 28.550721397360004], [77.07828535317631, 28.550706125854816], [77.07829527573037, 28.550691231665187], [77.07829759, 28.55067692], [77.07829212193484, 28.550664632604448], [77.07827999001186, 28.550655464568894], [77.07826210664003, 28.550649101120005], [77.07823938422816, 28.550645227484445], [77.0782127351852, 28.550643528888894], [77.07818307192001, 28.55064369056], [77.07815130684148, 28.550645397724438], [77.07811835235853, 28.550648335608887], [77.07808512088, 28.55065218944], [77.07805252481482, 28.550656644444445], [77.07802147657185, 28.550661385848887], [77.07799288856, 28.550666098880004], [77.07796767318814, 28.550670468764444], [77.07794674286518, 28.55067418072889], [77.07793101, 28.55067692], [77.07791532323556, 28.550680281051857], [77.07789455295111, 28.550685912414824], [77.07786964416002, 28.550693580400008], [77.07784154187557, 28.550703051318525], [77.07781119111112, 28.550714091481485], [77.07777953688002, 28.5507264672], [77.07774752419556, 28.550739944785185], [77.07771609807111, 28.55075429054815], [77.07768620352, 28.550769270800004], [77.07765878555557, 28.55078465185185], [77.07763478919111, 28.55080020001481], [77.07761515944, 28.5508156816], [77.07760084131556, 28.550830862918517], [77.07759277983112, 28.550845510281484], [77.07759192, 28.55085939]], [[77.07571592, 28.55128271], [77.07570162453037, 28.551265328047407], [77.07567339277628, 28.551252492245926], [77.07563310072001, 28.55124375568], [77.07558262434371, 28.551238671434078], [77.07552383962964, 28.551236792592597], [77.07545862256, 28.551237672239996], [77.07538884911705, 28.551240863460738], [77.07531639528295, 28.55124591933926], [77.07524313704002, 28.55125239296], [77.07517095037039, 28.55125983740741], [77.07510171125631, 28.551267805765924], [77.07503729568002, 28.55127585112], [77.07497957962372, 28.551283526554073], [77.07493043906963, 28.551290385152594], [77.07489175, 28.55129598], [77.0748531843289, 28.551302091087408], [77.07480425156446, 28.551310568165928], [77.07474658408, 28.551321068960007], [77.0746818142489, 28.551333251194084], [77.07461157444446, 28.551346772592602], [77.07453749704, 28.55136129088], [77.0744612144089, 28.55137646378074], [77.07438435892445, 28.551391949019262], [77.07430856296001, 28.551407404320006], [77.0742354588889, 28.55142248740741], [77.07416667908444, 28.551436856005928], [77.07410385592, 28.551450167840006], [77.0740486217689, 28.551462080634078], [77.07400260900444, 28.551472252112596], [77.07396745, 28.55148034], [77.07394616697779, 28.551485899644447], [77.07392123524444, 28.551493335911115], [77.07389265480002, 28.5515026488], [77.07386042564445, 28.551513838311113], [77.07382454777779, 28.55152690444445], [77.07378502120001, 28.5515418472], [77.07374184591112, 28.551558666577773], [77.0736950219111, 28.551577362577774], [77.0736445492, 28.5515979352], [77.07359042777779, 28.551620384444444], [77.07353265764445, 28.55164471031111], [77.07347123880001, 28.5516709128], [77.07340617124444, 28.55169899191111], [77.07333745497779, 28.551728947644442], [77.07326509, 28.55176078], [77.0732393044, 28.5517694248], [77.07321546493336, 28.55177828453333], [77.07319357160002, 28.551787359200002], [77.0731736244, 28.551796648800003], [77.07315562333335, 28.551806153333338], [77.07313956840001, 28.5518158728], [77.0731254596, 28.5518258072], [77.07311329693333, 28.55183595653334], [77.0731030804, 28.551846320800003], [77.07309481000001, 28.5518569], [77.07308848573334, 28.551867694133335], [77.07308410760001, 28.551878703200003], [77.07308167560001, 28.5518899272], [77.07308118973334, 28.551901366133333], [77.07308265, 28.55191302], [77.07308669191112, 28.55192408071111], [77.07309395097778, 28.551933740177777], [77.07310442720002, 28.551941998400004], [77.07311812057779, 28.55194885537778], [77.07313503111112, 28.551954311111114], [77.0731551588, 28.551958365599997], [77.07317850364444, 28.551961018844445], [77.07320506564444, 28.55196227084444], [77.0732348448, 28.5519621216], [77.07326784111112, 28.55196057111111], [77.07330405457778, 28.551957619377774], [77.0733434852, 28.551953266399998], [77.07338613297777, 28.551947512177776], [77.0734319979111, 28.55194035671111], [77.07348108, 28.5519318], [77.07353493022222, 28.551925141733335], [77.07358624088889, 28.5519187216], [77.07363501200001, 28.5519125396], [77.07368124355555, 28.55190659573334], [77.07372493555556, 28.55190089], [77.07376608800001, 28.551895422399998], [77.07380470088889, 28.55189019293333], [77.07384077422223, 28.5518852016], [77.073874308, 28.5518804484], [77.07390530222223, 28.551875933333335], [77.07393375688889, 28.551871656399996], [77.073959672, 28.5518676176], [77.07398304755556, 28.551863816933334], [77.07400388355555, 28.5518602544], [77.07402218, 28.55185693], [77.07405414678519, 28.551850519368887], [77.07409775641482, 28.55184118841778], [77.0741511928, 28.55182936456001], [77.07421263985185, 28.551815475208898], [77.07428028148149, 28.551799947777784], [77.0743523016, 28.551783209680003], [77.07442688411851, 28.55176568832889], [77.07450221294815, 28.551747811137783], [77.074576472, 28.551730005520003], [77.07464784518518, 28.551712698888892], [77.0747145164148, 28.55169631865778], [77.0747746696, 28.55168129224], [77.07482648865185, 28.551668047048892], [77.07486815748148, 28.55165701049778], [77.07489786, 28.55164861], [77.07492883456592, 28.551639134900746], [77.07497388292741, 28.551624981472592], [77.07503053408, 28.551606737520007], [77.07509631701927, 28.551584990847413], [77.07516876074075, 28.551560329259264], [77.07524539424, 28.551533340560006], [77.0753237465126, 28.551504612554073], [77.07540134655406, 28.55147473304593], [77.07547572336, 28.551444289840003], [77.07554440592592, 28.551413870740745], [77.0756049232474, 28.55138406355259], [77.07565480432, 28.55135545608], [77.07569157813926, 28.55132863612741], [77.07571277370073, 28.55130419149926], [77.07571592, 28.55128271]]]}}, {"type": "Feature", "properties": {"name": "New Taxiway 3", "surface_type": "ASPHALT", "smoothness": 0.0, "texture_orientation": 0.0}, "geometry": {"type": "Polygon", "coordinates": [[[77.11816433, 28.55746943], [77.11826817666666, 28.557436711111116], [77.11836438333333, 28.557404637111112], [77.11845295, 28.557373208], [77.11853387666667, 28.557342423777783], [77.11860716333334, 28.557312284444443], [77.11867281, 28.55728279], [77.11873081666667, 28.557253940444447], [77.11878118333333, 28.557225735777777], [77.11882391, 28.557198176], [77.11885899666666, 28.55717126111111], [77.11888644333334, 28.557144991111112], [77.11890625, 28.557119366], [77.11891841666666, 28.55709438577778], [77.11892294333333, 28.557070050444445], [77.11891983, 28.55704636], [77.11890544198815, 28.55701497921778], [77.11888374937185, 28.55699048600889], [77.11885575928001, 28.55697219808001], [77.1188224788415, 28.55695943313778], [77.1187849151852, 28.556951508888897], [77.11874407543999, 28.556947743040002], [77.1187009667348, 28.55694745329778], [77.1186565961985, 28.55694995736889], [77.11861197095999, 28.556954572960002], [77.11856809814815, 28.556960617777783], [77.11852598489183, 28.556967409528887], [77.11848663832001, 28.556974265920005], [77.11845106556147, 28.55698050465778], [77.11842027374519, 28.556985443448895], [77.11839527, 28.5569884], [77.11837983026666, 28.55698980337778], [77.11836254306667, 28.556991696177782], [77.1183434084, 28.556994078400002], [77.11832242626666, 28.55699695004445], [77.11829959666667, 28.557000311111114], [77.1182749196, 28.5570041616], [77.11824839506667, 28.557008501511113], [77.11822002306667, 28.55701333084444], [77.11818980359999, 28.5570186496], [77.11815773666667, 28.55702445777778], [77.11812382226665, 28.557030755377774], [77.1180880604, 28.5570375424], [77.11805045106667, 28.557044818844446], [77.11801099426667, 28.557052584711112], [77.11796969, 28.55706084], [77.11736595, 28.55718835], [77.11725370897778, 28.557216116444447], [77.11714835924445, 28.557242234444445], [77.11704990080003, 28.557266704], [77.11695833364446, 28.557289525111113], [77.1168736577778, 28.55731069777778], [77.11679587320002, 28.557330222], [77.11672497991113, 28.55734809777778], [77.11666097791112, 28.557364325111113], [77.11660386720001, 28.557378904], [77.11655364777779, 28.557391834444445], [77.11651031964445, 28.557403116444444], [77.11647388280002, 28.55741275], [77.11644433724445, 28.55742073511111], [77.11642168297779, 28.557427071777777], [77.11640592, 28.55743176], [77.11639256164443, 28.55743603608889], [77.11637712124444, 28.557441136355553], [77.1163595988, 28.557447060800005], [77.1163399943111, 28.557453809422224], [77.11631830777777, 28.557461382222222], [77.1162945392, 28.557469779200005], [77.11626868857778, 28.557479000355556], [77.11624075591111, 28.55748904568889], [77.1162107412, 28.5574999152], [77.11617864444443, 28.557511608888888], [77.11614446564445, 28.557524126755553], [77.11610820480001, 28.557537468800003], [77.11606986191111, 28.55755163502222], [77.11602943697778, 28.557566625422222], [77.11598693, 28.55758244], [77.11594835226667, 28.55759132764445], [77.11591267773335, 28.557600987911112], [77.1158799064, 28.557611420800008], [77.11585003826667, 28.557622626311115], [77.11582307333335, 28.557634604444452], [77.11579901159999, 28.557647355200004], [77.11577785306666, 28.55766087857778], [77.11575959773333, 28.55767517457778], [77.1157442456, 28.557690243200003], [77.11573179666667, 28.557706084444447], [77.11572225093333, 28.55772269831111], [77.1157156084, 28.557740084800002], [77.11571186906666, 28.557758243911113], [77.11571103293333, 28.557777175644446], [77.1157131, 28.55779688], [77.11571881808888, 28.557815888844445], [77.11572893502222, 28.557832734044446], [77.1157434508, 28.5578474156], [77.11576236542223, 28.557859933511114], [77.1157856788889, 28.557870287777774], [77.11581339119999, 28.5578784784], [77.11584550235555, 28.557884505377775], [77.11588201235554, 28.55788836871111], [77.1159229212, 28.5578900684], [77.1159682288889, 28.55788960444444], [77.1160179354222, 28.557886976844443], [77.11607204079999, 28.5578821856], [77.11613054502222, 28.55787523071111], [77.11619344808888, 28.557866112177777], [77.11626075, 28.55785483], [77.11648193, 28.5578488], [77.11301772, 28.55864882], [77.11307509511111, 28.55862850853333], [77.11312933244444, 28.558609304800004], [77.113180432, 28.558591208800003], [77.11322839377779, 28.55857422053334], [77.11327321777779, 28.55855834], [77.113314904, 28.5585435672], [77.11335345244444, 28.55852990213333], [77.1133888631111, 28.558517344800002], [77.113421136, 28.5585058952], [77.1134502711111, 28.55849555333333], [77.11347626844443, 28.5584863192], [77.113499128, 28.558478192800003], [77.11351884977776, 28.55847117413333], [77.11353543377778, 28.5584652632], [77.11354888, 28.55846046], [77.1135698150785, 28.558453148773335], [77.11359626889482, 28.558444021120003], [77.11362716232001, 28.55843316408], [77.11366141622521, 28.558420664693337], [77.1136979514815, 28.55840661], [77.11373568896, 28.55839108704], [77.11377354953184, 28.558374182853328], [77.11381045406814, 28.558355984480002], [77.11384532344002, 28.558336578960002], [77.11387707851853, 28.558316053333336], [77.11390464017481, 28.558294494639995], [77.11392692928001, 28.55827198992], [77.11394286670517, 28.558248626213334], [77.11395137332147, 28.55822449056], [77.11395137, 28.55819967], [77.11394144198815, 28.55817732979556], [77.11392182457188, 28.55816020249778], [77.11389391368002, 28.55814772608001], [77.1138591052415, 28.558139338515563], [77.1138187951852, 28.558134477777784], [77.11377437944002, 28.558132581840002], [77.11372725393481, 28.558133088675557], [77.11367881459852, 28.558135436257782], [77.11363045736002, 28.558139062560002], [77.11358357814817, 28.558143405555555], [77.11353957289185, 28.558147903217773], [77.11349983752001, 28.558151993520003], [77.11346576796149, 28.558155114435554], [77.11343876014519, 28.55815670393778], [77.11342021, 28.5581562], [77.11340952106666, 28.558155389022218], [77.11339592893333, 28.558155273422223], [77.1133794336, 28.5581558532], [77.11336003506668, 28.55815712835556], [77.11333773333334, 28.55815909888889], [77.1133125284, 28.5581617648], [77.11328442026667, 28.55816512608889], [77.11325340893333, 28.558169182755556], [77.1132194944, 28.5581739348], [77.11318267666667, 28.55817938222222], [77.11314295573334, 28.558185525022225], [77.11310033160001, 28.558192363200003], [77.11305480426667, 28.558199896755553], [77.11300637373334, 28.55820812568889], [77.11295504, 28.55821705], [77.11210716, 28.5584112], [77.11206307026667, 28.558422521511112], [77.1120214144, 28.55843330204445], [77.1119821924, 28.558443541600003], [77.11194540426668, 28.558453240177776], [77.11191105000002, 28.55846239777778], [77.11187912960001, 28.5584710144], [77.11184964306668, 28.558479090044443], [77.11182259040001, 28.55848662471111], [77.11179797160001, 28.558493618399993], [77.11177578666667, 28.558500071111112], [77.11175603560001, 28.55850598284444], [77.1117387184, 28.5585113536], [77.11172383506667, 28.558516183377776], [77.1117113856, 28.558520472177776], [77.11170137, 28.55852422], [77.11169191155557, 28.5585280064], [77.11168113355556, 28.55853241093333], [77.111669036, 28.558537433600005], [77.1116556188889, 28.558543074400006], [77.11164088222225, 28.558549333333335], [77.111624826, 28.5585562104], [77.11160745022222, 28.5585637056], [77.11158875488888, 28.558571818933334], [77.11156874, 28.558580550400002], [77.11154740555557, 28.5585899], [77.11152475155555, 28.558599867733335], [77.111500778, 28.5586104536], [77.1114754848889, 28.5586216576], [77.11144887222223, 28.558633479733334], [77.11142094, 28.55864592], [77.11138919564445, 28.558656880311112], [77.1113599439111, 28.55866812391111], [77.1113331848, 28.558679650800002], [77.11130891831111, 28.558691460977776], [77.11128714444445, 28.558703554444445], [77.1112678632, 28.558715931200002], [77.11125107457778, 28.558728591244446], [77.11123677857776, 28.558741534577777], [77.1112249752, 28.5587547612], [77.11121566444443, 28.558768271111113], [77.1112088463111, 28.55878206431111], [77.11120452079999, 28.5587961408], [77.1112026879111, 28.558810500577778], [77.11120334764445, 28.558825143644444], [77.1112065, 28.55884007], [77.11121215964444, 28.5588544812], [77.11122034124445, 28.558867578799997], [77.1112310448, 28.558879362800006], [77.11124427031113, 28.558889833200002], [77.11126001777778, 28.55889899], [77.1112782872, 28.5589068332], [77.11129907857779, 28.5589133628], [77.11132239191112, 28.558918578799997], [77.1113482272, 28.5589224812], [77.11137658444446, 28.55892507], [77.11140746364444, 28.5589263452], [77.1114408648, 28.5589263068], [77.11147678791112, 28.5589249548], [77.11151523297778, 28.558922289199998], [77.1115562, 28.55891831], [77.11183993, 28.55891252], [77.10990309, 28.55935492], [77.10994147853334, 28.559342399644446], [77.10997788946668, 28.559330243911113], [77.1100123228, 28.559318452800007], [77.11004477853335, 28.559307026311114], [77.11007525666669, 28.559295964444452], [77.1101037572, 28.559285267199996], [77.11013028013333, 28.55927493457778], [77.11015482546667, 28.55926496657778], [77.1101773932, 28.559255363200002], [77.11019798333334, 28.559246124444442], [77.11021659586666, 28.55923725031111], [77.11023323079999, 28.559228740800002], [77.11024788813333, 28.559220595911107], [77.11026056786666, 28.559212815644443], [77.11027127, 28.5592054], [77.11028568885037, 28.559193978379255], [77.11029979226964, 28.559181500900742], [77.11031356056002, 28.559168098640008], [77.11032697402372, 28.559153902672602], [77.11034001296298, 28.55913904407408], [77.11035265768, 28.559123653920004], [77.11036488847704, 28.559107863285924], [77.1103766856563, 28.55909180324741], [77.11038802952001, 28.55907560488], [77.11039890037038, 28.55905939925926], [77.11040927850962, 28.559043317460738], [77.11041914424001, 28.559027490560005], [77.1104284778637, 28.559012049632592], [77.11043725968297, 28.558997125754075], [77.11044547, 28.55898285], [77.11045041435555, 28.55897286702222], [77.1104546900889, 28.558961462088895], [77.11045829720001, 28.558948635200007], [77.1104612356889, 28.55893438635556], [77.11046350555557, 28.558918715555553], [77.1104651068, 28.5589016228], [77.11046603942222, 28.558883108088892], [77.11046630342223, 28.55886317142222], [77.1104658988, 28.5588418128], [77.11046482555557, 28.558819032222225], [77.1104630836889, 28.558794829688892], [77.11046067320001, 28.5587692052], [77.1104575940889, 28.558742158755557], [77.11045384635557, 28.558713690355557], [77.11044943, 28.5586838], [77.1100377, 28.55732417], [77.11002423991111, 28.557298839644446], [77.11001130764446, 28.557274776577778], [77.10999890320001, 28.557251980800004], [77.10998702657778, 28.557230452311114], [77.10997567777778, 28.557210191111118], [77.10996485679999, 28.5571911972], [77.10995456364445, 28.55717347057778], [77.1099447983111, 28.55715701124445], [77.1099355608, 28.557141819200005], [77.10992685111111, 28.55712789444445], [77.10991866924445, 28.55711523697778], [77.1099110152, 28.557103846800004], [77.10990388897777, 28.557093723911116], [77.10989729057778, 28.557084868311115], [77.10989122, 28.55707728], [77.10988436475554, 28.557070449955557], [77.10987541235556, 28.557063869155556], [77.10986436280001, 28.557057537600006], [77.1098512160889, 28.557051455288896], [77.10983597222223, 28.557045622222226], [77.1098186312, 28.557040038399997], [77.10979919302221, 28.557034703822225], [77.10977765768888, 28.55702961848889], [77.1097540252, 28.5570247824], [77.10972829555556, 28.55702019555556], [77.10970046875555, 28.557015857955555], [77.10967054480001, 28.557011769600003], [77.10963852368889, 28.55700793048889], [77.10960440542223, 28.55700434062222], [77.10956819, 28.557001], [77.10954599, 28.55685532], [77.11052069, 28.55660784], [77.1105682, 28.55676084], [77.11055326151111, 28.556770964], [77.11053906204444, 28.556780933333332], [77.11052560160002, 28.556790748], [77.11051288017781, 28.556800408], [77.11050089777778, 28.556809913333332], [77.11048965440001, 28.556819264], [77.11047915004445, 28.55682846], [77.11046938471111, 28.556837501333334], [77.1104603584, 28.556846388], [77.11045207111113, 28.55685512], [77.11044452284445, 28.556863697333334], [77.1104377136, 28.55687212], [77.11043164337778, 28.556880388], [77.1104263121778, 28.556888501333333], [77.11042172, 28.55689646], [77.11041774364445, 28.556904665911112], [77.11041425991112, 28.556913520977783], [77.11041126880002, 28.556923025200007], [77.11040877031112, 28.556933178577783], [77.11040676444445, 28.556943981111118], [77.1104052512, 28.556955432800002], [77.11040423057779, 28.556967533644446], [77.11040370257778, 28.556980283644442], [77.1104036672, 28.5569936828], [77.11040412444444, 28.55700773111111], [77.11040507431112, 28.557022428577778], [77.11040651680001, 28.5570377752], [77.11040845191113, 28.55705377097778], [77.11041087964446, 28.557070415911113], [77.1104138, 28.55708771], [77.11071071, 28.55805788], [77.11072110897778, 28.55807951648889], [77.11073119124445, 28.558099916622222], [77.11074095680002, 28.5581190804], [77.11075040564445, 28.55813700782223], [77.1107595377778, 28.55815369888889], [77.1107683532, 28.5581691536], [77.11077685191111, 28.558183371955558], [77.11078503391111, 28.55819635395556], [77.11079289919999, 28.558208099599998], [77.11080044777776, 28.558218608888886], [77.11080767964444, 28.558227881822223], [77.11081459479999, 28.5582359184], [77.11082119324443, 28.55824271862222], [77.11082747497778, 28.55824828248889], [77.11083344, 28.55825261], [77.11083965133332, 28.55825608751111], [77.110846672, 28.55825910137778], [77.110854502, 28.558261651600002], [77.11086314133333, 28.558263738177782], [77.11087259000001, 28.55826536111111], [77.11088284799999, 28.5582665204], [77.11089391533334, 28.558267216044445], [77.110905792, 28.558267448044447], [77.110918478, 28.5582672164], [77.11093197333334, 28.558266521111108], [77.110946278, 28.558265362177778], [77.110961392, 28.5582637396], [77.11097731533333, 28.55826165337778], [77.110994048, 28.558259103511112], [77.11101159, 28.55825609], [77.11129267, 28.5581935], [77.11335924, 28.55767468], [77.11340290897778, 28.557659159511115], [77.11344418524445, 28.55764394204445], [77.1134830688, 28.557629027600004], [77.11351955964444, 28.55761441617778], [77.11355365777777, 28.55760010777778], [77.11358536319999, 28.557586102399995], [77.1136146759111, 28.557572400044442], [77.1136415959111, 28.55755900071111], [77.1136661232, 28.557545904399994], [77.11368825777777, 28.557533111111113], [77.11370799964445, 28.557520620844443], [77.11372534879999, 28.5575084336], [77.11374030524443, 28.557496549377777], [77.11375286897777, 28.557484968177775], [77.11376304, 28.55747369], [77.1137716451111, 28.557462037822223], [77.1137795111111, 28.557449334622223], [77.113786638, 28.557435580400007], [77.1137930257778, 28.55742077515556], [77.11379867444445, 28.557404918888892], [77.113803584, 28.557388011599997], [77.11380775444445, 28.557370053288885], [77.11381118577778, 28.557351043955556], [77.113813878, 28.5573309836], [77.11381583111111, 28.557309872222223], [77.1138170451111, 28.557287709822223], [77.11381752, 28.557264496400002], [77.11381725577778, 28.557240231955554], [77.11381625244444, 28.55721491648889], [77.11381451, 28.55718855], [77.11363241, 28.5563992], [77.11407185, 28.55629141], [77.11437668, 28.55708076], [77.1143954891111, 28.557106259422227], [77.11441391111111, 28.557129904355563], [77.11443194600001, 28.557151694800005], [77.11444959377779, 28.557171630755562], [77.11446685444446, 28.55718971222223], [77.114483728, 28.557205939200003], [77.11450021444445, 28.55722031168889], [77.11451631377778, 28.557232829688893], [77.114532026, 28.557243493200005], [77.11454735111111, 28.557252302222224], [77.11456228911112, 28.557259256755557], [77.11457684000001, 28.557264356800005], [77.11459100377778, 28.55726760235556], [77.11460478044444, 28.557268993422223], [77.11461817, 28.55726853], [77.11463092613334, 28.5572659184], [77.11464280253333, 28.557260864933333], [77.1146537992, 28.557253369599998], [77.11466391613334, 28.5572434324], [77.11467315333334, 28.557231053333336], [77.1146815108, 28.557216232400002], [77.11468898853333, 28.5571989696], [77.11469558653333, 28.557179264933332], [77.1147013048, 28.5571571184], [77.11470614333334, 28.55713253], [77.11471010213333, 28.557105499733332], [77.1147131812, 28.5570760276], [77.11471538053333, 28.5570441136], [77.11471670013333, 28.557009757733333], [77.11471714, 28.55697296], [77.11452316, 28.55616275], [77.11494898, 28.55606315], [77.11525884, 28.55683097], [77.11527643608888, 28.55685463], [77.11529315235555, 28.55687692466667], [77.1153089888, 28.556897854], [77.11532394542222, 28.556917418], [77.11533802222222, 28.556935616666667], [77.1153512192, 28.55695245], [77.11536353635555, 28.556967918], [77.11537497368889, 28.556982020666666], [77.11538553119999, 28.556994758], [77.11539520888888, 28.55700613], [77.11540400675554, 28.557016136666665], [77.11541192479999, 28.557024778], [77.11541896302221, 28.557032054], [77.1154251214222, 28.557037964666666], [77.1154304, 28.55704251], [77.1154388435348, 28.55704826559111], [77.11544947441186, 28.557053944328892], [77.11546201704, 28.557059546160005], [77.11547619582817, 28.55706507103112], [77.1154917351852, 28.557070518888892], [77.11550835951999, 28.55707588968], [77.11552579324147, 28.55708118335111], [77.11554376075853, 28.557086399848888], [77.11556198648, 28.55709153912], [77.11558019481481, 28.557096601111116], [77.11559811017185, 28.55710158576889], [77.11561545696, 28.557106493040003], [77.11563195958814, 28.557111322871116], [77.11564734246518, 28.55711607520889], [77.11566133, 28.55712075], [77.11567078844445, 28.557123544444448], [77.11568156644444, 28.557125746444445], [77.115693664, 28.557127356], [77.11570708111111, 28.557128373111116], [77.1157218177778, 28.55712879777778], [77.115737874, 28.55712863], [77.11575524977778, 28.55712786977778], [77.11577394511112, 28.55712651711111], [77.11579396, 28.557124572], [77.11581529444445, 28.557122034444447], [77.11583794844444, 28.557118904444444], [77.115861922, 28.557115182], [77.11588721511112, 28.55711086711111], [77.11591382777777, 28.55710595977778], [77.11594176, 28.55710046], [77.11663786, 28.55694978], [77.11666180417778, 28.556943611511112], [77.11668437004445, 28.556937468711116], [77.11670555760001, 28.556931351600003], [77.11672536684446, 28.556925260177778], [77.11674379777779, 28.556919194444443], [77.11676085040001, 28.556913154400007], [77.11677652471111, 28.556907140044448], [77.11679082071112, 28.55690115137778], [77.11680373840001, 28.556895188400006], [77.11681527777779, 28.55688925111111], [77.11682543884446, 28.55688333951111], [77.11683422160002, 28.556877453600002], [77.11684162604445, 28.556871593377778], [77.11684765217778, 28.556865758844445], [77.1168523, 28.55685995], [77.11685713936296, 28.556850630109626], [77.1168599613037, 28.55684018207704], [77.11686103560001, 28.556828791360005], [77.11686063202964, 28.556816643416298], [77.11685902037038, 28.556803923703704], [77.11685647040001, 28.556790817680003], [77.11685325189629, 28.556777510802956], [77.11684963463702, 28.55676418853037], [77.11684588840001, 28.55675103632], [77.11684228296296, 28.55673823962963], [77.11683908810369, 28.556725983917033], [77.1168365736, 28.556714454639998], [77.11683500922962, 28.556703837256297], [77.11683466477037, 28.5566943172237], [77.11683581, 28.55668608], [77.11683676342224, 28.55668054217778], [77.1168369836889, 28.55667397404445], [77.11683647080001, 28.556666375600003], [77.11683522475556, 28.556657746844447], [77.11683324555557, 28.556648087777784], [77.1168305332, 28.5566373984], [77.11682708768889, 28.55662567871111], [77.11682290902223, 28.55661292871111], [77.1168179972, 28.556599148400004], [77.11681235222221, 28.556584337777778], [77.11680597408889, 28.55656849684444], [77.11679886280001, 28.5565516256], [77.11679101835556, 28.556533724044446], [77.11678244075556, 28.55651479217778], [77.11677313, 28.55649483], [77.11709424, 28.55642057], [77.11715252, 28.55664262], [77.11716385466669, 28.556659530133338], [77.117174984, 28.556675487200007], [77.11718590800002, 28.556690491200005], [77.11719662666668, 28.556704542133335], [77.11720714000002, 28.55671764], [77.117217448, 28.5567297848], [77.11722755066667, 28.556740976533334], [77.117237448, 28.556751215200002], [77.11724714, 28.556760500800003], [77.11725662666666, 28.556768833333336], [77.117265908, 28.556776212800003], [77.117274984, 28.5567826392], [77.11728385466667, 28.556788112533333], [77.11729252, 28.5567926328], [77.11730098, 28.5567962], [77.11730946928888, 28.55679899444445], [77.11731822248888, 28.55680119644445], [77.1173272396, 28.556802806], [77.11733652062222, 28.556803823111117], [77.11734606555557, 28.556804247777784], [77.1173558744, 28.55680408], [77.11736594715555, 28.556803319777778], [77.11737628382222, 28.55680196711111], [77.11738688439999, 28.556800022], [77.11739774888889, 28.556797484444445], [77.11740887728888, 28.556794354444442], [77.1174202696, 28.556790632], [77.11743192582222, 28.55678631711111], [77.11744384595556, 28.55678140977778], [77.11745603, 28.55677591], [77.11869318, 28.55649483], [77.1187122120889, 28.5564926932], [77.11873059902223, 28.55649014413334], [77.11874834080001, 28.556487182800005], [77.11876543742224, 28.556483809200007], [77.1187818888889, 28.55648002333334], [77.1187976952, 28.5564758252], [77.11881285635556, 28.556471214800002], [77.11882737235557, 28.556466192133332], [77.1188412432, 28.5564607572], [77.11885446888888, 28.55645491], [77.11886704942222, 28.556448650533333], [77.1188789848, 28.556441978800002], [77.11889027502222, 28.5564348948], [77.11890092008889, 28.556427398533337], [77.11891092, 28.55641949], [77.11891782502222, 28.556412883688893], [77.11892396942224, 28.55640528075556], [77.11892935320002, 28.556396681200006], [77.11893397635556, 28.556387085022227], [77.1189378388889, 28.556376492222228], [77.1189409408, 28.5563649028], [77.1189432820889, 28.556352316755554], [77.11894486275555, 28.55633873408889], [77.1189456828, 28.556324154800002], [77.11894574222222, 28.55630857888889], [77.11894504102222, 28.556292006355555], [77.1189435792, 28.556274437200003], [77.11894135675556, 28.556255871422223], [77.11893837368889, 28.55623630902222], [77.11893463, 28.55621575], [77.11893422257778, 28.556205709644445], [77.11893318964445, 28.55619597257778], [77.11893153120002, 28.556186538800002], [77.11892924724447, 28.556177408311115], [77.1189263377778, 28.556168581111113], [77.1189228028, 28.556160057200003], [77.11891864231112, 28.556151836577776], [77.11891385631112, 28.55614391924444], [77.11890844480001, 28.556136305200003], [77.11890240777778, 28.556128994444443], [77.11889574524446, 28.55612198697778], [77.11888845720001, 28.556115282800004], [77.11888054364445, 28.556108881911108], [77.11887200457778, 28.556102784311115], [77.11886284, 28.55609699], [77.11885720222223, 28.55609570622222], [77.11884671822223, 28.55609568422222], [77.118831388, 28.556096924], [77.11881121155557, 28.556099425555555], [77.1187861888889, 28.55610318888889], [77.11875632, 28.556108214], [77.11872160488889, 28.55611450088889], [77.11868204355557, 28.556122049555555], [77.118637636, 28.55613086], [77.11858838222221, 28.556140932222224], [77.11853428222221, 28.55615226622222], [77.118475336, 28.556164862], [77.11841154355555, 28.556178719555557], [77.11834290488889, 28.556193838888888], [77.11826942, 28.55621022], [77.11824352, 28.55613656], [77.11979738, 28.55577479], [77.11982312, 28.55583248], [77.11976120515557, 28.555845738888888], [77.11970358862223, 28.555858654222224], [77.1196502704, 28.555871226], [77.1196012504889, 28.55588345422222], [77.11955652888891, 28.555895338888888], [77.11951610559998, 28.55590688], [77.11947998062222, 28.55591807755555], [77.11944815395556, 28.555928931555552], [77.1194206256, 28.555939442], [77.11939739555555, 28.555949608888888], [77.11937846382222, 28.555959432222217], [77.1193638304, 28.555968912], [77.11935349528889, 28.55597804822222], [77.11934745848889, 28.555986840888888], [77.11934572, 28.55599529], [77.1193462732, 28.556003751244443], [77.11934711146668, 28.55601258031111], [77.11934823480001, 28.5560217772], [77.11934964320001, 28.556031341911112], [77.11935133666668, 28.556041274444446], [77.1193533152, 28.556051574799998], [77.1193555788, 28.55606224297778], [77.11935812746665, 28.556073278977777], [77.1193609612, 28.556084682799998], [77.11936408, 28.556096454444443], [77.11936748386665, 28.556108593911112], [77.1193711728, 28.556121101200002], [77.1193751468, 28.556133976311113], [77.11937940586667, 28.556147219244444], [77.11938395, 28.55616083], [77.11956084, 28.55676432], [77.11956790657779, 28.55678074017778], [77.11957591164443, 28.556796774044443], [77.11958485520002, 28.5568124216], [77.11959473724446, 28.556827682844446], [77.11960555777779, 28.556842557777784], [77.1196173168, 28.556857046400005], [77.11963001431111, 28.55687114871111], [77.1196436503111, 28.55688486471111], [77.1196582248, 28.5568981944], [77.11967373777779, 28.55691113777778], [77.11969018924445, 28.556923694844446], [77.11970757920001, 28.556935865600003], [77.11972590764445, 28.556947650044446], [77.11974517457779, 28.55695904817778], [77.11976538, 28.55697006], [77.11978707395555, 28.55698014986667], [77.11981080648889, 28.556988782133335], [77.11983657760001, 28.556995956800005], [77.11986438728891, 28.557001673866672], [77.11989423555556, 28.557005933333336], [77.1199261224, 28.5570087352], [77.11996004782222, 28.557010079466668], [77.11999601182222, 28.557009966133332], [77.1200340144, 28.5570083952], [77.12007405555556, 28.55700536666667], [77.1201161352889, 28.55700088053333], [77.1201602536, 28.556994936800002], [77.12020641048889, 28.556987535466664], [77.12025460595555, 28.556978676533333], [77.12030484, 28.55696836], [77.11816433, 28.55746943]]]}}]}