{"type": "FeatureCollection", "features": [{"type": "Feature", "properties": {"name": "New Taxiway 16", "surface_type": "CONCRETE", "smoothness": 0.0, "texture_orientation": 173.0}, "geometry": {"type": "Polygon", "coordinates": [[[-118.40446751, 33.93276599], [-118.40435037, 33.93195635], [-118.40407924, 33.93198158], [-118.40409635, 33.9321242], [-118.40272512, 33.93226028], [-118.40276121, 33.93254192], [-118.40240597, 33.93257498], [-118.40238205, 33.93243661], [-118.40062613, 33.93262872], [-118.40065427, 33.9328414], [-118.40067183, 33.9329741], [-118.40414768, 33.93263214], [-118.40417664, 33.93279561], [-118.40446751, 33.93276599]]]}}, {"type": "Feature", "properties": {"name": "N Term TW", "surface_type": "UNKNOWN_27", "smoothness": 0.0, "texture_orientation": 173.0}, "geometry": {"type": "Polygon", "coordinates": [[[-118.40226492, 33.94603928], [-118.4025299, 33.94798902], [-118.40314731, 33.94792965], [-118.40311365, 33.94768201], [-118.40328294, 33.94766589], [-118.4030515, 33.94596559], [-118.40226492, 33.94603928]]]}}, {"type": "Feature", "properties": {"name": "N Term TW", "surface_type": "UNKNOWN_27", "smoothness": 0.0, "texture_orientation": 173.0}, "geometry": {"type": "Polygon", "coordinates": [[[-118.40628724, 33.94736503], [-118.40601313, 33.94545452], [-118.40538208, 33.94551887], [-118.40566897, 33.94742281], [-118.40628724, 33.94736503]]]}}, {"type": "Feature", "properties": {"name": "N Term TW", "surface_type": "ASPHALT", "smoothness": 0.0, "texture_orientation": 173.0}, "geometry": {"type": "Polygon", "coordinates": [[[-118.40874634, 33.94504484], [-118.40844396, 33.94507547], [-118.4087376, 33.94711657], [-118.4095772, 33.94704645], [-118.40953119, 33.94672861], [-118.40899979, 33.94678309], [-118.40874634, 33.94504484]]]}}, {"type": "Feature", "properties": {"name": "N Term TW", "surface_type": "ASPHALT", "smoothness": 0.0, "texture_orientation": 185.6}, "geometry": {"type": "Polygon", "coordinates": [[[-118.40053747, 33.94818922], [-118.40047446, 33.94778624], [-118.40049934, 33.94711547], [-118.40039049, 33.94644471], [-118.40005728, 33.94647731], [-118.40005547, 33.94732828], [-118.39996933, 33.94802681], [-118.39996830142222, 33.94804132848889], [-118.39996769835557, 33.948055795955554], [-118.39996752080002, 33.94807021240001], [-118.39996776875557, 33.94808457782222], [-118.39996844222225, 33.94809889222223], [-118.3999695412, 33.9481131556], [-118.39997106568889, 33.94812736795556], [-118.39997301568889, 33.94814152928889], [-118.3999753912, 33.948155639599996], [-118.39997819222222, 33.94816969888889], [-118.39998141875556, 33.94818370715556], [-118.39998507080001, 33.9481976644], [-118.39998914835556, 33.94821157062222], [-118.39999365142222, 33.94822542582222], [-118.39999858, 33.94823923], [-118.40053747, 33.94818922]]]}}]}