{"type": "FeatureCollection", "features": [{"type": "Feature", "properties": {"name": "New Taxiway 1", "surface_type": "UNKNOWN_54", "smoothness": 0.0, "texture_orientation": 173.2}, "geometry": {"type": "Polygon", "coordinates": [[[-118.40736179, 33.94210502], [-118.40793074, 33.94218979], [-118.40752934, 33.93926085], [-118.40744438, 33.93920346], [-118.40576809, 33.93937664], [-118.40511686, 33.93944248], [-118.40339153, 33.93961974], [-118.402693, 33.93969405], [-118.40111742, 33.93985498], [-118.40023771, 33.93994532], [-118.39888297, 33.94008283], [-118.397849, 33.9401873], [-118.39724918, 33.94024792], [-118.39739127, 33.94154447], [-118.39752138, 33.94273139], [-118.39766629, 33.94308551], [-118.39786368, 33.94311361], [-118.40736179, 33.94210502]]]}}, {"type": "Feature", "properties": {"name": "N Term TW", "surface_type": "UNKNOWN_54", "smoothness": 0.0, "texture_orientation": 173.3}, "geometry": {"type": "Polygon", "coordinates": [[[-118.40819606, 33.94498672], [-118.40008756, 33.94575797], [-118.39990238, 33.94577559], [-118.39989996, 33.94595383], [-118.40004584, 33.94609144], [-118.40005728, 33.94647731], [-118.40039049, 33.94644471], [-118.40049934, 33.94711547], [-118.40047446, 33.94778624], [-118.40053747, 33.94818922], [-118.4025299, 33.94798902], [-118.40226492, 33.94603928], [-118.4030515, 33.94596559], [-118.40328294, 33.94766589], [-118.40566897, 33.94742281], [-118.40538208, 33.94551887], [-118.40601313, 33.94545452], [-118.40628724, 33.94736503], [-118.4087376, 33.94711657], [-118.40844396, 33.94507547], [-118.40819606, 33.94498672]]]}}, {"type": "Feature", "properties": {"name": "New Taxiway 2", "surface_type": "CONCRETE", "smoothness": 0.0, "texture_orientation": 173.2}, "geometry": {"type": "Polygon", "coordinates": [[[-118.4154091, 33.94146862], [-118.41546546, 33.94191428], [-118.41563004, 33.94201944], [-118.41683049, 33.94187868], [-118.41672555, 33.94172146], [-118.41671564, 33.94160325], [-118.41666817, 33.94130155], [-118.41665079, 33.94117882], [-118.41690422, 33.94113809], [-118.41691204844446, 33.941137558444446], [-118.41691958177779, 33.94113691044445], [-118.41692682000001, 33.941136146], [-118.41693376311113, 33.941135265111114], [-118.41694041111111, 33.941134267777784], [-118.416946764, 33.941133154], [-118.41695282177778, 33.94113192377778], [-118.41695858444444, 33.94113057711111], [-118.416964052, 33.941129114], [-118.41696922444444, 33.94112753444445], [-118.41697410177778, 33.94112583844444], [-118.41697868400001, 33.941124026], [-118.41698297111111, 33.94112209711111], [-118.41698696311111, 33.94112005177778], [-118.41699066, 33.94111789], [-118.41699415546668, 33.9411156164], [-118.41699754320001, 33.94111323560001], [-118.4170008232, 33.94111074760001], [-118.41700399546669, 33.941108152400005], [-118.41700706000002, 33.94110545], [-118.4170100168, 33.941102640400004], [-118.41701286586667, 33.9410997236], [-118.4170156072, 33.9410966996], [-118.4170182408, 33.94109356840001], [-118.41702076666668, 33.94109033], [-118.4170231848, 33.9410869844], [-118.4170254952, 33.9410835316], [-118.41702769786667, 33.941079971600004], [-118.41702979280001, 33.9410763044], [-118.41703178, 33.94107253], [-118.41699472, 33.94031179], [-118.41680857, 33.93906593], [-118.416581, 33.93836567], [-118.41657943306666, 33.93836137951112], [-118.41657767359999, 33.93835712671112], [-118.41657572160001, 33.93835291160001], [-118.41657357706667, 33.93834873417779], [-118.41657124000002, 33.93834459444445], [-118.41656871040001, 33.9383404924], [-118.41656598826665, 33.938336428044444], [-118.4165630736, 33.93833240137778], [-118.4165599664, 33.938328412400004], [-118.41655666666668, 33.93832446111111], [-118.41655317440001, 33.93832054751111], [-118.41654948960002, 33.938316671600006], [-118.41654561226667, 33.93831283337778], [-118.41654154240001, 33.938309032844444], [-118.41653728, 33.93830527], [-118.41653287062223, 33.938301638666665], [-118.41652835982224, 33.93829823266667], [-118.41652374760001, 33.938295052], [-118.41651903395555, 33.93829209666667], [-118.41651421888889, 33.93828936666667], [-118.41650930240002, 33.938286862], [-118.4165042844889, 33.93828458266667], [-118.41649916515556, 33.93828252866666], [-118.41649394440002, 33.9382807], [-118.41648862222222, 33.93827909666667], [-118.41648319862222, 33.93827771866667], [-118.41647767360001, 33.938276566], [-118.41647204715557, 33.93827563866667], [-118.4164663192889, 33.938274936666666], [-118.41646049, 33.93827446], [-118.41645916, 33.93834537], [-118.4159475, 33.93835367], [-118.41581421, 33.93836621], [-118.41580714955555, 33.93836827528889], [-118.4158004508889, 33.93837067115555], [-118.41579411400002, 33.9383733976], [-118.41578813888889, 33.93837645462222], [-118.41578252555554, 33.938379842222226], [-118.415777274, 33.9383835604], [-118.41577238422222, 33.938387609155555], [-118.41576785622223, 33.93839198848889], [-118.41576369, 33.9383966984], [-118.41575988555554, 33.938401738888885], [-118.41575644288889, 33.93840710995555], [-118.415753362, 33.9384128116], [-118.4157506428889, 33.93841884382222], [-118.41574828555557, 33.93842520662222], [-118.41574629, 33.9384319], [-118.41561521, 33.93844987], [-118.41561746, 33.93839382], [-118.415531, 33.938402], [-118.41509483, 33.93844322], [-118.41500508, 33.93845171], [-118.41503567, 33.93851021], [-118.41495563, 33.93851831], [-118.41481589, 33.93853263], [-118.41481167, 33.93849866], [-118.41349093, 33.93862392], [-118.41348017, 33.93854829], [-118.41316925, 33.93861492], [-118.41316570044444, 33.93861567857778], [-118.41316209977778, 33.938616671644446], [-118.413158448, 33.938617899200004], [-118.41315474511113, 33.93861936124445], [-118.41315099111114, 33.93862105777778], [-118.413147186, 33.9386229888], [-118.41314332977778, 33.93862515431111], [-118.41313942244446, 33.93862755431111], [-118.413135464, 33.9386301888], [-118.41313145444445, 33.93863305777778], [-118.41312739377778, 33.938636161244446], [-118.41312328200002, 33.9386394992], [-118.41311911911112, 33.93864307164444], [-118.41311490511112, 33.93864687857778], [-118.41311064, 33.93865092], [-118.41310647924445, 33.93865508902222], [-118.41310257831113, 33.938659278755566], [-118.4130989372, 33.93866348920001], [-118.41309555591113, 33.93866772035556], [-118.41309243444447, 33.938671972222224], [-118.41308957279999, 33.9386762448], [-118.41308697097776, 33.93868053808889], [-118.41308462897777, 33.93868485208889], [-118.4130825468, 33.938689186800005], [-118.41308072444446, 33.938693542222225], [-118.41307916191111, 33.93869791835556], [-118.4130778592, 33.938702315200004], [-118.4130768163111, 33.938706732755556], [-118.41307603324444, 33.93871117102222], [-118.41307551, 33.93871563], [-118.41305895, 33.93944225], [-118.41325071, 33.940757], [-118.41360423, 33.94071655], [-118.41359261, 33.94063778], [-118.41366395, 33.94063438], [-118.41367575, 33.94070928], [-118.41398492, 33.94067458], [-118.41469694, 33.94101679], [-118.41492404, 33.9409906], [-118.41520433, 33.94113913], [-118.41523052, 33.94134317], [-118.4154091, 33.94146862]]]}}, {"type": "Feature", "properties": {"name": "07R A South frght TW", "surface_type": "UNKNOWN_53", "smoothness": 0.0, "texture_orientation": 83.0}, "geometry": {"type": "Polygon", "coordinates": [[[-118.38944058, 33.93337393], [-118.3890958, 33.93337827], [-118.38624219, 33.93368528], [-118.38624733, 33.93439084], [-118.38943041, 33.93408266], [-118.38944058, 33.93337393]]]}}]}