{"type": "FeatureCollection", "features": [{"type": "Feature", "properties": {"name": "", "surface_type": "UNKNOWN_29", "smoothness": 0.0, "texture_orientation": 120.0}, "geometry": {"type": "Polygon", "coordinates": [[[-122.38612895, 37.61400709], [-122.38743798, 37.61441492], [-122.38914081, 37.61399614], [-122.38930033, 37.61438518], [-122.39290713, 37.61350618], [-122.39304856, 37.61296464], [-122.39337387, 37.61287501], [-122.3934157492, 37.61283759711112], [-122.39345465346666, 37.612800086444445], [-122.3934905828, 37.612762478], [-122.39352353720002, 37.612724771777785], [-122.39355351666669, 37.61268696777778], [-122.3935805212, 37.612649066], [-122.3936045508, 37.61261106644445], [-122.39362560546667, 37.61257296911111], [-122.3936436852, 37.612534774], [-122.39365879000002, 37.612496481111116], [-122.39367091986668, 37.61245809044445], [-122.3936800748, 37.612419602], [-122.3936862548, 37.61238101577778], [-122.39368945986666, 37.61234233177778], [-122.39368969, 37.61230355], [-122.39368714364446, 37.61226411822222], [-122.39368201924447, 37.61222348422222], [-122.39367431680002, 37.612181648], [-122.39366403631112, 37.61213860955556], [-122.3936511777778, 37.6120943688889], [-122.39363574119999, 37.612048926], [-122.39361772657777, 37.61200228088889], [-122.3935971339111, 37.61195443355555], [-122.3935739632, 37.611905384], [-122.39354821444444, 37.61185513222222], [-122.39351988764443, 37.611803678222216], [-122.3934889828, 37.611751022], [-122.39345549991111, 37.61169716355555], [-122.39341943897779, 37.61164210288889], [-122.3933808, 37.61158584], [-122.39009971, 37.60956564], [-122.38917305, 37.60903752], [-122.38882809, 37.60889547], [-122.38789812, 37.61020573], [-122.38780307, 37.61035094], [-122.38578992, 37.61327202], [-122.38612895, 37.61400709]]]}}, {"type": "Feature", "properties": {"name": "", "surface_type": "UNKNOWN_22", "smoothness": 0.0, "texture_orientation": 157.0}, "geometry": {"type": "Polygon", "coordinates": [[[-122.39447696, 37.63184366], [-122.3942855, 37.63146218], [-122.39404969, 37.63154423], [-122.39352318, 37.63172618], [-122.392507, 37.63207809], [-122.39226544, 37.63308868], [-122.3922631132, 37.63318786795555], [-122.39225366346668, 37.63328342915556], [-122.39223709080002, 37.6333753636], [-122.39221339520002, 37.633463671288894], [-122.39218257666668, 37.63354835222223], [-122.39214463520003, 37.633629406400004], [-122.3920995708, 37.633706833822224], [-122.39204738346666, 37.633780634488886], [-122.3919880732, 37.6338508084], [-122.39192164, 37.63391735555555], [-122.39184808386668, 37.63398027595556], [-122.3917674048, 37.6340395696], [-122.3916796028, 37.63409523648889], [-122.39158467786666, 37.63414727662222], [-122.39148263, 37.63419569], [-122.39137525399998, 37.63424145253334], [-122.39126434466667, 37.634285540133334], [-122.391149902, 37.6343279528], [-122.39103192600001, 37.634368690533336], [-122.39091041666669, 37.634407753333335], [-122.39078537400002, 37.6344451412], [-122.390656798, 37.63448085413333], [-122.39052468866666, 37.63451489213334], [-122.390389046, 37.6345472552], [-122.39024987, 37.63457794333333], [-122.39010716066667, 37.63460695653333], [-122.38996091800001, 37.6346342948], [-122.389811142, 37.634659958133334], [-122.38965783266667, 37.634683946533336], [-122.38950099, 37.63470626], [-122.38978657, 37.63544386], [-122.38926835, 37.63555293], [-122.38958884, 37.63651041], [-122.39076599, 37.63626817], [-122.39076298, 37.63499256], [-122.39107502, 37.63468491], [-122.39271973, 37.6341558], [-122.39324173, 37.63513516], [-122.39245698, 37.63539531], [-122.3925552, 37.63558076], [-122.39348112, 37.63732891], [-122.39472314, 37.63691102], [-122.39458846, 37.63665758], [-122.39870832, 37.63524464], [-122.39769062, 37.63332499], [-122.3966799, 37.63366104], [-122.39519889, 37.63279071], [-122.39447696, 37.63184366]]]}}, {"type": "Feature", "properties": {"name": "", "surface_type": "UNKNOWN_29", "smoothness": 0.0, "texture_orientation": 72.0}, "geometry": {"type": "Polygon", "coordinates": [[[-122.38533418, 37.61784763], [-122.38496956, 37.61838119], [-122.38508623964445, 37.61841833093334], [-122.38519923324445, 37.61845279906667], [-122.3853085408, 37.6184845944], [-122.38541416231112, 37.618513716933336], [-122.3855160977778, 37.61854016666667], [-122.38561434719999, 37.618563943599995], [-122.38570891057779, 37.618585047733326], [-122.38579978791111, 37.618603479066664], [-122.3858869792, 37.6186192376], [-122.38597048444444, 37.61863232333333], [-122.38605030364444, 37.618642736266665], [-122.3861264368, 37.6186504764], [-122.3861988839111, 37.61865554373333], [-122.38626764497778, 37.618657938266665], [-122.38633272, 37.61865766], [-122.38652916191111, 37.61864883271111], [-122.38672569564447, 37.618632382844446], [-122.38692232120002, 37.6186083104], [-122.38711903857778, 37.618576615377776], [-122.38731584777778, 37.618537297777785], [-122.38751274879998, 37.6184903576], [-122.38770974164444, 37.618435794844444], [-122.38790682631111, 37.61837360951111], [-122.38810400279999, 37.61830380160001], [-122.3883012711111, 37.61822637111111], [-122.38849863124443, 37.61814131804444], [-122.38869608319999, 37.6180486424], [-122.38889362697778, 37.617948344177776], [-122.38909126257778, 37.61784042337777], [-122.38928899, 37.61772488], [-122.38950877, 37.61781511], [-122.38938679, 37.61799639], [-122.39325692, 37.61958642], [-122.39400633, 37.61939352], [-122.39406584395557, 37.61937420764445], [-122.3941224578222, 37.619353579911106], [-122.39417617160002, 37.6193316368], [-122.3942269852889, 37.61930837831111], [-122.3942748988889, 37.61928380444445], [-122.39431991240002, 37.619257915199995], [-122.39436202582223, 37.619230710577774], [-122.39440123915556, 37.619202190577774], [-122.3944375524, 37.6191723552], [-122.39447096555557, 37.619141204444446], [-122.39450147862222, 37.61910873831111], [-122.39452909160002, 37.6190749568], [-122.3945538044889, 37.619039859911105], [-122.3945756172889, 37.619003447644445], [-122.39459453, 37.61896572], [-122.39461020013333, 37.618926051866666], [-122.3946222852, 37.61888381813333], [-122.39463078520002, 37.6188390188], [-122.39463570013336, 37.61879165386667], [-122.39463703000003, 37.61874172333334], [-122.39463477480001, 37.618689227199994], [-122.39462893453333, 37.618634165466666], [-122.3946195092, 37.61857653813333], [-122.39460649880002, 37.6185163452], [-122.39458990333335, 37.61845358666667], [-122.3945697228, 37.61838826253334], [-122.39454595720002, 37.6183203728], [-122.39451860653334, 37.61824991746667], [-122.3944876708, 37.618176896533335], [-122.39445315, 37.61810131], [-122.39515649, 37.61708504], [-122.39499781, 37.61668442], [-122.39301164, 37.6158631], [-122.38800235, 37.61712131], [-122.38794289871112, 37.617209054888896], [-122.38788062751112, 37.61729253755556], [-122.38781553640001, 37.617371758], [-122.3877476253778, 37.61744671622223], [-122.38767689444445, 37.617517412222234], [-122.3876033436, 37.617583846], [-122.38752697284444, 37.61764601755556], [-122.38744778217779, 37.61770392688889], [-122.3873657716, 37.617757574], [-122.38728094111113, 37.61780695888889], [-122.38719329071112, 37.617852081555554], [-122.38710282040003, 37.617892942], [-122.38700953017779, 37.61792954022222], [-122.38691342004445, 37.617961876222225], [-122.38681449, 37.61798995], [-122.38671426017778, 37.61801353062222], [-122.38661425071112, 37.61803238715556], [-122.38651446160002, 37.6180465196], [-122.38641489284447, 37.61805592795556], [-122.38631554444449, 37.61806061222223], [-122.3862164164, 37.6180605724], [-122.38611750871112, 37.61805580848889], [-122.38601882137777, 37.61804632048889], [-122.38592035439999, 37.6180321084], [-122.38582210777778, 37.61801317222222], [-122.38572408151111, 37.61798951195556], [-122.3856262756, 37.6179611276], [-122.38552869004445, 37.617928019155556], [-122.38543132484445, 37.61789018662222], [-122.38533418, 37.61784763]]]}}]}