{"type": "FeatureCollection", "features": [{"type": "Feature", "properties": {"name": "", "surface_type": "UNKNOWN_33", "smoothness": 0.25, "texture_orientation": 120.0}, "geometry": {"type": "Polygon", "coordinates": [[[-122.38332762, 37.61702176], [-122.38417287, 37.61571054], [-122.38423468, 37.61573857], [-122.38426767866666, 37.61568453079999], [-122.38430058666667, 37.615631951866675], [-122.38433340400002, 37.615580833200006], [-122.38436613066668, 37.61553117480001], [-122.38439876666668, 37.61548297666668], [-122.384431312, 37.6154362388], [-122.38446376666666, 37.6153909612], [-122.38449613066666, 37.61534714386667], [-122.384528404, 37.6153047868], [-122.38456058666667, 37.61526389], [-122.38459267866666, 37.615224453466666], [-122.38462468, 37.615186477200005], [-122.38465659066667, 37.615149961200004], [-122.38468841066667, 37.61511490546667], [-122.38472014, 37.61508131], [-122.38475356915556, 37.61504888755556], [-122.38479048862223, 37.615017350888884], [-122.38483089840001, 37.61498670000001], [-122.38487479848891, 37.61495693488889], [-122.3849221888889, 37.61492805555556], [-122.38497306960001, 37.614900062], [-122.38502744062224, 37.61487295422222], [-122.38508530195557, 37.61484673222222], [-122.3851466536, 37.614821396], [-122.38521149555555, 37.614796945555554], [-122.38527982782222, 37.614773380888884], [-122.3853516504, 37.614750702], [-122.3854269632889, 37.61472890888889], [-122.38550576648889, 37.614708001555556], [-122.38558806, 37.61468798], [-122.38535828, 37.61410245], [-122.38508574, 37.61340794], [-122.38424182, 37.61360294], [-122.38406518, 37.61387472], [-122.38364508, 37.61368797], [-122.38367408, 37.61364326], [-122.38305234, 37.61337523], [-122.38482078, 37.61077858], [-122.38486847, 37.61079726], [-122.38513778, 37.61041749], [-122.38517596, 37.61043654], [-122.38540153, 37.61011783], [-122.38544656, 37.61014071], [-122.38566301, 37.6098294], [-122.38572392, 37.60985816], [-122.38578612, 37.60976237], [-122.38584548, 37.60978525], [-122.38594861, 37.60963714], [-122.38607058, 37.60968776], [-122.38610513, 37.60963814], [-122.38780307, 37.61035094], [-122.38790722, 37.61019514], [-122.38554502, 37.60919258], [-122.38505761, 37.6097628], [-122.38443007, 37.61045564], [-122.38223655, 37.61375618], [-122.38218327, 37.61383636], [-122.38128108, 37.61519386], [-122.38122218, 37.61528249], [-122.38074047, 37.61600731], [-122.38066685, 37.61611808], [-122.38081552, 37.61608175], [-122.38087097, 37.61619552], [-122.38112212, 37.6161338], [-122.38233735, 37.61663737], [-122.38254187, 37.61634887], [-122.38269535, 37.61641194], [-122.38265421, 37.61647318], [-122.38279601, 37.61653184], [-122.38224606, 37.61734511], [-122.38314563, 37.61772386], [-122.3830547, 37.6178499], [-122.383126, 37.61788432], [-122.38309107, 37.61793633], [-122.38298651, 37.61797595], [-122.38281601, 37.61791113], [-122.38277494, 37.61797345], [-122.38272925, 37.61795487], [-122.38217589, 37.61879798], [-122.38135993, 37.61896496], [-122.38216311, 37.6193001], [-122.38344437, 37.61983806], [-122.38339348, 37.61964896], [-122.38325118, 37.61968101], [-122.38311309, 37.61931738], [-122.38355377, 37.61865774], [-122.38356588595555, 37.61863990008889], [-122.38357755915555, 37.6186224736889], [-122.38358878960001, 37.6186054608], [-122.38359957728892, 37.61858886142223], [-122.38360992222225, 37.61857267555556], [-122.38361982440001, 37.6185569032], [-122.38362928382224, 37.61854154435556], [-122.3836383004889, 37.618526599022225], [-122.3836468744, 37.6185120672], [-122.38365500555557, 37.61849794888889], [-122.38366269395556, 37.61848424408889], [-122.38366993960001, 37.6184709528], [-122.3836767424889, 37.618458075022225], [-122.38368310262223, 37.61844561075556], [-122.38368902, 37.61843356], [-122.38369457111112, 37.61842161075555], [-122.38369983244446, 37.618409451022224], [-122.38370480400002, 37.6183970808], [-122.38370948577779, 37.61838450008889], [-122.3837138777778, 37.618371708888894], [-122.38371798000001, 37.6183587072], [-122.38372179244445, 37.618345495022226], [-122.38372531511112, 37.61833207235556], [-122.383728548, 37.6183184392], [-122.38373149111112, 37.61830459555556], [-122.38373414444445, 37.618290541422226], [-122.38373650800001, 37.6182762768], [-122.38373858177779, 37.61826180168889], [-122.38374036577778, 37.618247116088895], [-122.38374186, 37.61823222], [-122.38332762, 37.61702176]]]}}, {"type": "Feature", "properties": {"name": "", "surface_type": "UNKNOWN_22", "smoothness": 0.0, "texture_orientation": 150.0}, "geometry": {"type": "Polygon", "coordinates": [[[-122.38711032, 37.63511515], [-122.38679299, 37.63520984], [-122.38634459, 37.63526213], [-122.38607783, 37.63537556], [-122.38665806, 37.63620716], [-122.3870106, 37.63604326], [-122.38832591, 37.63781528], [-122.3884716, 37.63774756], [-122.38933241, 37.63896988], [-122.39059442, 37.63870276], [-122.39064409, 37.63859568], [-122.39052267, 37.63771938], [-122.39018691, 37.63721086], [-122.38964608, 37.63678546], [-122.38945899, 37.6365278], [-122.38868613, 37.63546342], [-122.38864598, 37.6353299], [-122.38871563, 37.63519016], [-122.38950099, 37.63470626], [-122.38965783142221, 37.63468394528889], [-122.38981113968889, 37.63465995582223], [-122.38996091480001, 37.6346342916], [-122.39010715675558, 37.63460695262222], [-122.39024986555559, 37.634577938888896], [-122.39038904120002, 37.6345472504], [-122.3905246836889, 37.634514887155554], [-122.3906567930222, 37.63448084915555], [-122.39078536919999, 37.634445136400004], [-122.39091041222223, 37.63440774888889], [-122.39103192208889, 37.634368686622224], [-122.3911498988, 37.6343279496], [-122.39126434235556, 37.63428553782222], [-122.39137525275555, 37.63424145128889], [-122.39148263, 37.63419569], [-122.3915846791111, 37.63414727786666], [-122.39167960511112, 37.6340952388], [-122.391767408, 37.6340395728], [-122.39184808777779, 37.63398027986667], [-122.39192164444447, 37.63391736], [-122.391988078, 37.6338508132], [-122.39204738844445, 37.633780639466664], [-122.39209957577779, 37.6337068388], [-122.39214464, 37.6336294112], [-122.39218258111111, 37.633548356666665], [-122.39221339911111, 37.633463675200005], [-122.39223709400002, 37.6333753668], [-122.39225366577779, 37.633283431466666], [-122.39226311444445, 37.6331878692], [-122.39226544, 37.63308868], [-122.39186663, 37.63237537], [-122.39185702168889, 37.63235554986667], [-122.39184821542223, 37.63233648946666], [-122.3918402112, 37.6323181888], [-122.39183300902226, 37.63230064786667], [-122.3918266088889, 37.63228386666667], [-122.39182101080002, 37.6322678452], [-122.39181621475556, 37.632252583466666], [-122.39181222075557, 37.63223808146666], [-122.39180902880001, 37.6322243392], [-122.39180663888891, 37.632211356666666], [-122.39180505102223, 37.63219913386666], [-122.39180426520002, 37.6321876708], [-122.39180428142222, 37.63217696746666], [-122.39180509968891, 37.632167023866664], [-122.39180672, 37.63215784], [-122.39180897542225, 37.63214898271111], [-122.39181169902223, 37.63214001884444], [-122.39181489080002, 37.632130948400004], [-122.39181855075556, 37.63212177137778], [-122.39182267888891, 37.63211248777778], [-122.39182727520003, 37.632103097599995], [-122.39183233968889, 37.63209360084444], [-122.39183787235555, 37.63208399751111], [-122.3918438732, 37.632074287600005], [-122.39185034222223, 37.632064471111114], [-122.39185727942221, 37.632054548044444], [-122.39186468480003, 37.6320445184], [-122.39187255835556, 37.63203438217778], [-122.39188090008889, 37.632024139377776], [-122.39188971, 37.63201379], [-122.39230874, 37.63181616], [-122.39205794, 37.6313594], [-122.39144132, 37.63158214], [-122.39072537, 37.63183826], [-122.39127473, 37.63289527], [-122.39123368, 37.63314166], [-122.39106089, 37.63332868], [-122.39087923, 37.63347801], [-122.38954092, 37.63394238], [-122.38891546, 37.6340389], [-122.38854293, 37.63418094], [-122.38794046, 37.63464349], [-122.38711032, 37.63511515]]]}}, {"type": "Feature", "properties": {"name": "", "surface_type": "UNKNOWN_30", "smoothness": 0.0, "texture_orientation": 28.5}, "geometry": {"type": "Polygon", "coordinates": [[[-122.38517596, 37.61043654], [-122.38513778, 37.61041749], [-122.38486847, 37.61079726], [-122.38482078, 37.61077858], [-122.38305234, 37.61337523], [-122.38367408, 37.61364326], [-122.38364508, 37.61368797], [-122.38406518, 37.61387472], [-122.38424182, 37.61360294], [-122.38508574, 37.61340794], [-122.38535828, 37.61410245], [-122.38612895, 37.61400709], [-122.38578992, 37.61327202], [-122.38780307, 37.61035094], [-122.38610513, 37.60963814], [-122.38607058, 37.60968776], [-122.38594861, 37.60963714], [-122.38584548, 37.60978525], [-122.38578612, 37.60976237], [-122.38572392, 37.60985816], [-122.38566301, 37.6098294], [-122.38544656, 37.61014071], [-122.38540153, 37.61011783], [-122.38517596, 37.61043654]]]}}, {"type": "Feature", "properties": {"name": "", "surface_type": "UNKNOWN_30", "smoothness": 0.25, "texture_orientation": 118.0}, "geometry": {"type": "Polygon", "coordinates": [[[-122.38135993, 37.61896496], [-122.38217738, 37.61879552], [-122.38272925, 37.61795487], [-122.38277494, 37.61797345], [-122.38281601, 37.61791113], [-122.38298651, 37.61797595], [-122.38309107, 37.61793633], [-122.383126, 37.61788432], [-122.3830547, 37.6178499], [-122.38314563, 37.61772386], [-122.38224606, 37.61734511], [-122.38279601, 37.61653184], [-122.38265421, 37.61647318], [-122.38269535, 37.61641194], [-122.38254187, 37.61634887], [-122.38233735, 37.61663737], [-122.38112212, 37.6161338], [-122.38087097, 37.61619552], [-122.38081552, 37.61608175], [-122.38066685, 37.61611808], [-122.38012731, 37.61692991], [-122.38003374, 37.61689277], [-122.37998801, 37.61700158], [-122.37993312, 37.617219], [-122.37992308, 37.61750048], [-122.38001163, 37.61787547], [-122.38009427, 37.61805035], [-122.38023476, 37.61825327], [-122.3805789, 37.61858104], [-122.38072351, 37.61867356], [-122.38089882, 37.61877251], [-122.38135993, 37.61896496]]]}}]}