{"type": "FeatureCollection", "features": [{"type": "Feature", "properties": {"name": "Apron", "surface_type": "CONCRETE", "smoothness": 0.2, "texture_orientation": 22.0}, "geometry": {"type": "Polygon", "coordinates": [[[-71.01423615, 42.36634109], [-71.01518732, 42.36662072], [-71.01595408, 42.3664131], [-71.01627287, 42.3663959], [-71.01624458, 42.36615423], [-71.01608784, 42.36617385], [-71.01460712, 42.36551742], [-71.01420456, 42.36601696], [-71.01423615, 42.36634109]]]}}, {"type": "Feature", "properties": {"name": "Apron", "surface_type": "CONCRETE", "smoothness": 0.2, "texture_orientation": 36.0}, "geometry": {"type": "Polygon", "coordinates": [[[-71.01967622, 42.36053976], [-71.01799567, 42.35966671], [-71.01699094, 42.35970446], [-71.01699094, 42.35982332], [-71.01777148, 42.36022937], [-71.0180133, 42.36018827], [-71.01874914, 42.36056407], [-71.01896779, 42.36078938], [-71.01908211, 42.36106541], [-71.01967622, 42.36053976]]]}}, {"type": "Feature", "properties": {"name": "Apron", "surface_type": "ASPHALT", "smoothness": 0.2, "texture_orientation": 135.3}, "geometry": {"type": "Polygon", "coordinates": [[[-71.02296424, 42.37665049], [-71.02273207, 42.37680837], [-71.02275278, 42.37682366], [-71.02283606, 42.37688517], [-71.02311874, 42.37709395], [-71.02324737, 42.37718896], [-71.0233928, 42.37729637], [-71.02400377, 42.37679759], [-71.02435078, 42.37701478], [-71.0243489253778, 42.377011926666675], [-71.02434739084444, 42.37700914800001], [-71.0243461764, 42.37700644400002], [-71.02434528204445, 42.37700381466667], [-71.02434470777779, 42.377001260000014], [-71.0243444536, 42.37699878], [-71.0243445195111, 42.376996374666675], [-71.0243449055111, 42.376994044], [-71.0243456116, 42.376991788], [-71.02434663777777, 42.376989606666676], [-71.02434798404444, 42.3769875], [-71.0243496504, 42.376985468], [-71.02435163684444, 42.37698351066667], [-71.02435394337778, 42.37698162800001], [-71.02435657, 42.37697982], [-71.02435936191111, 42.376978161244445], [-71.02436216431111, 42.37697672631112], [-71.02436497720001, 42.3769755152], [-71.02436780057778, 42.376974527911116], [-71.02437063444445, 42.37697376444445], [-71.0243734788, 42.3769732248], [-71.02437633364444, 42.37697290897778], [-71.02437919897778, 42.376972816977776], [-71.0243820748, 42.3769729488], [-71.02438496111111, 42.37697330444445], [-71.02438785791111, 42.37697388391111], [-71.02439076520001, 42.376974687200004], [-71.02439368297777, 42.376975714311115], [-71.02439661124444, 42.37697696524445], [-71.02439955, 42.37697844], [-71.02444598, 42.37700983], [-71.0245569, 42.376923], [-71.02378555, 42.37642248], [-71.02370643, 42.37646984], [-71.02365317, 42.37649262], [-71.02359441, 42.37650684], [-71.02352362, 42.37651447], [-71.02343968, 42.37649565], [-71.02333702, 42.37644716], [-71.02300515, 42.37619157], [-71.02332983, 42.37590767], [-71.023136, 42.37576849], [-71.02277286, 42.37605697], [-71.02208599, 42.37553212], [-71.02201933, 42.37527076], [-71.02176811, 42.37545504], [-71.02184693, 42.37557224], [-71.02191368, 42.37566015], [-71.02275871, 42.37630517], [-71.02297619, 42.37647043], [-71.02353852, 42.37662452], [-71.02296424, 42.37665049]]]}}, {"type": "Feature", "properties": {"name": "Concrete", "surface_type": "CONCRETE", "smoothness": 0.2, "texture_orientation": 40.0}, "geometry": {"type": "Polygon", "coordinates": [[[-71.02240038, 42.37173432], [-71.02204495, 42.37204445], [-71.02425296, 42.37345724], [-71.02462672, 42.37315408], [-71.02240038, 42.37173432]]]}}, {"type": "Feature", "properties": {"name": "Concrete", "surface_type": "CONCRETE", "smoothness": 0.0, "texture_orientation": 130.1}, "geometry": {"type": "Polygon", "coordinates": [[[-71.02680363, 42.3724065], [-71.02686852, 42.37235033], [-71.02677329, 42.37229324], [-71.0267068, 42.37235389], [-71.02665838, 42.37232233], [-71.02673243, 42.372255], [-71.02666977, 42.37221502], [-71.02658904, 42.37228235], [-71.02643153, 42.37218383], [-71.02651647, 42.37210598], [-71.02645617, 42.37206563], [-71.02584656, 42.37261984], [-71.0272369, 42.37347784], [-71.0274131, 42.37340173], [-71.02745867, 42.37345012], [-71.02783755, 42.37324195], [-71.02779198, 42.37319972], [-71.02722695, 42.37266898], [-71.02680363, 42.3724065]]]}}, {"type": "Feature", "properties": {"name": "Apron", "surface_type": "ASPHALT", "smoothness": 0.2, "texture_orientation": 80.0}, "geometry": {"type": "Polygon", "coordinates": [[[-71.01320476, 42.36731359], [-71.01350465, 42.36729341], [-71.01368551, 42.36716261], [-71.0141895, 42.36712348], [-71.01513294, 42.36695135], [-71.01512544, 42.36685431], [-71.0152109, 42.36685452], [-71.01518732, 42.36662072], [-71.01423615, 42.36634109], [-71.01389495, 42.36674513], [-71.01323569, 42.36644294], [-71.01316487, 42.36696732], [-71.01320476, 42.36731359]]]}}, {"type": "Feature", "properties": {"name": "Apron", "surface_type": "CONCRETE", "smoothness": 0.2, "texture_orientation": 20.0}, "geometry": {"type": "Polygon", "coordinates": [[[-71.01777148, 42.36022937], [-71.01699094, 42.35982332], [-71.01699094, 42.35970446], [-71.01689421, 42.35971072], [-71.01679399, 42.35968421], [-71.01664154, 42.36000715], [-71.01689492, 42.36007333], [-71.01639661, 42.36109373], [-71.01719213, 42.361295], [-71.01777148, 42.36022937]]]}}, {"type": "Feature", "properties": {"name": "Apron", "surface_type": "UNKNOWN_24", "smoothness": 0.2, "texture_orientation": 90.0}, "geometry": {"type": "Polygon", "coordinates": [[[-71.02084521, 42.37174151], [-71.02066432, 42.3717945], [-71.02044384, 42.37181059], [-71.02023272, 42.37180455], [-71.02004718, 42.3717705], [-71.0198564, 42.37170858], [-71.02002548, 42.37260689], [-71.02031965, 42.37281985], [-71.02125692, 42.37270099], [-71.02125258, 42.37244002], [-71.02104924, 42.37246925], [-71.02086205, 42.37246896], [-71.02020877, 42.37239798], [-71.02023951, 42.3722617], [-71.02089279, 42.37233268], [-71.02084521, 42.37174151]]]}}, {"type": "Feature", "properties": {"name": "Apron", "surface_type": "ASPHALT", "smoothness": 0.2, "texture_orientation": 75.0}, "geometry": {"type": "Polygon", "coordinates": [[[-71.01501605, 42.36313615], [-71.0153646, 42.36269799], [-71.01668456, 42.36244993], [-71.01656553, 42.36206482], [-71.01611157, 42.36213724], [-71.01591455, 42.36154117], [-71.01579989, 42.36155583], [-71.01501605, 42.36313615]]]}}, {"type": "Feature", "properties": {"name": "Apron", "surface_type": "UNKNOWN_24", "smoothness": 0.2, "texture_orientation": 42.0}, "geometry": {"type": "Polygon", "coordinates": [[[-71.02205052, 42.37098949], [-71.02143267, 42.37137413], [-71.02137824, 42.3713616], [-71.02120486, 42.37154558], [-71.02106579, 42.3716433], [-71.02144616, 42.37219924], [-71.02219254, 42.3715763], [-71.02232479, 42.371487], [-71.02244216, 42.37142431], [-71.02205052, 42.37098949]]]}}, {"type": "Feature", "properties": {"name": "Apron", "surface_type": "UNKNOWN_26", "smoothness": 0.2, "texture_orientation": 36.0}, "geometry": {"type": "Polygon", "coordinates": [[[-71.01647746, 42.36863848], [-71.01587187, 42.36904888], [-71.01493333, 42.36903088], [-71.01595076, 42.3696804], [-71.01665016, 42.36895376], [-71.01673759, 42.36886293], [-71.01647746, 42.36863848]]]}}, {"type": "Feature", "properties": {"name": "Apron", "surface_type": "UNKNOWN_24", "smoothness": 0.2, "texture_orientation": 36.0}, "geometry": {"type": "Polygon", "coordinates": [[[-71.01696818, 42.37032991], [-71.01687031, 42.37019627], [-71.01679123, 42.37004206], [-71.0167576, 42.36991641], [-71.01676071, 42.36976094], [-71.01680194, 42.36960414], [-71.01689167, 42.36945292], [-71.01709763, 42.36920222], [-71.01665016, 42.36895376], [-71.01595076, 42.3696804], [-71.01696818, 42.37032991]]]}}, {"type": "Feature", "properties": {"name": "Apron", "surface_type": "UNKNOWN_24", "smoothness": 0.2, "texture_orientation": 138.0}, "geometry": {"type": "Polygon", "coordinates": [[[-71.01698544, 42.36796435], [-71.01688329, 42.36791426], [-71.01666896, 42.36785707], [-71.01645598, 42.3678298], [-71.01646343, 42.36786659], [-71.01594808, 42.36820269], [-71.01647746, 42.36863848], [-71.01673759, 42.36886293], [-71.01699987, 42.36859044], [-71.01698544, 42.36796435]]]}}, {"type": "Feature", "properties": {"name": "Apron", "surface_type": "ASPHALT", "smoothness": 0.2, "texture_orientation": 20.0}, "geometry": {"type": "Polygon", "coordinates": [[[-71.01257219, 42.36735615], [-71.01320476, 42.36731359], [-71.01316487, 42.36696732], [-71.01323569, 42.36644294], [-71.01338256, 42.36594629], [-71.01324197, 42.36564275], [-71.01297, 42.36616478], [-71.01282839, 42.36654197], [-71.0126896, 42.36695198], [-71.01259801, 42.36722154], [-71.01257219, 42.36735615]]]}}, {"type": "Feature", "properties": {"name": "Apron", "surface_type": "CONCRETE", "smoothness": 0.2, "texture_orientation": 32.0}, "geometry": {"type": "Polygon", "coordinates": [[[-71.02030505, 42.36253504], [-71.01946307, 42.36266363], [-71.01955472, 42.36295703], [-71.01932179, 42.36300125], [-71.0195628, 42.36369039], [-71.01994407, 42.363252], [-71.02035987, 42.36274076], [-71.02030505, 42.36253504]]]}}, {"type": "Feature", "properties": {"name": "Apron", "surface_type": "CONCRETE", "smoothness": 0.2, "texture_orientation": 60.0}, "geometry": {"type": "Polygon", "coordinates": [[[-71.01830734, 42.36822499], [-71.01790159, 42.36764818], [-71.01721564, 42.36811031], [-71.01734957, 42.36822712], [-71.01744582, 42.36837793], [-71.01830734, 42.36822499]]]}}, {"type": "Feature", "properties": {"name": "Apron", "surface_type": "UNKNOWN_26", "smoothness": 0.2, "texture_orientation": 36.0}, "geometry": {"type": "Polygon", "coordinates": [[[-71.01709763, 42.36920222], [-71.01752081, 42.3686874], [-71.01750499, 42.36852528], [-71.01744582, 42.36837793], [-71.01734957, 42.36822712], [-71.01665016, 42.36895376], [-71.01709763, 42.36920222]]]}}, {"type": "Feature", "properties": {"name": "Apron", "surface_type": "CONCRETE", "smoothness": 0.2, "texture_orientation": 40.0}, "geometry": {"type": "Polygon", "coordinates": [[[-71.01790159, 42.36764818], [-71.01721455, 42.36732916], [-71.01688329, 42.36791426], [-71.01708759, 42.36801444], [-71.01721564, 42.36811031], [-71.01790159, 42.36764818]]]}}, {"type": "Feature", "properties": {"name": "Apron", "surface_type": "CONCRETE", "smoothness": 0.2, "texture_orientation": 20.0}, "geometry": {"type": "Polygon", "coordinates": [[[-71.01721455, 42.36732916], [-71.01645421, 42.36721838], [-71.01645598, 42.3678298], [-71.01666896, 42.36785707], [-71.01688329, 42.36791426], [-71.01721455, 42.36732916]]]}}, {"type": "Feature", "properties": {"name": "Apron", "surface_type": "CONCRETE", "smoothness": 0.2, "texture_orientation": 80.0}, "geometry": {"type": "Polygon", "coordinates": [[[-71.01752081, 42.3686874], [-71.01839759, 42.36866051], [-71.01830734, 42.36822499], [-71.01744582, 42.36837793], [-71.01750499, 42.36852528], [-71.01752081, 42.3686874]]]}}, {"type": "Feature", "properties": {"name": "Apron", "surface_type": "UNKNOWN_24", "smoothness": 0.2, "texture_orientation": 32.0}, "geometry": {"type": "Polygon", "coordinates": [[[-71.01566945, 42.36515759], [-71.01564887, 42.36518786], [-71.01592345, 42.36531063], [-71.0163178, 42.36485072], [-71.01650975, 42.36493494], [-71.01659938, 42.36482842], [-71.01609231, 42.36461316], [-71.01593216, 42.36466436], [-71.01563703, 42.36501795], [-71.01566945, 42.36515759]]]}}, {"type": "Feature", "properties": {"name": "Apron", "surface_type": "UNKNOWN_24", "smoothness": 0.2, "texture_orientation": 65.0}, "geometry": {"type": "Polygon", "coordinates": [[[-71.02106579, 42.3716433], [-71.02084521, 42.37174151], [-71.02089279, 42.37233268], [-71.02103505, 42.37233467], [-71.02118596, 42.3723129], [-71.02132837, 42.37226582], [-71.02144616, 42.37219924], [-71.02106579, 42.3716433]]]}}, {"type": "Feature", "properties": {"name": "Pad", "surface_type": "CONCRETE", "smoothness": 0.2, "texture_orientation": 42.0}, "geometry": {"type": "Polygon", "coordinates": [[[-71.02253445, 42.37153934], [-71.02244216, 42.37142431], [-71.02232479, 42.371487], [-71.02219254, 42.3715763], [-71.02144616, 42.37219924], [-71.02132837, 42.37226582], [-71.02118596, 42.3723129], [-71.02125258, 42.37244002], [-71.02143867, 42.37237518], [-71.02161301, 42.37227603], [-71.02234462, 42.37165985], [-71.02242594, 42.37160515], [-71.02253445, 42.37153934]]]}}, {"type": "Feature", "properties": {"name": "Terminal Concrete", "surface_type": "CONCRETE", "smoothness": 0.0, "texture_orientation": 121.6}, "geometry": {"type": "Polygon", "coordinates": [[[-71.01485601, 42.36391889], [-71.01475746, 42.36403651], [-71.01585909, 42.36453828], [-71.01595581, 42.3644223], [-71.01485601, 42.36391889]]]}}, {"type": "Feature", "properties": {"name": "Apron", "surface_type": "UNKNOWN_24", "smoothness": 0.2, "texture_orientation": 42.0}, "geometry": {"type": "Polygon", "coordinates": [[[-71.02125692, 42.37270099], [-71.02204495, 42.37204445], [-71.02240038, 42.37173432], [-71.02234462, 42.37165985], [-71.02161301, 42.37227603], [-71.02143867, 42.37237518], [-71.02125258, 42.37244002], [-71.02125692, 42.37270099]]]}}, {"type": "Feature", "properties": {"name": "Concrete", "surface_type": "CONCRETE", "smoothness": 0.2, "texture_orientation": 221.4}, "geometry": {"type": "Polygon", "coordinates": [[[-71.02575603, 42.37186533], [-71.02572052, 42.37183982], [-71.02575114, 42.37181792], [-71.02594202, 42.37168141], [-71.02560002, 42.37143868], [-71.02541874, 42.37157487], [-71.02531854, 42.3715001], [-71.02521226, 42.37158412], [-71.02566247, 42.37188659], [-71.02568125, 42.37187002], [-71.02572032, 42.37189627], [-71.02575603, 42.37186533]]]}}, {"type": "Feature", "properties": {"name": "Pad", "surface_type": "CONCRETE", "smoothness": 0.2, "texture_orientation": 7.0}, "geometry": {"type": "Polygon", "coordinates": [[[-71.02125258, 42.37244002], [-71.02118596, 42.3723129], [-71.02103505, 42.37233467], [-71.02089279, 42.37233268], [-71.02023951, 42.3722617], [-71.02020877, 42.37239798], [-71.02086205, 42.37246896], [-71.02104924, 42.37246925], [-71.02125258, 42.37244002]]]}}, {"type": "Feature", "properties": {"name": "New Taxiway 3", "surface_type": "UNKNOWN_35", "smoothness": 0.0, "texture_orientation": 30.0}, "geometry": {"type": "Polygon", "coordinates": [[[-71.01650975, 42.36493494], [-71.0163178, 42.36485072], [-71.01592345, 42.36531063], [-71.01612182, 42.36539926], [-71.01650975, 42.36493494]]]}}, {"type": "Feature", "properties": {"name": "Apron", "surface_type": "UNKNOWN_26", "smoothness": 0.2, "texture_orientation": 36.0}, "geometry": {"type": "Polygon", "coordinates": [[[-71.01734957, 42.36822712], [-71.01721564, 42.36811031], [-71.01708759, 42.36801444], [-71.01698544, 42.36796435], [-71.01699987, 42.36859044], [-71.01734957, 42.36822712]]]}}, {"type": "Feature", "properties": {"name": "Terminal Concrete", "surface_type": "CONCRETE", "smoothness": 0.2, "texture_orientation": 33.8}, "geometry": {"type": "Polygon", "coordinates": [[[-71.01652351, 42.3689974], [-71.01611414, 42.36945389], [-71.01626641, 42.36953226], [-71.01667892, 42.36907302], [-71.01652351, 42.3689974]]]}}, {"type": "Feature", "properties": {"name": "Pad", "surface_type": "ASPHALT", "smoothness": 0.2, "texture_orientation": 45.3}, "geometry": {"type": "Polygon", "coordinates": [[[-71.02221746, 42.37308165], [-71.0222668, 42.37303876], [-71.02170664, 42.37268068], [-71.02165875, 42.37272249], [-71.02193608, 42.37290249], [-71.02180387, 42.37299588], [-71.02193806, 42.37309271], [-71.02207379, 42.37298945], [-71.02221746, 42.37308165]]]}}, {"type": "Feature", "properties": {"name": "Apron", "surface_type": "UNKNOWN_24", "smoothness": 0.2, "texture_orientation": 120.0}, "geometry": {"type": "Polygon", "coordinates": [[[-71.01556181, 42.36469409], [-71.01563703, 42.36501795], [-71.0158179, 42.36480084], [-71.01556967, 42.36469303], [-71.01556181, 42.36469409]]]}}]}