{"type": "FeatureCollection", "features": [{"type": "Feature", "properties": {"name": "Apron", "surface_type": "UNKNOWN_24", "smoothness": 0.2, "texture_orientation": 135.3}, "geometry": {"type": "Polygon", "coordinates": [[[-71.02615392, 42.37478648], [-71.02641053, 42.37456962], [-71.02648534, 42.37460949], [-71.02658268, 42.37459736], [-71.02686996, 42.37466965], [-71.02720468, 42.3746161], [-71.02732513, 42.37460431], [-71.02747606, 42.37460002], [-71.02759339, 42.3746041], [-71.02774789, 42.37446549], [-71.02813365, 42.37411953], [-71.02804367, 42.37406884], [-71.02745867, 42.37345012], [-71.0274131, 42.37340173], [-71.0272369, 42.37347784], [-71.02584656, 42.37261984], [-71.02645617, 42.37206563], [-71.02647755, 42.37204873], [-71.02635905, 42.37198006], [-71.02660662, 42.37176185], [-71.02671047, 42.37154927], [-71.02663942, 42.37148443], [-71.02617761, 42.37187039], [-71.02609399, 42.3718972], [-71.02596787, 42.37197333], [-71.02575114, 42.37181792], [-71.02572052, 42.37183982], [-71.02575603, 42.37186533], [-71.02572032, 42.37189627], [-71.02568125, 42.37187002], [-71.02566247, 42.37188659], [-71.02521226, 42.37158412], [-71.02531854, 42.3715001], [-71.02521196, 42.37141451], [-71.02537158, 42.37129336], [-71.02537304, 42.37125262], [-71.02511403, 42.37105562], [-71.02503512, 42.37105495], [-71.02489415, 42.37114112], [-71.02485828, 42.37114257], [-71.02461701, 42.37096225], [-71.02479637, 42.37082202], [-71.02452123, 42.37062003], [-71.02447596, 42.37061488], [-71.02440805, 42.37062775], [-71.02431227, 42.37071523], [-71.02427809, 42.37072449], [-71.02400578, 42.37059307], [-71.02392764, 42.37057934], [-71.024726, 42.37118447], [-71.02432555, 42.37147308], [-71.02378295, 42.37105701], [-71.02353143, 42.37095847], [-71.02324449, 42.37088299], [-71.02259405, 42.37078314], [-71.02233616, 42.37086293], [-71.02205052, 42.37098949], [-71.02244216, 42.37142431], [-71.02253445, 42.37153934], [-71.02242594, 42.37160515], [-71.02234462, 42.37165985], [-71.02240038, 42.37173432], [-71.02462672, 42.37315408], [-71.02425296, 42.37345724], [-71.0244191, 42.37369371], [-71.02615392, 42.37478648]]]}}, {"type": "Feature", "properties": {"name": "Apron", "surface_type": "CONCRETE", "smoothness": 0.2, "texture_orientation": 0.0}, "geometry": {"type": "Polygon", "coordinates": [[[-71.02481783, 42.36094028], [-71.02401042, 42.36059299], [-71.02377806, 42.36088645], [-71.02402423, 42.36122312], [-71.02383366, 42.36350931], [-71.02320602, 42.36385562], [-71.02310433, 42.36385164], [-71.0225314, 42.3645567], [-71.02262534, 42.3655145], [-71.02283819, 42.3656239], [-71.02392372, 42.36589195], [-71.02394211986666, 42.36589381786666], [-71.02395953813334, 42.36589472813334], [-71.02397597480001, 42.365894680800004], [-71.02399142986668, 42.36589367586667], [-71.02400590333335, 42.36589171333334], [-71.0240193952, 42.36588879320001], [-71.02403190546667, 42.365884915466665], [-71.02404343413335, 42.36588008013334], [-71.02405398120001, 42.3658742872], [-71.02406354666667, 42.36586753666667], [-71.02407213053334, 42.36585982853333], [-71.0240797328, 42.365851162800006], [-71.02408635346667, 42.36584153946667], [-71.02409199253334, 42.36583095853334], [-71.02409665, 42.36581942], [-71.02409923764445, 42.36577820755556], [-71.02410342991111, 42.36573840222223], [-71.02410922680001, 42.365700004], [-71.02411662831112, 42.365663012888895], [-71.02412563444446, 42.3656274288889], [-71.0241362452, 42.365593252], [-71.02414846057778, 42.36556048222222], [-71.02416228057777, 42.36552911955555], [-71.0241777052, 42.365499164], [-71.02419473444445, 42.36547061555556], [-71.02421336831111, 42.36544347422222], [-71.02423360680001, 42.36541774], [-71.02425544991112, 42.36539341288889], [-71.02427889764445, 42.365370492888886], [-71.02430395, 42.36534898], [-71.02433246377777, 42.365322505066665], [-71.02436083444447, 42.365297128266675], [-71.02438906200001, 42.36527284960002], [-71.02441714644445, 42.36524966906668], [-71.02444508777779, 42.36522758666667], [-71.024472886, 42.3652066024], [-71.02450054111111, 42.36518671626668], [-71.02452805311111, 42.36516792826667], [-71.024555422, 42.365150238400005], [-71.02458264777778, 42.36513364666668], [-71.02460973044444, 42.365118153066675], [-71.02463667, 42.36510375760001], [-71.02466346644445, 42.36509046026667], [-71.02469011977777, 42.36507826106667], [-71.02471663, 42.36506716], [-71.02474425977779, 42.365058667199996], [-71.02477046377777, 42.36504901813334], [-71.02479524200001, 42.3650382128], [-71.02481859444444, 42.36502625120001], [-71.02484052111112, 42.36501313333334], [-71.024861022, 42.36499885920001], [-71.02488009711111, 42.3649834288], [-71.02489774644445, 42.36496684213334], [-71.02491397, 42.364949099200004], [-71.02492876777778, 42.3649302], [-71.02494213977778, 42.36491014453333], [-71.024954086, 42.36488893280001], [-71.02496460644446, 42.3648665648], [-71.02497370111112, 42.36484304053334], [-71.02498137, 42.36481836], [-71.02524984, 42.3617244], [-71.02513417, 42.36171807], [-71.02514329, 42.36158328], [-71.02469075, 42.36141575], [-71.02481783, 42.36094028]]]}}, {"type": "Feature", "properties": {"name": "Apron", "surface_type": "ASPHALT", "smoothness": 0.2, "texture_orientation": 0.0}, "geometry": {"type": "Polygon", "coordinates": [[[-71.02196173, 42.36126775], [-71.02216265, 42.36185047], [-71.0218217, 42.36226101], [-71.02030505, 42.36253504], [-71.02035987, 42.36274076], [-71.01994407, 42.363252], [-71.02008336, 42.36331968], [-71.02134258, 42.36304954], [-71.02310433, 42.36385164], [-71.02320602, 42.36385562], [-71.02383366, 42.36350931], [-71.02402379, 42.36122326], [-71.02377806, 42.36088645], [-71.02401042, 42.36059299], [-71.02410072, 42.3604682], [-71.02387546, 42.36036875], [-71.02392561, 42.36031009], [-71.02343672, 42.36010321], [-71.02326331, 42.359955], [-71.02301468, 42.36009704], [-71.02285314, 42.36029047], [-71.02268258, 42.36051381], [-71.02271298537777, 42.360527466666674], [-71.02274013751111, 42.36054198066666], [-71.02276403639999, 42.360557352], [-71.02278468204445, 42.360573580666674], [-71.02280207444444, 42.360590666666674], [-71.0228162136, 42.36060861], [-71.0228270995111, 42.360627410666666], [-71.02283473217777, 42.360647068666665], [-71.02283911159999, 42.360667584], [-71.02284023777777, 42.360688956666664], [-71.0228381107111, 42.36071118666666], [-71.0228327304, 42.360734274], [-71.02282409684445, 42.36075821866667], [-71.02281221004444, 42.360783020666666], [-71.02279707, 42.36080868], [-71.0227785342222, 42.360829667733334], [-71.02275871622223, 42.360848318933336], [-71.02273761600001, 42.36086463360001], [-71.02271523355557, 42.36087861173334], [-71.02269156888889, 42.36089025333334], [-71.022666622, 42.3608995584], [-71.02264039288889, 42.360906526933334], [-71.02261288155555, 42.360911158933334], [-71.022584088, 42.360913454400006], [-71.02255401222223, 42.360913413333336], [-71.02252265422223, 42.36091103573333], [-71.022490014, 42.360906321600005], [-71.02245609155555, 42.36089927093333], [-71.0224208868889, 42.36088988373333], [-71.0223844, 42.36087816], [-71.02219387, 42.36111547], [-71.02196173, 42.36126775]]]}}, {"type": "Feature", "properties": {"name": "Apron", "surface_type": "CONCRETE", "smoothness": 0.2, "texture_orientation": 75.0}, "geometry": {"type": "Polygon", "coordinates": [[[-71.01719213, 42.361295], [-71.01639827, 42.36109123], [-71.01629746, 42.36123266], [-71.01637424, 42.36145917], [-71.01591455, 42.36154117], [-71.01611157, 42.36213724], [-71.01656553, 42.36206482], [-71.01668456, 42.36244993], [-71.0153646, 42.36269799], [-71.01501605, 42.36313615], [-71.01523947, 42.36383459], [-71.01595241, 42.36416206], [-71.01708833, 42.36396604], [-71.0172892, 42.36438815], [-71.01832318, 42.36417749], [-71.01752407, 42.36158672], [-71.01719213, 42.361295]]]}}, {"type": "Feature", "properties": {"name": "Apron", "surface_type": "CONCRETE", "smoothness": 0.2, "texture_orientation": 32.0}, "geometry": {"type": "Polygon", "coordinates": [[[-71.01752081, 42.3686874], [-71.01689167, 42.36945292], [-71.01680194, 42.36960414], [-71.01676071, 42.36976094], [-71.0167576, 42.36991641], [-71.01679123, 42.37004206], [-71.01687031, 42.37019627], [-71.01696818, 42.37032991], [-71.0170988, 42.37043715], [-71.01723232, 42.3705229], [-71.0198564, 42.37170858], [-71.02004718, 42.3717705], [-71.02023272, 42.37180455], [-71.02044384, 42.37181059], [-71.02066432, 42.3717945], [-71.02084521, 42.37174151], [-71.02106579, 42.3716433], [-71.02120486, 42.37154558], [-71.02137824, 42.3713616], [-71.0214669, 42.3712381], [-71.02062137, 42.37085072], [-71.01808343, 42.36968796], [-71.01806566, 42.36943523], [-71.01839759, 42.36866051], [-71.01752081, 42.3686874]]]}}, {"type": "Feature", "properties": {"name": "Apron", "surface_type": "CONCRETE", "smoothness": 0.2, "texture_orientation": 26.0}, "geometry": {"type": "Polygon", "coordinates": [[[-71.0172892, 42.36438815], [-71.01732374, 42.36464973], [-71.01727435, 42.36486454], [-71.01727025, 42.36486341], [-71.01723275, 42.36492071], [-71.01718292, 42.36490433], [-71.01711705, 42.36500756], [-71.0166289, 42.36479314], [-71.01612182, 42.36539926], [-71.01564887, 42.36518786], [-71.01566945, 42.36515759], [-71.01556181, 42.36469409], [-71.01486403, 42.36437799], [-71.01468576, 42.36441315], [-71.01467496, 42.36437359], [-71.01434542, 42.36444512], [-71.01433332, 42.36446399], [-71.01435046, 42.36447807], [-71.01338256, 42.36594629], [-71.01323569, 42.36644294], [-71.01389495, 42.36674513], [-71.01423615, 42.36634109], [-71.01420456, 42.36601696], [-71.01460712, 42.36551742], [-71.01608784, 42.36617385], [-71.01624458, 42.36615423], [-71.0168304, 42.3660809], [-71.01766673, 42.36563566], [-71.0181773, 42.36492188], [-71.01842495, 42.36452756], [-71.01832318, 42.36417749], [-71.0172892, 42.36438815]]]}}, {"type": "Feature", "properties": {"name": "Apron", "surface_type": "CONCRETE", "smoothness": 0.2, "texture_orientation": 50.0}, "geometry": {"type": "Polygon", "coordinates": [[[-71.01645598, 42.3678298], [-71.01645421, 42.36721838], [-71.01600244, 42.36705853], [-71.01595408, 42.3664131], [-71.01518732, 42.36662072], [-71.0152109, 42.36685452], [-71.01512544, 42.36685431], [-71.01513294, 42.36695135], [-71.0141895, 42.36712348], [-71.01368551, 42.36716261], [-71.01350465, 42.36729341], [-71.01353517, 42.3678854], [-71.01493333, 42.36903088], [-71.01587187, 42.36904888], [-71.01647746, 42.36863848], [-71.01594808, 42.36820269], [-71.01646343, 42.36786659], [-71.01645598, 42.3678298]]]}}, {"type": "Feature", "properties": {"name": "Apron", "surface_type": "CONCRETE", "smoothness": 0.2, "texture_orientation": 77.0}, "geometry": {"type": "Polygon", "coordinates": [[[-71.01946307, 42.36266363], [-71.02030505, 42.36253504], [-71.0218217, 42.36226101], [-71.02216265, 42.36185047], [-71.02196173, 42.36126775], [-71.02124983, 42.36094528], [-71.02020717, 42.36112036], [-71.01999904, 42.36048767], [-71.01967622, 42.36053976], [-71.01908211, 42.36106541], [-71.0191524, 42.36131212], [-71.01906983, 42.36132732], [-71.01946307, 42.36266363]]]}}, {"type": "Feature", "properties": {"name": "Apron", "surface_type": "CONCRETE", "smoothness": 0.2, "texture_orientation": 32.0}, "geometry": {"type": "Polygon", "coordinates": [[[-71.02262534, 42.3655145], [-71.0225314, 42.3645567], [-71.02310433, 42.36385164], [-71.02134258, 42.36304954], [-71.02008336, 42.36331968], [-71.01994407, 42.363252], [-71.0195628, 42.36369039], [-71.01971579, 42.36407375], [-71.01974492546667, 42.36406979582222], [-71.01977349453334, 42.3640667972889], [-71.0198014972, 42.36406475440001], [-71.01982893346667, 42.36406366715556], [-71.01985580333334, 42.36406353555556], [-71.0198821068, 42.3640643596], [-71.01990784386668, 42.36406613928889], [-71.01993301453334, 42.36406887462223], [-71.0199576188, 42.364072565600004], [-71.01998165666666, 42.36407721222223], [-71.02000512813333, 42.364082814488896], [-71.0200280332, 42.3640893724], [-71.02005037186666, 42.36409688595556], [-71.02007214413334, 42.36410535515556], [-71.02009335, 42.36411478], [-71.02242985, 42.36514819], [-71.02262534, 42.3655145]]]}}, {"type": "Feature", "properties": {"name": "Cargo Concrete", "surface_type": "CONCRETE", "smoothness": 0.0, "texture_orientation": 120.1}, "geometry": {"type": "Polygon", "coordinates": [[[-71.01948836, 42.35747675], [-71.01920419, 42.35780871], [-71.01914953, 42.3577867], [-71.01894367, 42.35804441], [-71.02326423, 42.35995541], [-71.0237636, 42.35934447], [-71.01954403, 42.357501], [-71.01948836, 42.35747675]]]}}, {"type": "Feature", "properties": {"name": "E/K", "surface_type": "ASPHALT", "smoothness": 0.2, "texture_orientation": 120.0}, "geometry": {"type": "Polygon", "coordinates": [[[-71.02219387, 42.36111547], [-71.0223844, 42.36087816], [-71.02190029, 42.36066806], [-71.02187461124444, 42.360650737777775], [-71.02185190564445, 42.360633051111115], [-71.02183217320001, 42.360615], [-71.02181541391113, 42.360596584444444], [-71.02180162777779, 42.36057780444445], [-71.0217908148, 42.36055866], [-71.0217829749778, 42.36053915111111], [-71.02177810831111, 42.360519277777776], [-71.02177621480001, 42.36049904], [-71.02177729444446, 42.360478437777786], [-71.02178134724446, 42.36045747111111], [-71.02178837320001, 42.36043614], [-71.02179837231112, 42.360414444444444], [-71.02181134457778, 42.360392384444445], [-71.02182729, 42.36036996], [-71.02184258013332, 42.360353482933334], [-71.02185927986667, 42.3603387504], [-71.02187738920001, 42.3603257624], [-71.02189690813334, 42.36031451893333], [-71.02191783666669, 42.36030502000001], [-71.0219401748, 42.360297265599996], [-71.02196392253335, 42.36029125573333], [-71.02198907986667, 42.3602869904], [-71.02201564680001, 42.3602844696], [-71.02204362333333, 42.36028369333333], [-71.02207300946668, 42.360284661600005], [-71.0221038052, 42.3602873744], [-71.02213601053333, 42.360291831733335], [-71.02216962546667, 42.360298033599996], [-71.02220465, 42.36030598], [-71.02268258, 42.36051381], [-71.02285314, 42.36029047], [-71.01910477, 42.35863144], [-71.01880708, 42.3585196], [-71.01849606, 42.35842071], [-71.01838428, 42.35867444], [-71.01849553, 42.35870567], [-71.01883062, 42.35881506], [-71.02014428, 42.35939662], [-71.02017110217777, 42.35941419902222], [-71.02019476604445, 42.359432106755555], [-71.02021527160001, 42.3594503432], [-71.02023261884445, 42.35946890835556], [-71.02024680777778, 42.359487802222226], [-71.0202578384, 42.3595070248], [-71.0202657107111, 42.359526576088896], [-71.02027042471111, 42.35954645608889], [-71.0202719804, 42.359566664800006], [-71.02027037777778, 42.35958720222223], [-71.02026561684444, 42.359608068355556], [-71.0202576976, 42.359629263200006], [-71.02024662004445, 42.35965078675556], [-71.02023238417777, 42.35967263902222], [-71.02021499, 42.35969482], [-71.02019760377777, 42.35971407142222], [-71.02017924244444, 42.359731079022225], [-71.020159906, 42.3597458428], [-71.02013959444446, 42.35975836275556], [-71.02011830777779, 42.359768638888895], [-71.020096046, 42.3597766712], [-71.02007280911111, 42.359782459688894], [-71.02004859711111, 42.359786004355556], [-71.02002341, 42.359787305199994], [-71.01999724777778, 42.35978636222222], [-71.01997011044445, 42.35978317542222], [-71.019941998, 42.359777744800006], [-71.01991291044445, 42.35977007035556], [-71.01988284777778, 42.359760152088896], [-71.01985181, 42.35974799], [-71.01881264, 42.35929498], [-71.01847276, 42.35914364], [-71.01831071, 42.3590985], [-71.01820979, 42.35907039], [-71.01809282, 42.35933549], [-71.01828843, 42.35938968], [-71.01848607, 42.35947006], [-71.02219387, 42.36111547]], [[-71.02061596, 42.36009988], [-71.02059210235556, 42.36008430928889], [-71.02057092942222, 42.36006826382223], [-71.02055244120001, 42.3600517436], [-71.0205366376889, 42.360034748622226], [-71.0205235188889, 42.3600172788889], [-71.0205130848, 42.359999334399994], [-71.02050533542223, 42.35998091515555], [-71.02050027075556, 42.35996202115555], [-71.0204978908, 42.359942652399994], [-71.02049819555556, 42.35992280888889], [-71.02050118502223, 42.35990249062222], [-71.02050685920001, 42.3598816976], [-71.02051521808889, 42.35986042982222], [-71.0205262616889, 42.35983868728889], [-71.02053999, 42.35981647], [-71.02055457533334, 42.35979759973333], [-71.02057065933333, 42.359780786266676], [-71.02058824200002, 42.3597660296], [-71.02060732333334, 42.35975332973334], [-71.02062790333333, 42.35974268666668], [-71.020649982, 42.3597341004], [-71.02067355933333, 42.35972757093333], [-71.02069863533333, 42.35972309826666], [-71.02072521, 42.3597206824], [-71.02075328333333, 42.359720323333335], [-71.02078285533332, 42.359722021066666], [-71.02081392600002, 42.3597257756], [-71.02084649533333, 42.35973158693333], [-71.02088056333334, 42.359739455066666], [-71.02091613, 42.35974938], [-71.02142197, 42.35997529], [-71.0214481557778, 42.35999167791111], [-71.02147137711113, 42.360008345644445], [-71.021491634, 42.3600252932], [-71.02150892644445, 42.36004252057778], [-71.02152325444446, 42.36006002777778], [-71.021534618, 42.36007781479999], [-71.02154301711111, 42.36009588164443], [-71.02154845177778, 42.360114228311105], [-71.021550922, 42.3601328548], [-71.02155042777778, 42.36015176111111], [-71.02154696911111, 42.36017094724444], [-71.02154054600001, 42.3601904132], [-71.02153115844445, 42.36021015897778], [-71.02151880644445, 42.36023018457777], [-71.02150349, 42.36025049], [-71.02148613955555, 42.360269906977784], [-71.02146768555555, 42.360287267244445], [-71.021448128, 42.36030257080001], [-71.02142746688891, 42.360315817644455], [-71.02140570222222, 42.360327007777784], [-71.021382834, 42.3603361412], [-71.02135886222221, 42.36034321791111], [-71.02133378688889, 42.36034823791111], [-71.021307608, 42.3603512012], [-71.02128032555555, 42.36035210777778], [-71.02125193955555, 42.36035095764444], [-71.02122245, 42.3603477508], [-71.02119185688889, 42.360342487244445], [-71.02116016022222, 42.36033516697778], [-71.02112736, 42.36032579], [-71.02061596, 42.36009988]]]}}, {"type": "Feature", "properties": {"name": "Apron", "surface_type": "ASPHALT", "smoothness": 0.2, "texture_orientation": 135.3}, "geometry": {"type": "Polygon", "coordinates": [[[-71.01992911, 42.37209072], [-71.0198564, 42.37170858], [-71.01723232, 42.3705229], [-71.0170988, 42.37043715], [-71.01696818, 42.37032991], [-71.01493333, 42.36903088], [-71.01353517, 42.3678854], [-71.01350465, 42.36729341], [-71.01320476, 42.36731359], [-71.01257219, 42.36735615], [-71.01257511813334, 42.36739033159999], [-71.01258080653334, 42.367424545733336], [-71.01258925520001, 42.3674587924], [-71.01260046413334, 42.3674930716], [-71.01261443333334, 42.36752738333334], [-71.0126311628, 42.3675617276], [-71.01265065253332, 42.3675961044], [-71.01267290253332, 42.36763051373333], [-71.0126979128, 42.367664955600006], [-71.01272568333334, 42.36769943], [-71.01275621413333, 42.367733936933334], [-71.0127895052, 42.3677684764], [-71.01282555653333, 42.3678030484], [-71.01286436813334, 42.36783765293333], [-71.01290594, 42.36787229], [-71.01496365, 42.36940149], [-71.01524502, 42.36956498], [-71.01670856, 42.3706606], [-71.01695834, 42.37080729], [-71.0192812, 42.37192756], [-71.01932025062221, 42.37194584302223], [-71.01935989315554, 42.371963068088895], [-71.01940012760001, 42.37197923520001], [-71.01944095395555, 42.371994344355564], [-71.01948237222223, 42.37200839555557], [-71.0195243824, 42.37202138880001], [-71.01956698448888, 42.37203332408889], [-71.01961017848889, 42.37204420142223], [-71.0196539644, 42.37205402080001], [-71.01969834222223, 42.37206278222223], [-71.01974331195555, 42.37207048568889], [-71.0197888736, 42.3720771312], [-71.01983502715555, 42.37208271875556], [-71.01988177262223, 42.37208724835556], [-71.01992911, 42.37209072]]]}}, {"type": "Feature", "properties": {"name": "Apron", "surface_type": "ASPHALT", "smoothness": 0.2, "texture_orientation": 20.0}, "geometry": {"type": "Polygon", "coordinates": [[[-71.01324197, 42.36564275], [-71.01338256, 42.36594629], [-71.01435046, 42.36447807], [-71.01433332, 42.36446399], [-71.01434542, 42.36444512], [-71.01501605, 42.36313615], [-71.01579989, 42.36155583], [-71.01591455, 42.36154117], [-71.0163674, 42.36146142], [-71.01629746, 42.36123266], [-71.01639661, 42.36109373], [-71.01689492, 42.36007333], [-71.01664154, 42.36000715], [-71.01679399, 42.35968421], [-71.01689321, 42.35933517], [-71.01649312, 42.35925236], [-71.01392207, 42.36457669], [-71.01324197, 42.36564275]]]}}, {"type": "Feature", "properties": {"name": "Apron", "surface_type": "ASPHALT", "smoothness": 0.2, "texture_orientation": 120.0}, "geometry": {"type": "Polygon", "coordinates": [[[-71.02285314, 42.36029047], [-71.02301468, 42.36009704], [-71.02326331, 42.359955], [-71.01894367, 42.35804441], [-71.01873502, 42.35799858], [-71.0184975, 42.35804352], [-71.01836885, 42.35800663], [-71.01829628, 42.35777782], [-71.01801215, 42.35782259], [-71.01804338, 42.35792537], [-71.01797872, 42.35793529], [-71.01793615, 42.35782678], [-71.01745343, 42.35791366], [-71.01741594, 42.35801404], [-71.01735124, 42.35823489], [-71.01820103, 42.35836392], [-71.01840793, 42.35840375], [-71.01849606, 42.35842071], [-71.01880708, 42.3585196], [-71.01910477, 42.35863144], [-71.02285314, 42.36029047]]]}}, {"type": "Feature", "properties": {"name": "Apron", "surface_type": "CONCRETE", "smoothness": 0.2, "texture_orientation": 50.0}, "geometry": {"type": "Polygon", "coordinates": [[[-71.02137824, 42.3713616], [-71.02143267, 42.37137413], [-71.02205052, 42.37098949], [-71.02233616, 42.37086293], [-71.02259405, 42.37078314], [-71.02324449, 42.37088299], [-71.02353143, 42.37095847], [-71.02378018, 42.37105479], [-71.02432555, 42.37147308], [-71.024726, 42.37118447], [-71.02392764, 42.37057934], [-71.02400578, 42.37059307], [-71.02413294, 42.37042047], [-71.02359294, 42.37023286], [-71.0234953, 42.37027586], [-71.02343689, 42.37040815], [-71.02310416, 42.37036408], [-71.02278486, 42.37022857], [-71.02274426, 42.370221], [-71.02275879, 42.3700429], [-71.02213965, 42.37007035], [-71.02134344, 42.37026832], [-71.02062137, 42.37085072], [-71.0214669, 42.3712381], [-71.02137824, 42.3713616]]]}}, {"type": "Feature", "properties": {"name": "Apron", "surface_type": "ASPHALT", "smoothness": 0.2, "texture_orientation": 120.0}, "geometry": {"type": "Polygon", "coordinates": [[[-71.02196173, 42.36126775], [-71.02219387, 42.36111547], [-71.01848607, 42.35947006], [-71.01828843, 42.35938968], [-71.01809282, 42.35933549], [-71.01683587, 42.35913048], [-71.01673608, 42.35912184], [-71.01663536, 42.35914035], [-71.0165334, 42.35919583], [-71.01649312, 42.35925236], [-71.01689321, 42.35933517], [-71.01679399, 42.35968421], [-71.01689421, 42.35971072], [-71.01699094, 42.35970446], [-71.01799567, 42.35966671], [-71.01967622, 42.36053976], [-71.01999904, 42.36048767], [-71.02020717, 42.36112036], [-71.02124983, 42.36094528], [-71.02196173, 42.36126775]]]}}, {"type": "Feature", "properties": {"name": "Apron", "surface_type": "UNKNOWN_24", "smoothness": 0.2, "texture_orientation": 120.0}, "geometry": {"type": "Polygon", "coordinates": [[[-71.01659938, 42.36482842], [-71.0166289, 42.36479314], [-71.01711705, 42.36500756], [-71.01718292, 42.36490433], [-71.01723275, 42.36492071], [-71.01727025, 42.36486341], [-71.01727435, 42.36486454], [-71.01732374, 42.36464973], [-71.0172892, 42.36438815], [-71.01719278, 42.36418639], [-71.01708833, 42.36396604], [-71.01595241, 42.36416206], [-71.01523947, 42.36383459], [-71.01501605, 42.36313615], [-71.01434542, 42.36444512], [-71.01467496, 42.36437359], [-71.01468576, 42.36441315], [-71.01486403, 42.36437799], [-71.01556181, 42.36469409], [-71.01556967, 42.36469303], [-71.0158179, 42.36480084], [-71.01593209, 42.36466433], [-71.01609231, 42.36461316], [-71.01659938, 42.36482842]], [[-71.01475746, 42.36403651], [-71.01485601, 42.36391889], [-71.01594335, 42.36442546], [-71.01585909, 42.36453828], [-71.01475746, 42.36403651]]]}}, {"type": "Feature", "properties": {"name": "Concrete", "surface_type": "CONCRETE", "smoothness": 0.2, "texture_orientation": 130.6}, "geometry": {"type": "Polygon", "coordinates": [[[-71.02522034, 42.37636958], [-71.02435519, 42.37581308], [-71.02361873, 42.37643941], [-71.02354319, 42.37639027], [-71.02371873, 42.37623741], [-71.02375237, 42.37625999], [-71.02431768, 42.37578895], [-71.02426202, 42.37575315], [-71.02420032, 42.37571114], [-71.02407615, 42.37582088], [-71.02407225, 42.3757731], [-71.02411633, 42.37577243], [-71.02410945, 42.37573419], [-71.02406698, 42.37573618], [-71.02406296, 42.37563453], [-71.02394962, 42.37554226], [-71.02372433, 42.37539593], [-71.02355782, 42.37539754], [-71.023136, 42.37576849], [-71.02332983, 42.37590767], [-71.02300515, 42.37619157], [-71.02333606, 42.37644627], [-71.02343968, 42.37649565], [-71.02352362, 42.37651447], [-71.02359441, 42.37650684], [-71.02365317, 42.37649262], [-71.02370643, 42.37646984], [-71.02378555, 42.37642248], [-71.0245569, 42.376923], [-71.02522034, 42.37636958]]]}}]}