{"type": "FeatureCollection", "name": "EGKK.boundary", "crs": {"type": "name", "properties": {"name": "urn:ogc:def:crs:OGC:1.3:CRS84"}}, "features": [{"type": "Feature", "properties": {"name": "Airport Boundary 55"}, "geometry": {"type": "Polygon", "coordinates": [[[-0.21419391, 51.14836511], [-0.21508885, 51.14813974], [-0.21547814, 51.14787767], [-0.21539556, 51.14657747], [-0.21523366, 51.14510011], [-0.2149469, 51.14415939], [-0.2139089, 51.14321767], [-0.21210647, 51.14255611], [-0.20864037, 51.14268413], [-0.20852848, 51.14387845], [-0.20481565, 51.14361817], [-0.20001986, 51.14421355], [-0.1996758, 51.143681], [-0.1942977, 51.144584], [-0.1826647, 51.1458566], [-0.18326498, 51.14423879], [-0.16742424, 51.14612903], [-0.16421984, 51.14688578], [-0.16276205, 51.14794256], [-0.16207767, 51.14984414], [-0.15837298, 51.14981105], [-0.15773904, 51.15170712], [-0.15376825, 51.1502702], [-0.15026321, 51.14995565], [-0.14888231, 51.15528504], [-0.15108733, 51.15948385], [-0.16126675, 51.15837564], [-0.16262996, 51.15935427], [-0.17016466, 51.16174397], [-0.17252061, 51.16176138], [-0.1769964, 51.1646345], [-0.18423759, 51.16362107], [-0.18491217, 51.16326254], [-0.18563798, 51.16231914], [-0.18816774, 51.16085346], [-0.19449212, 51.16156179], [-0.1965014, 51.1585238], [-0.19938137, 51.15757616], [-0.19873443, 51.15596623], [-0.20144156, 51.15340946], [-0.21160395, 51.15020668], [-0.21419391, 51.14836511]]]}}]}