{"type": "FeatureCollection", "features": [{"type": "Feature", "properties": {"name": "Holds Sierra & compass base", "painted_line_type": "RUNWAY_HOLD_WITH_BLACK_BORDER", "lighting_line_type": null}, "geometry": {"type": "LineString", "coordinates": [[-0.18667118, 51.15189501], [-0.18734557, 51.151805]]}}, {"type": "Feature", "properties": {"name": "Linear Feature 13", "painted_line_type": "ILS_HOLD", "lighting_line_type": "AMBER_UNIDIRECTIONAL_LIGHTS"}, "geometry": {"type": "LineString", "coordinates": [[-0.1678761, 51.15266311], [-0.16902553, 51.1525121], [-0.16885957, 51.15201136]]}}, {"type": "Feature", "properties": {"name": "Linear Feature 28", "painted_line_type": "ILS_HOLD", "lighting_line_type": "AMBER_UNIDIRECTIONAL_LIGHTS"}, "geometry": {"type": "LineString", "coordinates": [[-0.20770232, 51.14702085], [-0.20638435, 51.14720471]]}}, {"type": "Feature", "properties": {"name": "Holds", "painted_line_type": "RUNWAY_HOLD", "lighting_line_type": "AMBER_UNIDIRECTIONAL_PULSATING_LIGHTS"}, "geometry": {"type": "LineString", "coordinates": [[-0.21295638, 51.14601778], [-0.21335904, 51.14596008], [-0.2134024, 51.14608088], [-0.21300698, 51.14614118], [-0.21299967, 51.14628184]]}}, {"type": "Feature", "properties": {"name": "Holds", "painted_line_type": "ILS_HOLD", "lighting_line_type": "AMBER_UNIDIRECTIONAL_LIGHTS"}, "geometry": {"type": "LineString", "coordinates": [[-0.21299967, 51.14628184], [-0.21349024, 51.1462134], [-0.21002235, 51.14669719], [-0.20948474, 51.14677219], [-0.20991694, 51.14654045]]}}, {"type": "Feature", "properties": {"name": "Holds", "painted_line_type": "RUNWAY_HOLD", "lighting_line_type": "AMBER_UNIDIRECTIONAL_PULSATING_LIGHTS"}, "geometry": {"type": "LineString", "coordinates": [[-0.20991694, 51.14654045], [-0.2094396, 51.14660475], [-0.20934996, 51.1463653], [-0.20975141, 51.14628966], [-0.20760734, 51.14687404], [-0.20653301, 51.14703343], [-0.20654351, 51.14696228], [-0.20665237, 51.14676706]]}}, {"type": "Feature", "properties": {"name": "Holds", "painted_line_type": "RUNWAY_HOLD", "lighting_line_type": "AMBER_UNIDIRECTIONAL_PULSATING_LIGHTS"}, "geometry": {"type": "LineString", "coordinates": [[-0.20664198, 51.14686303], [-0.20730118, 51.14676176], [-0.20377991, 51.1477302], [-0.20420538, 51.14765806]]}}, {"type": "Feature", "properties": {"name": "Holds", "painted_line_type": "RUNWAY_HOLD", "lighting_line_type": "AMBER_UNIDIRECTIONAL_PULSATING_LIGHTS"}, "geometry": {"type": "LineString", "coordinates": [[-0.20410066, 51.14767529], [-0.20415796, 51.14748125], [-0.19869656, 51.14842954], [-0.19975093, 51.14828411], [-0.19966564, 51.1482934], [-0.19974462, 51.14802592], [-0.18299685, 51.1503337]]}}, {"type": "Feature", "properties": {"name": "Holds", "painted_line_type": "RUNWAY_HOLD_WITH_BLACK_BORDER", "lighting_line_type": "AMBER_UNIDIRECTIONAL_PULSATING_LIGHTS"}, "geometry": {"type": "LineString", "coordinates": [[-0.18299685, 51.1503337], [-0.18321075, 51.15050186], [-0.17734123, 51.15095964], [-0.17784454, 51.15091911], [-0.17118768, 51.15170019], [-0.1725157, 51.15152593], [-0.16785644, 51.15221894]]}}, {"type": "Feature", "properties": {"name": "Holds", "painted_line_type": "RUNWAY_HOLD", "lighting_line_type": "AMBER_UNIDIRECTIONAL_PULSATING_LIGHTS"}, "geometry": {"type": "LineString", "coordinates": [[-0.16785644, 51.15221894], [-0.1688787, 51.15207609], [-0.16624986, 51.15227706]]}}, {"type": "Feature", "properties": {"name": "Holds", "painted_line_type": "RUNWAY_HOLD_WITH_BLACK_BORDER", "lighting_line_type": "AMBER_UNIDIRECTIONAL_PULSATING_LIGHTS"}, "geometry": {"type": "LineString", "coordinates": [[-0.16624986, 51.15227706], [-0.16665198, 51.15222105], [-0.16675675, 51.15248467]]}}, {"type": "Feature", "properties": {"name": "Holds", "painted_line_type": "ILS_HOLD", "lighting_line_type": "AMBER_UNIDIRECTIONAL_LIGHTS"}, "geometry": {"type": "LineString", "coordinates": [[-0.16675675, 51.15248467], [-0.16623221, 51.15255624]]}}, {"type": "Feature", "properties": {"name": "Holds", "painted_line_type": "RUNWAY_HOLD", "lighting_line_type": "AMBER_UNIDIRECTIONAL_PULSATING_LIGHTS"}, "geometry": {"type": "LineString", "coordinates": [[-0.16446714, 51.15268722], [-0.16494166, 51.15261811]]}}, {"type": "Feature", "properties": {"name": "Holds", "painted_line_type": "RUNWAY_HOLD_WITH_BLACK_BORDER", "lighting_line_type": "AMBER_UNIDIRECTIONAL_PULSATING_LIGHTS"}, "geometry": {"type": "LineString", "coordinates": [[-0.16414697, 51.14970432], [-0.16385623, 51.14949065], [-0.17699379, 51.14870465]]}}, {"type": "Feature", "properties": {"name": "Holds", "painted_line_type": "ILS_HOLD", "lighting_line_type": "AMBER_UNIDIRECTIONAL_LIGHTS"}, "geometry": {"type": "LineString", "coordinates": [[-0.17699379, 51.14870465], [-0.17665697, 51.1487529], [-0.17708647, 51.14896284]]}}, {"type": "Feature", "properties": {"name": "Holds", "painted_line_type": "RUNWAY_HOLD", "lighting_line_type": "AMBER_UNIDIRECTIONAL_PULSATING_LIGHTS"}, "geometry": {"type": "LineString", "coordinates": [[-0.17708647, 51.14896284], [-0.17675322, 51.14900691]]}}, {"type": "Feature", "properties": {"name": "AN Z edge ring", "painted_line_type": "OTHER_HOLD", "lighting_line_type": null}, "geometry": {"type": "LineString", "coordinates": [[-0.2108735, 51.14788731], [-0.21095414, 51.14813634], [-0.20510156, 51.14861495], [-0.20521394, 51.14892675], [-0.20603441, 51.14831615]]}}, {"type": "Feature", "properties": {"name": "AN Z edge ring", "painted_line_type": "RUNWAY_HOLD_WITH_BLACK_BORDER", "lighting_line_type": null}, "geometry": {"type": "LineString", "coordinates": [[-0.19544723, 51.15069943], [-0.19596058, 51.15062994]]}}, {"type": "Feature", "properties": {"name": "AN Z edge ring", "painted_line_type": "RUNWAY_HOLD_WITH_BLACK_BORDER", "lighting_line_type": null}, "geometry": {"type": "LineString", "coordinates": [[-0.19283313, 51.15122619], [-0.19326783, 51.15116794]]}}, {"type": "Feature", "properties": {"name": "AN Z edge ring", "painted_line_type": "RUNWAY_HOLD_WITH_BLACK_BORDER", "lighting_line_type": null}, "geometry": {"type": "LineString", "coordinates": [[-0.18200244, 51.15248439], [-0.18257423, 51.15240526], [-0.18078596, 51.1525687], [-0.1814086, 51.15249018], [-0.1772981, 51.15063308]]}}, {"type": "Feature", "properties": {"name": "AN Z edge ring", "painted_line_type": "OTHER_HOLD", "lighting_line_type": "AMBER_UNIDIRECTIONAL_PULSATING_LIGHTS"}, "geometry": {"type": "LineString", "coordinates": [[-0.17178656, 51.15365623], [-0.17191955, 51.15402846]]}}, {"type": "Feature", "properties": {"name": "Linear Feature 1", "painted_line_type": "ILS_HOLD", "lighting_line_type": "AMBER_UNIDIRECTIONAL_LIGHTS"}, "geometry": {"type": "LineString", "coordinates": [[-0.1773222, 51.15121941], [-0.17788019, 51.15117685]]}}, {"type": "Feature", "properties": {"name": "Linear Feature 3", "painted_line_type": "RUNWAY_HOLD", "lighting_line_type": "AMBER_UNIDIRECTIONAL_PULSATING_LIGHTS"}, "geometry": {"type": "LineString", "coordinates": [[-0.17368442, 51.1541999], [-0.17410729, 51.15414466]]}}, {"type": "Feature", "properties": {"name": "Linear Feature 5", "painted_line_type": "RUNWAY_HOLD", "lighting_line_type": "AMBER_UNIDIRECTIONAL_PULSATING_LIGHTS"}, "geometry": {"type": "LineString", "coordinates": [[-0.17256496, 51.15434236], [-0.17300526, 51.15428218]]}}, {"type": "Feature", "properties": {"name": "Linear Feature 9", "painted_line_type": "RUNWAY_HOLD_WITH_BLACK_BORDER", "lighting_line_type": "AMBER_UNIDIRECTIONAL_PULSATING_LIGHTS"}, "geometry": {"type": "LineString", "coordinates": [[-0.16877616, 51.15356767], [-0.16882952, 51.15371805]]}}]}