{"type": "FeatureCollection", "features": [{"type": "Feature", "properties": {"name": "New Taxiway 45", "surface_type": "UNKNOWN_53", "smoothness": 0.0, "texture_orientation": 348.0}, "geometry": {"type": "Polygon", "coordinates": [[[-0.17568796, 51.14785898], [-0.17540168, 51.14785998], [-0.1754003, 51.14785129], [-0.17477777, 51.14785319], [-0.174751377288889, 51.14785225248889], [-0.174726492488889, 51.14784999462223], [-0.1747031156, 51.1478464164], [-0.174681246622222, 51.14784151782223], [-0.174660885555556, 51.147835298888886], [-0.1746420324, 51.1478277596], [-0.174624687155556, 51.14781889995555], [-0.174608849822222, 51.147808719955556], [-0.1745945204, 51.147797219599994], [-0.174581698888889, 51.14778439888889], [-0.174570385288889, 51.147770257822216], [-0.1745605796, 51.147754796399994], [-0.174552281822222, 51.14773801462222], [-0.174545491955556, 51.14771991248889], [-0.17454021, 51.14770049], [-0.17510773, 51.14762324], [-0.17498437, 51.14665533], [-0.17383508, 51.14672029], [-0.17377463, 51.14627192], [-0.1719966, 51.14636869], [-0.17199792, 51.1464659], [-0.17179832, 51.14647056], [-0.17200033, 51.14773671], [-0.17205078, 51.14772926], [-0.17208687, 51.14803443], [-0.17276453, 51.14794219], [-0.172773185111111, 51.147959616533335], [-0.172779825111111, 51.14797642146667], [-0.17278445, 51.1479926048], [-0.172787059777778, 51.14800816653334], [-0.172787654444444, 51.14802310666668], [-0.172786234, 51.1480374252], [-0.172782798444444, 51.14805112213333], [-0.172777347777778, 51.148064197466674], [-0.172769882, 51.14807665120001], [-0.172760401111111, 51.14808848333334], [-0.172748905111111, 51.14809969386667], [-0.172735394, 51.148110282800005], [-0.172719867777778, 51.14812025013334], [-0.172702326444444, 51.14812959586666], [-0.17268277, 51.14813832], [-0.17214512, 51.14830293], [-0.17209052, 51.14831014], [-0.172075684533333, 51.14830474937778], [-0.172061791466667, 51.14829955084445], [-0.1720488408, 51.14829454440001], [-0.172036832533333, 51.148289730044446], [-0.172025766666667, 51.14828510777778], [-0.1720156432, 51.1482806776], [-0.172006462133333, 51.14827643951112], [-0.171998223466667, 51.148272393511114], [-0.1719909272, 51.148268539600004], [-0.171984573333333, 51.14826487777778], [-0.171979161866667, 51.14826140804445], [-0.1719746928, 51.14825813040001], [-0.171971166133333, 51.14825504484445], [-0.171968581866667, 51.14825215137778], [-0.17196694, 51.14824945], [-0.17185676, 51.14805294], [-0.17089502, 51.14818429], [-0.17094625, 51.14831033], [-0.170952544533333, 51.148323478755565], [-0.170959473466667, 51.14833600502222], [-0.1709670368, 51.14834790880001], [-0.170975234533333, 51.14835919008889], [-0.170984066666667, 51.148369848888905], [-0.1709935332, 51.1483798852], [-0.171003634133333, 51.14838929902221], [-0.171014369466667, 51.148398090355556], [-0.1710257392, 51.1484062592], [-0.171037743333333, 51.148413805555556], [-0.171050381866667, 51.14842072942222], [-0.1710636548, 51.14842703080001], [-0.171077562133333, 51.14843270968888], [-0.171092103866667, 51.14843776608889], [-0.17110728, 51.1484422], [-0.17105221, 51.14844871], [-0.1711276, 51.14865288], [-0.17511794, 51.14810821], [-0.17512005, 51.14811876], [-0.175162473466667, 51.14811479786667], [-0.1752039092, 51.1481112448], [-0.1752443572, 51.148108100800016], [-0.175283817466667, 51.14810536586668], [-0.17532229, 51.14810304], [-0.1753597748, 51.14810112320001], [-0.175396271866667, 51.14809961546667], [-0.1754317812, 51.148098516800005], [-0.1754663028, 51.148097827200004], [-0.175499836666667, 51.148097546666676], [-0.1755323828, 51.148097675200006], [-0.1755639412, 51.14809821280001], [-0.175594511866667, 51.14809915946667], [-0.1756240948, 51.14810051520001], [-0.17565269, 51.14810228], [-0.17568796, 51.14785898]], [[-0.17416778, 51.14802452], [-0.17410194, 51.14803369], [-0.17409885, 51.14802452], [-0.1735836, 51.14802023], [-0.1735529888, 51.14801966071111], [-0.173524312533333, 51.14801769951111], [-0.1734975712, 51.148014346400004], [-0.1734727648, 51.14800960137779], [-0.173449893333333, 51.14800346444446], [-0.1734289568, 51.1479959356], [-0.1734099552, 51.147987014844446], [-0.173392888533333, 51.14797670217777], [-0.1733777568, 51.1479649976], [-0.17336456, 51.147951901111114], [-0.173353298133333, 51.1479374127111], [-0.1733439712, 51.1479215324], [-0.1733365792, 51.147904260177775], [-0.173331122133333, 51.147885596044446], [-0.1733276, 51.14786554], [-0.17388749, 51.14778934], [-0.17389715, 51.14781453], [-0.17395906, 51.14780699], [-0.17397383, 51.1478438], [-0.17403436, 51.14783539], [-0.17405007, 51.14787568], [-0.17411198, 51.14786756], [-0.17416778, 51.14802452]]]}}, {"type": "Feature", "properties": {"name": "New Taxiway 26", "surface_type": "UNKNOWN_53", "smoothness": 0.0, "texture_orientation": 348.0}, "geometry": {"type": "Polygon", "coordinates": [[[-0.17164664, 51.15851284], [-0.17160753, 51.15861093], [-0.17184466, 51.1593224], [-0.17802007, 51.1584729], [-0.17792739, 51.15831519], [-0.1776702, 51.15759045], [-0.17726564, 51.15764234], [-0.177271920139259, 51.157619918171854], [-0.177279292047407, 51.15759867817482], [-0.17728849896, 51.15757843624001], [-0.177300284112593, 51.157559008598525], [-0.177315390740741, 51.15754021148148], [-0.17733456208, 51.15752186112], [-0.177358541365926, 51.15750377374519], [-0.177388071834074, 51.157485765588156], [-0.17742389672, 51.15746765288001], [-0.177466759259259, 51.15744925185186], [-0.177517402687407, 51.157430378734816], [-0.17757657024, 51.157410849760005], [-0.177645005152593, 51.15739048115853], [-0.177723450660741, 51.157369089161485], [-0.17781265, 51.15734649], [-0.17780486, 51.15731772], [-0.17500857, 51.15770879], [-0.17504285, 51.15780585], [-0.17512073, 51.15779478], [-0.17515294, 51.15788533], [-0.17522356, 51.15787751], [-0.17524329, 51.15792181], [-0.17541986, 51.15789486], [-0.1754205048, 51.15787935164445], [-0.175421476533333, 51.15786482657778], [-0.1754227752, 51.15785128480001], [-0.1754244008, 51.15783872631111], [-0.175426353333333, 51.157827151111114], [-0.1754286328, 51.1578165592], [-0.1754312392, 51.15780695057778], [-0.175434172533333, 51.15779832524444], [-0.1754374328, 51.157790683200005], [-0.17544102, 51.15778402444445], [-0.175444934133333, 51.15777834897778], [-0.1754491752, 51.1577736568], [-0.1754537432, 51.15776994791111], [-0.175458638133333, 51.157767222311115], [-0.17546386, 51.15776548], [-0.17553889, 51.15797539], [-0.17164664, 51.15851284]]]}}, {"type": "Feature", "properties": {"name": "New Taxiway 23", "surface_type": "UNKNOWN_53", "smoothness": 0.0, "texture_orientation": 348.0}, "geometry": {"type": "Polygon", "coordinates": [[[-0.17449957, 51.15643029], [-0.17456641, 51.15641964], [-0.17453274, 51.15632577], [-0.17448706, 51.15633105], [-0.17438498, 51.15603581], [-0.17430085, 51.15604938], [-0.17427978, 51.15599573], [-0.17400428, 51.15603753], [-0.17399037, 51.15600437], [-0.17396185, 51.15600786], [-0.17395453, 51.1559891], [-0.17341575, 51.15606291], [-0.17342377, 51.15608144], [-0.17263651, 51.15616612], [-0.17263891, 51.15618045], [-0.17180429, 51.15629457], [-0.1711992, 51.15641849], [-0.17096203, 51.15650483], [-0.17098941, 51.15654173], [-0.17145969, 51.15787949], [-0.17145969, 51.15790558], [-0.171441, 51.15790576], [-0.17144219, 51.15795515], [-0.17150291, 51.15795553], [-0.17176036, 51.15791702], [-0.17176686, 51.15794215], [-0.17198927, 51.15791042], [-0.17198326, 51.15789314], [-0.1727164, 51.15781828], [-0.17335173, 51.15772775], [-0.1739595, 51.1576155], [-0.17397603, 51.15765823], [-0.17448249, 51.15758935], [-0.1745063, 51.15757035], [-0.17449332, 51.15753823], [-0.17471546, 51.15750792], [-0.17468623, 51.15741324], [-0.17482903, 51.15739243], [-0.17477855, 51.15725626], [-0.17485283, 51.15724224], [-0.17474213, 51.15692347], [-0.17468855, 51.15693163], [-0.1746931408, 51.156957019155556], [-0.1746970332, 51.156982605288896], [-0.1747002272, 51.1570083884], [-0.1747027228, 51.157034368488894], [-0.17470452, 51.15706054555556], [-0.1747056188, 51.157086919600005], [-0.1747060192, 51.15711349062222], [-0.1747057212, 51.15714025862223], [-0.1747047248, 51.1571672236], [-0.17470303, 51.157194385555556], [-0.1747006368, 51.157221744488886], [-0.1746975452, 51.157249300400004], [-0.1746937552, 51.15727705328889], [-0.1746892668, 51.15730500315556], [-0.17468408, 51.15733315], [-0.174681598711111, 51.15734197688889], [-0.174678413511111, 51.15735056155555], [-0.1746745244, 51.157358904], [-0.174669931377778, 51.15736700422222], [-0.174664634444444, 51.157374862222234], [-0.1746586336, 51.157382478], [-0.174651928844444, 51.15738985155556], [-0.174644520177778, 51.15739698288889], [-0.1746364076, 51.157403872], [-0.174627591111111, 51.157410518888895], [-0.174618070711111, 51.15741692355555], [-0.1746078464, 51.157423086], [-0.174596918177778, 51.157429006222216], [-0.174585286044444, 51.157434684222224], [-0.17457295, 51.15744012], [-0.17444838, 51.15748045], [-0.17441455, 51.15749193], [-0.17392454, 51.15609513], [-0.173961569422222, 51.156091760311114], [-0.173996935022222, 51.15608973924444], [-0.1740306368, 51.15608906680001], [-0.174062674755556, 51.156089742977784], [-0.174093048888889, 51.156091767777774], [-0.1741217592, 51.156095141200005], [-0.174148805688889, 51.15609986324445], [-0.174174188355556, 51.15610593391111], [-0.1741979072, 51.1561133532], [-0.174219962222222, 51.15612212111111], [-0.174240353422222, 51.15613223764444], [-0.1742590808, 51.1561437028], [-0.174276144355556, 51.15615651657778], [-0.174291544088889, 51.15617067897778], [-0.17430528, 51.15618619], [-0.17449957, 51.15643029]], [[-0.17246288, 51.15765416], [-0.17239706, 51.15746471], [-0.17264593, 51.15742632], [-0.17267122, 51.157491], [-0.172673407955556, 51.15750668751111], [-0.172673939822222, 51.15752158471111], [-0.1726728156, 51.1575356916], [-0.172670035288889, 51.15754900817778], [-0.172665598888889, 51.15756153444445], [-0.1726595064, 51.1575732704], [-0.172651757822222, 51.15758421604445], [-0.172642353155556, 51.15759437137778], [-0.1726312924, 51.15760373639999], [-0.172618575555556, 51.15761231111111], [-0.172604202622222, 51.157620095511106], [-0.1725881736, 51.157627089600005], [-0.172570488488889, 51.15763329337777], [-0.172551147288889, 51.157638706844445], [-0.17253015, 51.15764333], [-0.17246288, 51.15765416]], [[-0.17338065, 51.15765412], [-0.17309414, 51.15769368], [-0.17310079, 51.15771956], [-0.17284793, 51.15775628], [-0.17283928, 51.15772999], [-0.17250646, 51.1577744], [-0.17249769, 51.15775469], [-0.17252541, 51.15772919], [-0.172567174533333, 51.1577227916], [-0.172605537466667, 51.15771484973334], [-0.1726404988, 51.1577053644], [-0.172672058533333, 51.157694335600006], [-0.172700216666667, 51.157681763333336], [-0.1727249732, 51.1576676476], [-0.172746328133333, 51.157651988400005], [-0.172764281466667, 51.15763478573333], [-0.1727788332, 51.1576160396], [-0.172789983333333, 51.15759575], [-0.172797731866667, 51.15757391693334], [-0.1728020788, 51.1575505404], [-0.172803024133333, 51.157525620399994], [-0.172800567866667, 51.15749915693334], [-0.17279471, 51.15747115], [-0.17319262, 51.15741564], [-0.17317267, 51.15735472], [-0.17326915, 51.15733927], [-0.17338065, 51.15765412]]]}}, {"type": "Feature", "properties": {"name": "New Taxiway 27", "surface_type": "UNKNOWN_53", "smoothness": 0.0, "texture_orientation": 332.0}, "geometry": {"type": "Polygon", "coordinates": [[[-0.17169318, 51.1588679], [-0.17119866, 51.15903119], [-0.17110437, 51.15891797], [-0.17099169, 51.15911772], [-0.17030745, 51.15967519], [-0.17007612, 51.15948757], [-0.169987938977778, 51.159533232], [-0.169899166577778, 51.159575874], [-0.1698098028, 51.159615496], [-0.169719847644444, 51.159652098], [-0.169629301111111, 51.15968568000001], [-0.1695381632, 51.159716242], [-0.169446433911111, 51.159743784], [-0.169354113244444, 51.159768306], [-0.1692612012, 51.159789808], [-0.169167697777778, 51.15980829], [-0.169073602977778, 51.159823752], [-0.1689789168, 51.159836194], [-0.168883639244444, 51.159845616], [-0.168787770311111, 51.159852018], [-0.16869131, 51.1598554], [-0.16927513, 51.16059354], [-0.17048876, 51.16065429], [-0.17132694, 51.16054327], [-0.17239348, 51.1598337], [-0.17184466, 51.1593224], [-0.17169318, 51.1588679]]]}}, {"type": "Feature", "properties": {"name": "New Taxiway 8", "surface_type": "UNKNOWN_54", "smoothness": 0.0, "texture_orientation": 348.0}, "geometry": {"type": "Polygon", "coordinates": [[[-0.19294873, 51.15294717], [-0.19135862, 51.15316407], [-0.19146409, 51.15343318], [-0.19164694, 51.15414771], [-0.19180145, 51.15463431], [-0.19345078, 51.15440159], [-0.19322353, 51.15374326], [-0.19294873, 51.15294717]]]}}, {"type": "Feature", "properties": {"name": "New Taxiway 37", "surface_type": "UNKNOWN_53", "smoothness": 0.0, "texture_orientation": 170.0}, "geometry": {"type": "Polygon", "coordinates": [[[-0.16859971, 51.15816701], [-0.1705289, 51.15768292], [-0.17055414, 51.15767342], [-0.17055145, 51.15766253], [-0.1704736, 51.15761092], [-0.1705313, 51.15757737], [-0.17042672, 51.15750763], [-0.17048743, 51.1574737], [-0.17038164, 51.15740848], [-0.17043213, 51.15737304], [-0.17038344, 51.15733912], [-0.17043934, 51.15730406], [-0.17033355, 51.15723582], [-0.17038945, 51.15720454], [-0.17028787, 51.15713442], [-0.17034377, 51.15710388], [-0.17033596, 51.15708315], [-0.17031973, 51.15707221], [-0.16862995, 51.15730435], [-0.16860455, 51.15735433], [-0.16858515, 51.15735143], [-0.16845134, 51.15766927], [-0.1684367, 51.15772519], [-0.16858043, 51.15777276], [-0.16836309, 51.15798314], [-0.16859971, 51.15816701]]]}}, {"type": "Feature", "properties": {"name": "New Taxiway 47", "surface_type": "ASPHALT", "smoothness": 0.0, "texture_orientation": 77.6}, "geometry": {"type": "Polygon", "coordinates": [[[-0.17105221, 51.14844871], [-0.17110728, 51.1484422], [-0.171092103866667, 51.148437767333334], [-0.171077562133333, 51.148432712], [-0.1710636548, 51.148427034], [-0.171050381866667, 51.148420733333346], [-0.171037743333333, 51.148413810000015], [-0.1710257392, 51.148406264], [-0.171014369466667, 51.148398095333334], [-0.171003634133333, 51.148389304], [-0.1709935332, 51.14837989], [-0.170984066666667, 51.148369853333335], [-0.170975234533333, 51.148359194], [-0.1709670368, 51.148347912], [-0.170959473466667, 51.148336007333334], [-0.170952544533333, 51.14832348], [-0.17094625, 51.14831033], [-0.17089502, 51.14818429], [-0.1705686, 51.14822986], [-0.1705766948, 51.148253819155556], [-0.170582328533333, 51.14827681662223], [-0.1705855012, 51.1482988524], [-0.1705862128, 51.1483199264889], [-0.170584463333333, 51.1483400388889], [-0.1705802528, 51.14835918960001], [-0.1705735812, 51.14837737862223], [-0.170564448533333, 51.14839460595556], [-0.1705528548, 51.14841087160001], [-0.1705388, 51.14842617555556], [-0.170522284133333, 51.14844051782222], [-0.1705033072, 51.14845389840001], [-0.1704818692, 51.14846631728889], [-0.170457970133333, 51.14847777448889], [-0.17043161, 51.14848827], [-0.170403671155556, 51.14849813662222], [-0.170375035955556, 51.14850770715556], [-0.1703457044, 51.14851698160001], [-0.170315676488889, 51.148525959955556], [-0.170284952222222, 51.148534642222224], [-0.1702535316, 51.1485430284], [-0.170221414622222, 51.14855111848888], [-0.170188601288889, 51.148558912488895], [-0.1701550916, 51.148566410399994], [-0.170120885555556, 51.14857361222222], [-0.170085983155556, 51.14858051795555], [-0.1700503844, 51.148587127599995], [-0.170014089288889, 51.148593441155555], [-0.169977097822222, 51.14859945862222], [-0.16993941, 51.14860518], [-0.16965463, 51.14864126], [-0.169628264577778, 51.14864136951111], [-0.169603240311111, 51.148640628711114], [-0.1695795572, 51.14863903760001], [-0.169557215244444, 51.14863659617778], [-0.169536214444444, 51.148633304444445], [-0.1695165548, 51.1486291624], [-0.169498236311111, 51.14862417004445], [-0.169481258977778, 51.148618327377775], [-0.1694656228, 51.1486116344], [-0.169451327777778, 51.14860409111111], [-0.169438373911111, 51.14859569751111], [-0.1694267612, 51.148586453600004], [-0.169416489644444, 51.14857635937778], [-0.169407559244444, 51.148565414844455], [-0.16939997, 51.14855362], [-0.16932446, 51.14833392], [-0.1686691, 51.1483974], [-0.16869234, 51.14848453], [-0.16909305, 51.14843482], [-0.16913041, 51.14855741], [-0.169134280577778, 51.14857753506667], [-0.169135417644444, 51.14859662226666], [-0.1691338212, 51.1486146716], [-0.169129491244444, 51.14863168306667], [-0.169122427777778, 51.14864765666667], [-0.1691126308, 51.1486625924], [-0.169100100311111, 51.14867649026666], [-0.169084836311111, 51.148689350266665], [-0.1690668388, 51.148701172399996], [-0.169046107777778, 51.148711956666666], [-0.169022643244444, 51.148721703066656], [-0.1689964452, 51.1487304116], [-0.168967513644444, 51.14873808226666], [-0.168935848577778, 51.14874471506667], [-0.16890145, 51.14875031], [-0.16807819, 51.14886646], [-0.16789777, 51.14887898], [-0.1676934, 51.14887046], [-0.167670098888889, 51.14886887813333], [-0.167647883555556, 51.14886666853334], [-0.167626754, 51.148863831199996], [-0.167606710222222, 51.14886036613334], [-0.167587752222222, 51.148856273333344], [-0.16756988, 51.148851552800004], [-0.167553093555556, 51.14884620453333], [-0.167537392888889, 51.14884022853334], [-0.167522778, 51.148833624800005], [-0.167509248888889, 51.14882639333334], [-0.167496805555556, 51.14881853413333], [-0.167485448, 51.1488100472], [-0.167475176222222, 51.148800932533334], [-0.167465990222222, 51.14879119013334], [-0.16745789, 51.14878082], [-0.16738205, 51.14867365], [-0.167380194533333, 51.148665271022224], [-0.167379524133333, 51.14865655808889], [-0.1673800388, 51.14864751120001], [-0.167381738533333, 51.14863813035556], [-0.167384623333333, 51.148628415555564], [-0.1673886932, 51.1486183668], [-0.167393948133333, 51.14860798408888], [-0.167400388133333, 51.14859726742222], [-0.1674080132, 51.1485862168], [-0.167416823333333, 51.148574832222224], [-0.167426818533333, 51.14856311368889], [-0.1674379988, 51.1485510612], [-0.167450364133333, 51.14853867475556], [-0.167463914533333, 51.148525954355556], [-0.16747865, 51.1485129], [-0.16737167, 51.14852692], [-0.16733256, 51.14868617], [-0.16740281, 51.14878082], [-0.1674086928, 51.14878808955556], [-0.1674148452, 51.14879507422222], [-0.1674212672, 51.148801774], [-0.1674279588, 51.1488081888889], [-0.16743492, 51.148814318888896], [-0.1674421508, 51.148820164], [-0.1674496512, 51.14882572422222], [-0.1674574212, 51.148830999555564], [-0.1674654608, 51.14883599], [-0.16747377, 51.148840695555556], [-0.1674823488, 51.14884511622222], [-0.1674911972, 51.148849252], [-0.1675003152, 51.14885310288889], [-0.1675097028, 51.14885666888889], [-0.16751936, 51.14885995], [-0.16699407, 51.14893256], [-0.167000302355556, 51.148924387466664], [-0.167006079422222, 51.14891652586667], [-0.1670114012, 51.1489089752], [-0.167016267688889, 51.14890173546667], [-0.167020678888889, 51.148894806666675], [-0.1670246348, 51.1488881888], [-0.167028135422222, 51.148881881866664], [-0.167031180755556, 51.14887588586667], [-0.1670337708, 51.148870200800005], [-0.167035905555556, 51.14886482666667], [-0.167037585022222, 51.14885976346667], [-0.1670388092, 51.148855011200006], [-0.167039578088889, 51.148850569866674], [-0.167039891688889, 51.148846439466666], [-0.16703975, 51.14884262], [-0.16702048, 51.1487282], [-0.16699087, 51.14873225], [-0.16699652, 51.14886788], [-0.166994664622222, 51.14887723488889], [-0.166992101155556, 51.14888628355556], [-0.1669888296, 51.148895026], [-0.166984849955556, 51.14890346222222], [-0.166980162222222, 51.14891159222223], [-0.1669747664, 51.148919416], [-0.166968662488889, 51.14892693355555], [-0.166961850488889, 51.14893414488889], [-0.1669543304, 51.14894105], [-0.166946102222222, 51.14894764888889], [-0.166937165955556, 51.14895394155556], [-0.1669275216, 51.14895992800001], [-0.166917169155556, 51.14896560822222], [-0.166906108622222, 51.14897098222223], [-0.16689434, 51.14897605], [-0.16677491, 51.14902122], [-0.16684011, 51.14920427], [-0.16426245, 51.1495712], [-0.164204027066667, 51.14958112302222], [-0.164150598266667, 51.14959327875556], [-0.1641021636, 51.149607667199994], [-0.164058723066667, 51.14962428835556], [-0.164020276666667, 51.149643142222224], [-0.1639868244, 51.14966422879999], [-0.163958366266667, 51.14968754808889], [-0.163934902266667, 51.14971310008888], [-0.1639164324, 51.149740884799996], [-0.163902956666667, 51.14977090222222], [-0.163894475066667, 51.14980315235555], [-0.1638909876, 51.1498376352], [-0.163892494266667, 51.14987435075555], [-0.163898995066667, 51.149913299022224], [-0.16391049, 51.14995448], [-0.16398482, 51.15016804], [-0.16401032, 51.15016212], [-0.16399539, 51.14991223], [-0.163995006103704, 51.14988366740741], [-0.16399919242963, 51.14985594552592], [-0.164008372, 51.14982904320002], [-0.164022967837037, 51.149802939274075], [-0.164043402962963, 51.1497776125926], [-0.1640701004, 51.149753042], [-0.16410348317037, 51.14972920634074], [-0.164143974296296, 51.14970608445927], [-0.1641919968, 51.1496836552], [-0.164247973703704, 51.149661897407405], [-0.16431232802963, 51.149640789925925], [-0.1643854828, 51.1496203116], [-0.164467861037037, 51.149600441274075], [-0.164559885762963, 51.149581157792596], [-0.16466198, 51.14956244], [-0.16523806, 51.14946587], [-0.1711276, 51.14865288], [-0.17105221, 51.14844871]]]}}, {"type": "Feature", "properties": {"name": "New Taxiway 35", "surface_type": "UNKNOWN_53", "smoothness": 0.0, "texture_orientation": 170.0}, "geometry": {"type": "Polygon", "coordinates": [[[-0.16941122, 51.15954921], [-0.16943195, 51.15954253], [-0.16957528, 51.15942398], [-0.16964384, 51.15945655], [-0.16987755, 51.1592735], [-0.16993032, 51.15930494], [-0.17039071, 51.15895338], [-0.17038421, 51.15892761], [-0.17034914, 51.15890876], [-0.17053949, 51.15876143], [-0.17047888, 51.15873347], [-0.17051694, 51.15870488], [-0.17051602, 51.15867911], [-0.16864082, 51.15826881], [-0.16845042, 51.15847241], [-0.16941122, 51.15954921]]]}}, {"type": "Feature", "properties": {"name": "New Taxiway 32", "surface_type": "UNKNOWN_53", "smoothness": 0.0, "texture_orientation": 78.0}, "geometry": {"type": "Polygon", "coordinates": [[[-0.16788068, 51.15838403], [-0.16782616, 51.15814733], [-0.16694237, 51.15798805], [-0.16506189, 51.15758698], [-0.16509644, 51.15770927], [-0.16513438, 51.15771937], [-0.16517184, 51.15771468], [-0.16518876, 51.15776108], [-0.16530625, 51.15774298], [-0.16532232, 51.15778277], [-0.16538971, 51.15777223], [-0.16540147, 51.15781612], [-0.16546594, 51.15780661], [-0.16547266, 51.15782656], [-0.16554618, 51.15781573], [-0.16555987, 51.15785464], [-0.16566925, 51.15784051], [-0.16568241, 51.15786123], [-0.16574307, 51.15785333], [-0.16575167, 51.15787135], [-0.16581624, 51.15786597], [-0.1658412, 51.15794711], [-0.16608956, 51.15794295], [-0.1661028, 51.15797307], [-0.166275, 51.15796164], [-0.16631971, 51.15805095], [-0.16576602, 51.15822358], [-0.1659214, 51.15840781], [-0.1661504, 51.15838377], [-0.16620119, 51.15852199], [-0.16627592, 51.15850997], [-0.16632, 51.15864999], [-0.16639282, 51.15863797], [-0.16647153, 51.15886651], [-0.16653831, 51.15894413], [-0.16788068, 51.15838403]]]}}, {"type": "Feature", "properties": {"name": "New Taxiway 50", "surface_type": "ASPHALT", "smoothness": 0.0, "texture_orientation": 348.0}, "geometry": {"type": "Polygon", "coordinates": [[[-0.16652056, 51.15584372], [-0.16535693, 51.1557855], [-0.16462026, 51.15588456], [-0.16487274, 51.15667964], [-0.16576384, 51.1565593], [-0.16567042, 51.15628637], [-0.16598501, 51.15624591], [-0.1660417, 51.15639104], [-0.16610717, 51.15638152], [-0.16613831, 51.15646315], [-0.16607284, 51.15647367], [-0.16608721, 51.15651223], [-0.16666134, 51.15643517], [-0.16664303, 51.15639163], [-0.16670618, 51.15638397], [-0.16652056, 51.15584372]]]}}]}