{"type": "FeatureCollection", "features": [{"type": "Feature", "properties": {"name": "New Taxiway 33", "surface_type": "UNKNOWN_53", "smoothness": 0.0, "texture_orientation": 170.0}, "geometry": {"type": "Polygon", "coordinates": [[[-0.1682384, 51.15852375], [-0.16788068, 51.15838403], [-0.16653831, 51.15894413], [-0.16676098, 51.15921253], [-0.16693069, 51.15929907], [-0.16767993, 51.15958911], [-0.16772822, 51.15954224], [-0.1678903, 51.15961134], [-0.1682384, 51.15852375]]]}}, {"type": "Feature", "properties": {"name": "New Taxiway 36", "surface_type": "UNKNOWN_53", "smoothness": 0.0, "texture_orientation": 170.0}, "geometry": {"type": "Polygon", "coordinates": [[[-0.16864082, 51.15826881], [-0.17051602, 51.15867911], [-0.17051544, 51.15866279], [-0.1705485, 51.15861598], [-0.17060961, 51.15861629], [-0.17060474, 51.15839615], [-0.17068192, 51.15839479], [-0.17066159, 51.1580173], [-0.17058369, 51.15801893], [-0.17057073, 51.1577428], [-0.1705289, 51.15768309], [-0.16859971, 51.15816701], [-0.16864082, 51.15826881]]]}}, {"type": "Feature", "properties": {"name": "New Taxiway 31", "surface_type": "UNKNOWN_53", "smoothness": 0.0, "texture_orientation": 170.0}, "geometry": {"type": "Polygon", "coordinates": [[[-0.16676098, 51.15921253], [-0.16647153, 51.15886651], [-0.16639282, 51.15863797], [-0.16632, 51.15864999], [-0.16627592, 51.15850997], [-0.16620119, 51.15852199], [-0.1661504, 51.15838377], [-0.1659214, 51.15840781], [-0.16576602, 51.15822358], [-0.16631971, 51.15805095], [-0.166275, 51.15796164], [-0.1661028, 51.15797307], [-0.16608956, 51.15794295], [-0.1658412, 51.15794711], [-0.16581624, 51.15786597], [-0.16575167, 51.15787135], [-0.16574307, 51.15785333], [-0.16568241, 51.15786123], [-0.16566925, 51.15784051], [-0.16555987, 51.15785464], [-0.16554618, 51.15781573], [-0.16547266, 51.15782656], [-0.16546594, 51.15780661], [-0.16540147, 51.15781612], [-0.16538971, 51.15777223], [-0.16532232, 51.15778277], [-0.16530625, 51.15774298], [-0.16518876, 51.15776108], [-0.16517184, 51.15771468], [-0.16513438, 51.15771937], [-0.16509644, 51.15770927], [-0.16490902, 51.15771504], [-0.16431114, 51.15768783], [-0.16485596, 51.1580853], [-0.16491345, 51.15805285], [-0.16509303, 51.15815793], [-0.1651375, 51.15835989], [-0.1652832, 51.15834328], [-0.16534272, 51.15853421], [-0.16543059, 51.15852643], [-0.16557145, 51.15828425], [-0.16570378, 51.15824299], [-0.16591739, 51.15855052], [-0.16590186, 51.15855365], [-0.16586748, 51.15868024], [-0.16565455, 51.1588103], [-0.1656734, 51.15882595], [-0.16586383, 51.15871337], [-0.16600835, 51.15869484], [-0.16641437, 51.15926685], [-0.16676098, 51.15921253]]]}}, {"type": "Feature", "properties": {"name": "New Taxiway 34", "surface_type": "UNKNOWN_53", "smoothness": 0.0, "texture_orientation": 170.0}, "geometry": {"type": "Polygon", "coordinates": [[[-0.1678903, 51.15961134], [-0.1680596, 51.15959832], [-0.16807311, 51.15964457], [-0.16829435, 51.15962372], [-0.16830266, 51.15966867], [-0.16939352, 51.15955491], [-0.16941122, 51.15954921], [-0.16845042, 51.15847241], [-0.1682384, 51.15852375], [-0.1678903, 51.15961134]]]}}, {"type": "Feature", "properties": {"name": "New Taxiway 48", "surface_type": "UNKNOWN_53", "smoothness": 0.0, "texture_orientation": 77.6}, "geometry": {"type": "Polygon", "coordinates": [[[-0.16677491, 51.14902122], [-0.16655484, 51.14906503], [-0.16633586, 51.1490619], [-0.166318853466667, 51.14906033631111], [-0.166302417866667, 51.14905827724445], [-0.1662865532, 51.14905572280001], [-0.166271259466667, 51.149052672977774], [-0.166256536666667, 51.149049127777786], [-0.1662423848, 51.1490450872], [-0.166228803866667, 51.14904055124444], [-0.166215793866667, 51.14903551991111], [-0.1662033548, 51.1490299932], [-0.166191486666667, 51.14902397111112], [-0.166180189466667, 51.14901745364445], [-0.1661694632, 51.1490104408], [-0.166159307866667, 51.14900293257778], [-0.166149723466667, 51.14899492897778], [-0.16614071, 51.14898643], [-0.16606476, 51.14889845], [-0.16604868, 51.14886715], [-0.16574399, 51.14888393], [-0.16574843, 51.14901678], [-0.165748102755556, 51.14903102164444], [-0.165746057022222, 51.149044767911114], [-0.1657422928, 51.149058018800005], [-0.165736810088889, 51.14907077431111], [-0.165729608888889, 51.149083034444445], [-0.1657206892, 51.1490947992], [-0.165710051022222, 51.14910606857778], [-0.165697694355556, 51.149116842577776], [-0.1656836192, 51.1491271212], [-0.165667825555556, 51.14913690444445], [-0.165650313422222, 51.149146192311115], [-0.1656310828, 51.149154984800006], [-0.165610133688889, 51.149163281911115], [-0.165587466088889, 51.14917108364445], [-0.16556308, 51.14917839], [-0.16524952, 51.1492477], [-0.16525063, 51.14925361], [-0.16449515, 51.1493613], [-0.164455154933333, 51.14936556533334], [-0.1644175724, 51.14936797733334], [-0.1643824024, 51.149368536], [-0.164349644933333, 51.14936724133334], [-0.1643193, 51.14936409333334], [-0.1642913676, 51.149359092], [-0.164265847733333, 51.14935223733333], [-0.1642427404, 51.149343529333336], [-0.1642220456, 51.149332968], [-0.164203763333333, 51.14932055333334], [-0.1641878936, 51.14930628533333], [-0.1641744364, 51.149290164], [-0.164163391733333, 51.14927218933333], [-0.1641547596, 51.14925236133334], [-0.16414854, 51.14923068], [-0.16387248, 51.14929531], [-0.16389466, 51.14930539], [-0.16389688, 51.14933565], [-0.16388634, 51.14933843], [-0.163888242, 51.14936075640001], [-0.163888596, 51.1493823996], [-0.163887402, 51.14940335960001], [-0.16388466, 51.1494236364], [-0.16388037, 51.14944323000001], [-0.163874532, 51.149462140400004], [-0.163867146, 51.149480367600006], [-0.163858212, 51.1494979116], [-0.16384773, 51.1495147724], [-0.1638357, 51.14953095], [-0.163822122, 51.1495464444], [-0.163806996, 51.149561255600005], [-0.163790322, 51.1495753836], [-0.1637721, 51.1495888284], [-0.16375233, 51.14960159], [-0.16376295, 51.14960623], [-0.1637425536, 51.14962509591111], [-0.1637239404, 51.14964443497779], [-0.1637071104, 51.149664247200015], [-0.1636920636, 51.14968453257779], [-0.1636788, 51.14970529111112], [-0.1636673196, 51.14972652280001], [-0.1636576224, 51.149748227644444], [-0.1636497084, 51.149770405644446], [-0.1636435776, 51.1497930568], [-0.16363923, 51.14981618111111], [-0.1636366656, 51.149839778577785], [-0.1636358844, 51.1498638492], [-0.1636368864, 51.14988839297778], [-0.1636396716, 51.14991340991112], [-0.16364424, 51.1499389], [-0.16391049, 51.14995448], [-0.163898995066667, 51.14991329777777], [-0.163892494266667, 51.14987434844444], [-0.1638909876, 51.149837632], [-0.163894475066667, 51.14980314844444], [-0.163902956666667, 51.149770897777785], [-0.1639164324, 51.14974088], [-0.163934902266667, 51.14971309511111], [-0.163958366266667, 51.14968754311111], [-0.1639868244, 51.149664224], [-0.164020276666667, 51.14964313777777], [-0.164058723066667, 51.14962428444444], [-0.1641021636, 51.149607664], [-0.164150598266667, 51.149593276444435], [-0.164204027066667, 51.14958112177778], [-0.16426245, 51.1495712], [-0.16684011, 51.14920427], [-0.16677491, 51.14902122]]]}}, {"type": "Feature", "properties": {"name": "New Taxiway 21", "surface_type": "UNKNOWN_53", "smoothness": 0.0, "texture_orientation": 348.0}, "geometry": {"type": "Polygon", "coordinates": [[[-0.17411351, 51.15523592], [-0.17419228, 51.15522452], [-0.17408408, 51.15490913], [-0.17400409, 51.15491672], [-0.17399156, 51.15487619], [-0.17396201, 51.15486394], [-0.17390591, 51.15487242], [-0.17389389, 51.15483127], [-0.17386985, 51.1548209], [-0.17380074, 51.15482781], [-0.17378171, 51.15478572], [-0.17374614, 51.15477786], [-0.17369957, 51.15479325], [-0.17368004, 51.15474425], [-0.17365599, 51.15473231], [-0.1734346, 51.15476687], [-0.17346866, 51.154863], [-0.17338502, 51.15487493], [-0.17338702, 51.15488499], [-0.17331991, 51.15489598], [-0.17333093, 51.15493776], [-0.17323927, 51.15495316], [-0.17327233, 51.15504709], [-0.17318618, 51.15505746], [-0.17341886, 51.15572679], [-0.17344831, 51.15574564], [-0.17352105, 51.15573621], [-0.17353066, 51.15576713], [-0.173531504622222, 51.15576823324445], [-0.173532411822222, 51.15576923631111], [-0.1735333816, 51.15577013920001], [-0.173534413955556, 51.15577094191113], [-0.173535508888889, 51.15577164444446], [-0.1735366664, 51.1557722468], [-0.173537886488889, 51.155772748977775], [-0.173539169155556, 51.155773150977794], [-0.1735405144, 51.155773452800005], [-0.173541922222222, 51.155773654444445], [-0.173543392622222, 51.15577375591111], [-0.1735449256, 51.15577375720001], [-0.173546521155556, 51.15577365831112], [-0.173548179288889, 51.15577345924445], [-0.1735499, 51.15577316], [-0.17378666, 51.15572997], [-0.17382213, 51.15571368], [-0.17381608, 51.15569143], [-0.1738931, 51.1556822], [-0.1739071124, 51.15567804497778], [-0.1739207336, 51.15567375057778], [-0.1739339636, 51.1556693168], [-0.1739468024, 51.15566474364445], [-0.17395925, 51.15566003111111], [-0.1739713064, 51.155655179200004], [-0.1739829716, 51.15565018791111], [-0.1739942456, 51.15564505724444], [-0.1740051284, 51.1556397872], [-0.17401562, 51.15563437777778], [-0.1740257204, 51.155628828977775], [-0.1740354296, 51.1556231408], [-0.1740447476, 51.15561731324444], [-0.1740536744, 51.15561134631111], [-0.17406221, 51.15560524], [-0.17423585, 51.15558449], [-0.17411351, 51.15523592]], [[-0.17398152, 51.1556396], [-0.17392883, 51.1556431], [-0.17385456, 51.15566063], [-0.1737348, 51.15566714], [-0.173721167111111, 51.155667011822224], [-0.173707945777778, 51.15566640595555], [-0.173695136, 51.155665322400004], [-0.173682737777778, 51.15566376115556], [-0.173670751111111, 51.15566172222223], [-0.173659176, 51.1556592056], [-0.173648012444444, 51.15565621128889], [-0.173637260444444, 51.15565273928889], [-0.17362692, 51.15564878960001], [-0.173616991111111, 51.15564436222223], [-0.173607473777778, 51.15563945715556], [-0.173598368, 51.155634074400005], [-0.173589673777778, 51.15562821395556], [-0.173581391111111, 51.15562187582223], [-0.17357352, 51.15561506], [-0.1733236, 51.15531709], [-0.17329965, 51.15523245], [-0.17330151, 51.155057], [-0.173301959866667, 51.15504904168889], [-0.173302960133333, 51.155041206755556], [-0.1733045108, 51.1550334952], [-0.173306611866667, 51.15502590702222], [-0.173309263333333, 51.15501844222222], [-0.1733124652, 51.155011100799996], [-0.173316217466667, 51.15500388275556], [-0.173320520133333, 51.15499678808889], [-0.1733253732, 51.1549898168], [-0.173330776666667, 51.15498296888889], [-0.173336730533333, 51.15497624435555], [-0.1733432348, 51.1549696432], [-0.173350289466667, 51.15496316542222], [-0.173357894533333, 51.154956811022224], [-0.17336605, 51.15495058], [-0.17348927, 51.15487583], [-0.1735001812, 51.15486988288889], [-0.173511200133333, 51.154864542888895], [-0.1735223268, 51.15485981], [-0.1735335612, 51.154855684222234], [-0.173544903333333, 51.15485216555557], [-0.1735563532, 51.154849254], [-0.1735679108, 51.154846949555555], [-0.173579576133333, 51.15484525222222], [-0.1735913492, 51.154844162], [-0.17360323, 51.154843678888895], [-0.173615218533333, 51.15484380288889], [-0.1736273148, 51.154844534], [-0.1736395188, 51.154845872222225], [-0.173651830533333, 51.154847817555556], [-0.17366425, 51.15485037], [-0.17375541, 51.15487867], [-0.173770276888889, 51.15488328711111], [-0.173784730888889, 51.15488816511112], [-0.173798772, 51.15489330400001], [-0.173812400222222, 51.15489870377779], [-0.173825615555556, 51.154904364444455], [-0.173838418, 51.154910286], [-0.173850807555556, 51.15491646844445], [-0.173862784222222, 51.154922911777774], [-0.173874348, 51.154929616], [-0.173885498888889, 51.154936581111116], [-0.173896236888889, 51.15494380711111], [-0.173906562, 51.154951294], [-0.173916474222222, 51.15495904177778], [-0.173925973555556, 51.15496705044445], [-0.17393506, 51.15497532], [-0.17406441, 51.15514759], [-0.174067203911111, 51.15515455151112], [-0.174069796311111, 51.15516173471112], [-0.1740721872, 51.155169139600005], [-0.174074376577778, 51.15517676617778], [-0.174076364444444, 51.15518461444445], [-0.1740781508, 51.1551926844], [-0.174079735644444, 51.15520097604445], [-0.174081118977778, 51.155209489377775], [-0.1740823008, 51.155218224399995], [-0.174083281111111, 51.15522718111111], [-0.174084059911111, 51.15523635951111], [-0.1740846372, 51.15524575960001], [-0.174085012977778, 51.15525538137778], [-0.174085187244444, 51.15526522484445], [-0.17408516, 51.15527529], [-0.17408516, 51.15543655], [-0.174062, 51.15555573], [-0.174061313777778, 51.15556274933334], [-0.174059959111111, 51.15556956466667], [-0.174057936, 51.15557617600001], [-0.174055244444444, 51.155582583333334], [-0.174051884444444, 51.15558878666668], [-0.174047856, 51.155594786], [-0.174043159111111, 51.15560058133333], [-0.174037793777778, 51.155606172666666], [-0.17403176, 51.15561156], [-0.174025057777778, 51.15561674333334], [-0.174017687111111, 51.155621722666666], [-0.174009648, 51.155626498], [-0.174000940444444, 51.15563106933334], [-0.173991564444444, 51.15563543666667], [-0.17398152, 51.1556396]]]}}, {"type": "Feature", "properties": {"name": "New Taxiway 19", "surface_type": "UNKNOWN_53", "smoothness": 0.0, "texture_orientation": 348.0}, "geometry": {"type": "Polygon", "coordinates": [[[-0.17366513, 51.15444576], [-0.17374977, 51.15443288], [-0.17370869, 51.15432387], [-0.17379434, 51.15430974], [-0.17377931, 51.15426512], [-0.17375228, 51.15425224], [-0.17373774, 51.15419381], [-0.17369618, 51.15413852], [-0.17381031, 51.15412164], [-0.17371514, 51.15384935], [-0.17363518, 51.15386042], [-0.17361961, 51.15381156], [-0.17354068, 51.15382198], [-0.17352302, 51.15377378], [-0.17344201, 51.1537829], [-0.17342436, 51.15373339], [-0.17334438, 51.15374186], [-0.17332776, 51.15369561], [-0.17313506, 51.15372207], [-0.17313191, 51.1537092], [-0.17306722, 51.15371706], [-0.1730728, 51.15373233], [-0.17302202, 51.15373516], [-0.17300915, 51.15374913], [-0.17305123, 51.15385646], [-0.1728537, 51.15388269], [-0.17286796, 51.15392393], [-0.1728064, 51.15393374], [-0.17286147, 51.15409116], [-0.17283991, 51.15409487], [-0.17296944, 51.15445676], [-0.17304557, 51.15444576], [-0.17305909, 51.15449602], [-0.173077652533333, 51.15450602995556], [-0.1730965588, 51.15451516648889], [-0.1731158088, 51.15452342960001], [-0.173135402533333, 51.1545308192889], [-0.17315534, 51.15453733555557], [-0.1731756212, 51.1545429784], [-0.173196246133333, 51.15454774782222], [-0.1732172148, 51.154551643822224], [-0.1732385272, 51.1545546664], [-0.173260183333333, 51.15455681555556], [-0.1732821832, 51.15455809128889], [-0.1733045268, 51.15455849360001], [-0.173327214133333, 51.15455802248889], [-0.1733502452, 51.154556677955554], [-0.17337362, 51.15455446], [-0.17345477, 51.15454221], [-0.17345978, 51.15455194], [-0.17352287, 51.15454472], [-0.17351737, 51.1545221], [-0.17368265, 51.15449917], [-0.17366513, 51.15444576]], [[-0.17348298, 51.15444836], [-0.17343107, 51.15445712], [-0.17327539, 51.15444001], [-0.17310173, 51.15438868], [-0.17295203, 51.15420798], [-0.17293274, 51.15416374], [-0.17295868, 51.15394047], [-0.17299128, 51.15391293], [-0.17316413, 51.15382303], [-0.173170925377778, 51.1538199772889], [-0.173177898177778, 51.15381722715556], [-0.1731850484, 51.15381477960001], [-0.173192376044444, 51.15381263462223], [-0.173199881111111, 51.153810792222224], [-0.1732075636, 51.1538092524], [-0.173215423511111, 51.153808015155555], [-0.173223460844444, 51.15380708048889], [-0.1732316756, 51.1538064484], [-0.173240067777778, 51.15380611888889], [-0.173248637377778, 51.15380609195556], [-0.1732573844, 51.15380636760001], [-0.173266308844444, 51.153806945822225], [-0.173275410711111, 51.15380782662223], [-0.17328469, 51.15380901], [-0.1733041728, 51.153812126088894], [-0.173322906533333, 51.153815639688894], [-0.1733408912, 51.15381955080001], [-0.1733581268, 51.153823859422225], [-0.173374613333333, 51.153828565555564], [-0.1733903508, 51.1538336692], [-0.1734053392, 51.153839170355546], [-0.173419578533333, 51.153845069022225], [-0.1734330688, 51.1538513652], [-0.17344581, 51.153858058888886], [-0.173457802133333, 51.15386515008889], [-0.1734690452, 51.1538726388], [-0.1734795392, 51.15388052502222], [-0.173489284133333, 51.15388880875555], [-0.17349828, 51.15389749], [-0.17362469, 51.15402936], [-0.17368125, 51.15412284], [-0.17368458, 51.15429144], [-0.173685137244444, 51.15429496795555], [-0.173685392977778, 51.15429842915556], [-0.1736853472, 51.15430182360001], [-0.173684999911111, 51.15430515128889], [-0.173684351111111, 51.154308412222235], [-0.1736834008, 51.1543116064], [-0.173682148977778, 51.15431473382222], [-0.173680595644444, 51.15431779448888], [-0.1736787408, 51.1543207884], [-0.173676584444444, 51.154323715555556], [-0.173674126577778, 51.15432657595555], [-0.1736713672, 51.154329369600006], [-0.173668306311111, 51.154332096488886], [-0.173664943911111, 51.15433475662222], [-0.17366128, 51.15433735], [-0.17348298, 51.15444836]]]}}, {"type": "Feature", "properties": {"name": "New Taxiway 29", "surface_type": "UNKNOWN_53", "smoothness": 0.0, "texture_orientation": 285.0}, "geometry": {"type": "Polygon", "coordinates": [[[-0.17099169, 51.15911772], [-0.17110437, 51.15891797], [-0.17119866, 51.15903119], [-0.17169318, 51.1588679], [-0.17160753, 51.15861093], [-0.17164664, 51.15851284], [-0.171656078844444, 51.15848831724445], [-0.171666462044444, 51.15846382097778], [-0.1716777896, 51.15843935120001], [-0.171690061511111, 51.15841490791111], [-0.171703277777778, 51.15839049111111], [-0.1717174384, 51.1583661008], [-0.171732543377778, 51.158341736977775], [-0.171748592711111, 51.15831739964445], [-0.1717655864, 51.158293088799994], [-0.171783524444444, 51.15826880444445], [-0.171802406844444, 51.15824454657778], [-0.1718222336, 51.1582203152], [-0.171843004711111, 51.15819611031111], [-0.171864720177778, 51.15817193191111], [-0.17188738, 51.15814778], [-0.1715775, 51.15820912], [-0.17155587, 51.15820532], [-0.17148489, 51.15821835], [-0.17122903, 51.1582999], [-0.171214171733333, 51.15830648044445], [-0.171200108933333, 51.15831323244445], [-0.1711868416, 51.158320156], [-0.171174369733333, 51.15832725111112], [-0.171162693333333, 51.15833451777779], [-0.1711518124, 51.158341956], [-0.171141726933333, 51.158349565777776], [-0.171132436933333, 51.15835734711111], [-0.1711239424, 51.1583653], [-0.171116243333333, 51.15837342444444], [-0.171109339733333, 51.15838172044444], [-0.1711032316, 51.158390188], [-0.171097918933333, 51.158398827111114], [-0.171093401733333, 51.15840763777778], [-0.17108968, 51.15841662], [-0.171073360711111, 51.15845714653334], [-0.171055802844444, 51.15849744613333], [-0.1710370064, 51.15853751880001], [-0.171016971377778, 51.158577364533336], [-0.170995697777778, 51.15861698333333], [-0.1709731856, 51.158656375199996], [-0.170949434844444, 51.15869554013334], [-0.170924445511111, 51.15873447813334], [-0.1708982176, 51.1587731892], [-0.170870751111111, 51.15881167333333], [-0.170842046044444, 51.158849930533336], [-0.1708121024, 51.1588879608], [-0.170780920177778, 51.15892576413333], [-0.170748499377778, 51.15896334053333], [-0.17071484, 51.15900069], [-0.17099169, 51.15911772]]]}}, {"type": "Feature", "properties": {"name": "New Taxiway 30", "surface_type": "UNKNOWN_53", "smoothness": 0.0, "texture_orientation": 170.0}, "geometry": {"type": "Polygon", "coordinates": [[[-0.1678903, 51.15961134], [-0.16772822, 51.15954224], [-0.16767993, 51.15958911], [-0.16693069, 51.15929907], [-0.16676098, 51.15921253], [-0.16641437, 51.15926685], [-0.166434702228148, 51.159290841810375], [-0.166456573958519, 51.1593153722163], [-0.16647994176, 51.15934022968001], [-0.166504762201481, 51.15936520266372], [-0.166530991851852, 51.15939007962964], [-0.16655858728, 51.15941464904], [-0.166587505054815, 51.15943869935703], [-0.166617701745185, 51.15946201904296], [-0.16664913392, 51.15948439656], [-0.166681758148148, 51.15950562037038], [-0.166715530998518, 51.15952547893629], [-0.16675040904, 51.15954376072], [-0.166786348841481, 51.1595602541837], [-0.166823306971852, 51.15957474778963], [-0.16686124, 51.15958703], [-0.16717584, 51.15967426], [-0.16783213, 51.15980807], [-0.1678903, 51.15961134]]]}}, {"type": "Feature", "properties": {"name": "RA", "surface_type": "UNKNOWN_53", "smoothness": 0.0, "texture_orientation": 35.0}, "geometry": {"type": "Polygon", "coordinates": [[[-0.18285399, 51.15537866], [-0.182842750666667, 51.155395127333335], [-0.18283151, 51.15541127066666], [-0.182820268, 51.15542709000001], [-0.182809024666667, 51.15544258533334], [-0.18279778, 51.15545775666668], [-0.182786534, 51.155472604], [-0.182775286666667, 51.15548712733334], [-0.182764038, 51.155501326666666], [-0.182752788, 51.155515202], [-0.182741536666667, 51.15552875333333], [-0.182730284, 51.15554198066666], [-0.18271903, 51.155554884], [-0.182707774666667, 51.155567463333334], [-0.182696518, 51.155579718666665], [-0.18268526, 51.15559165], [-0.18245835, 51.15582237], [-0.18263513, 51.15615812], [-0.18269342, 51.15605542], [-0.18282978, 51.15593014], [-0.18280181, 51.15591118], [-0.18318271, 51.15553972], [-0.18285399, 51.15537866]]]}}, {"type": "Feature", "properties": {"name": "New Taxiway 28", "surface_type": "UNKNOWN_53", "smoothness": 0.0, "texture_orientation": 310.0}, "geometry": {"type": "Polygon", "coordinates": [[[-0.17030745, 51.15967519], [-0.17099169, 51.15911772], [-0.17071484, 51.15900069], [-0.170678197155556, 51.159040326622225], [-0.170640705955556, 51.15907893782223], [-0.1706023664, 51.159116523600005], [-0.170563178488889, 51.159153083955566], [-0.170523142222222, 51.1591886188889], [-0.1704822576, 51.1592231284], [-0.170440524622222, 51.159256612488896], [-0.170397943288889, 51.15928907115555], [-0.1703545136, 51.1593205044], [-0.170310235555556, 51.15935091222223], [-0.170265109155556, 51.159380294622224], [-0.1702191344, 51.1594086516], [-0.170172311288889, 51.15943598315556], [-0.170124639822222, 51.159462289288896], [-0.17007612, 51.15948757], [-0.17030745, 51.15967519]]]}}, {"type": "Feature", "properties": {"name": "New Taxiway 38", "surface_type": "ASPHALT", "smoothness": 0.0, "texture_orientation": 170.0}, "geometry": {"type": "Polygon", "coordinates": [[[-0.16858515, 51.15735159], [-0.16860455, 51.15735449], [-0.16862995, 51.15730452], [-0.16862016, 51.15726555], [-0.16864456, 51.15726277], [-0.16862737, 51.15721331], [-0.16867616, 51.15720712], [-0.16866175, 51.15716261], [-0.1686816, 51.15716073], [-0.16866452, 51.15711427], [-0.16871941, 51.15710696], [-0.16868504, 51.15701306], [-0.16841611, 51.15705167], [-0.16843385, 51.15709583], [-0.1684089, 51.15710036], [-0.16842553, 51.15714348], [-0.16838117, 51.157148], [-0.16840003, 51.15719878], [-0.16836722, 51.15720376], [-0.16838672, 51.15725001], [-0.16835511, 51.15725407], [-0.1683723, 51.15729824], [-0.16832073, 51.15730311], [-0.16835733, 51.15739805], [-0.16834125, 51.15740083], [-0.16838108, 51.15749101], [-0.1684309, 51.15748981], [-0.1684012, 51.15766408], [-0.16845134, 51.15766943], [-0.16858515, 51.15735159]]]}}, {"type": "Feature", "properties": {"name": "New Taxiway 18", "surface_type": "UNKNOWN_53", "smoothness": 0.0, "texture_orientation": 77.5}, "geometry": {"type": "Polygon", "coordinates": [[[-0.1742528, 51.15279917], [-0.17393471, 51.15274749], [-0.173910921777778, 51.15273713897779], [-0.173889373111111, 51.15272643524445], [-0.173870064, 51.15271537880001], [-0.173852994444444, 51.15270396964445], [-0.173838164444444, 51.15269220777779], [-0.173825574, 51.152680093200004], [-0.173815223111111, 51.15266762591111], [-0.173807111777778, 51.15265480591111], [-0.17380124, 51.1526416332], [-0.173797607777778, 51.15262810777779], [-0.173796215111111, 51.15261422964444], [-0.173797062, 51.15259999880001], [-0.173800148444444, 51.15258541524445], [-0.173805474444444, 51.15257047897778], [-0.17381304, 51.15255519], [-0.17379153, 51.15254359], [-0.17363143, 51.15256621], [-0.1736985, 51.1527743], [-0.17378144, 51.152763], [-0.17380596, 51.15283492], [-0.17388673, 51.15282497], [-0.17390403, 51.15287609], [-0.17415863, 51.15284035], [-0.17418315, 51.15289147], [-0.17456105, 51.15283764], [-0.17454664, 51.15279557], [-0.1742528, 51.15279917]]]}}, {"type": "Feature", "properties": {"name": "New Taxiway 41", "surface_type": "GRAVEL", "smoothness": 0.0, "texture_orientation": 348.0}, "geometry": {"type": "Polygon", "coordinates": [[[-0.18348625, 51.15956344], [-0.1835438, 51.1597231], [-0.18364141, 51.15976901], [-0.18364141, 51.15978764], [-0.18387374, 51.15977433], [-0.18395382, 51.15975177], [-0.1839047, 51.15956739], [-0.183901204622222, 51.159561321733335], [-0.183896777155556, 51.15955574626667], [-0.1838914176, 51.15955066360001], [-0.183885125955556, 51.159546073733345], [-0.183877902222222, 51.15954197666667], [-0.1838697464, 51.1595383724], [-0.183860658488889, 51.15953526093333], [-0.183850638488889, 51.15953264226667], [-0.1838396864, 51.159530516400004], [-0.183827802222222, 51.15952888333334], [-0.183814985955556, 51.15952774306667], [-0.1838012376, 51.1595270956], [-0.183786557155556, 51.15952694093333], [-0.183770944622222, 51.159527279066666], [-0.1837544, 51.15952811], [-0.18348625, 51.15956344]]]}}, {"type": "Feature", "properties": {"name": "New Taxiway 41", "surface_type": "ASPHALT", "smoothness": 0.0, "texture_orientation": 348.0}, "geometry": {"type": "Polygon", "coordinates": [[[-0.17207768, 51.15283738], [-0.17217487, 51.15312776], [-0.1724278, 51.1530929], [-0.17232004, 51.15280664], [-0.17207768, 51.15283738]]]}}, {"type": "Feature", "properties": {"name": "New Taxiway 3", "surface_type": "UNKNOWN_53", "smoothness": 0.25, "texture_orientation": 325.0}, "geometry": {"type": "Polygon", "coordinates": [[[-0.18356607, 51.16049635], [-0.18355294, 51.16045681], [-0.18351914, 51.16046139], [-0.18315559, 51.16013257], [-0.18303593, 51.16019043], [-0.18340587, 51.1605204], [-0.18347467, 51.16050993], [-0.18347051, 51.16049699], [-0.18349972, 51.16049317], [-0.18350334, 51.16050569], [-0.18356607, 51.16049635]]]}}, {"type": "Feature", "properties": {"name": "New Taxiway 13", "surface_type": "UNKNOWN_53", "smoothness": 0.0, "texture_orientation": 348.0}, "geometry": {"type": "Polygon", "coordinates": [[[-0.18113557, 51.15613886], [-0.18064615, 51.1562239], [-0.1806572, 51.15624956], [-0.18073632, 51.1562372], [-0.18113557, 51.15613886]]]}}]}