{"type": "FeatureCollection", "name": "EGKK.startup_locations", "crs": {"type": "name", "properties": {"name": "urn:ogc:def:crs:OGC:1.3:CRS84"}}, "features": [{"type": "Feature", "properties": {"heading": 345.3, "location_type": "gate", "airplane_types": "jets|turboprops", "name": "Gate 5", "width_code": "C", "operation_type": "airline", "airline_codes": "baw aea aua nax nrs ibk llc aui ein amc cpa jea pgt swr tsc ctn ryr tap bti ibe thy wow"}, "geometry": {"type": "Point", "coordinates": [-0.16290351, 51.15385077]}}, {"type": "Feature", "properties": {"heading": 346.3, "location_type": "gate", "airplane_types": "jets|turboprops", "name": "Gate 4", "width_code": "C", "operation_type": "airline", "airline_codes": "baw aea aua nax nrs ibk llc aui ein amc cpa jea pgt swr tsc ctn ryr tap bti ibe thy wow"}, "geometry": {"type": "Point", "coordinates": [-0.16349343, 51.15375094]}}, {"type": "Feature", "properties": {"heading": 74.7, "location_type": "gate", "airplane_types": "jets|turboprops", "name": "Gate 3", "width_code": "C", "operation_type": "airline", "airline_codes": "baw aea aua nax nrs ibk llc aui ein amc cpa jea pgt swr tsc ctn ryr tap bti ibe thy wow"}, "geometry": {"type": "Point", "coordinates": [-0.16388832, 51.15406875]}}, {"type": "Feature", "properties": {"heading": 74.8, "location_type": "gate", "airplane_types": "jets|turboprops", "name": "Gate 2", "width_code": "C", "operation_type": "airline", "airline_codes": "baw aea aua nax nrs ibk llc aui ein amc cpa jea pgt swr tsc ctn ryr tap bti ibe thy wow"}, "geometry": {"type": "Point", "coordinates": [-0.16403975, 51.15450884]}}, {"type": "Feature", "properties": {"heading": 77.0, "location_type": "gate", "airplane_types": "jets|turboprops", "name": "Gate 1", "width_code": "C", "operation_type": "airline", "airline_codes": "baw aea aua nax nrs ibk llc aui ein amc cpa jea pgt swr tsc ctn ryr tap bti ibe thy wow"}, "geometry": {"type": "Point", "coordinates": [-0.16419401, 51.15494011]}}, {"type": "Feature", "properties": {"heading": -113.5, "location_type": "gate", "airplane_types": "jets|turboprops|props", "name": "Maintenance Area", "width_code": "E", "operation_type": "none", "airline_codes": null}, "geometry": {"type": "Point", "coordinates": [-0.17480024, 51.14719223]}}, {"type": "Feature", "properties": {"heading": -128.8, "location_type": "gate", "airplane_types": "jets|turboprops|props", "name": "Maintenance Area", "width_code": "C", "operation_type": "none", "airline_codes": null}, "geometry": {"type": "Point", "coordinates": [-0.17453978, 51.14704219]}}, {"type": "Feature", "properties": {"heading": -89.1, "location_type": "gate", "airplane_types": "jets|turboprops|props", "name": "Maintenance Area", "width_code": "C", "operation_type": "none", "airline_codes": null}, "geometry": {"type": "Point", "coordinates": [-0.17480908, 51.14750302]}}, {"type": "Feature", "properties": {"heading": -136.0, "location_type": "tie_down", "airplane_types": "jets|turboprops|props", "name": "Maintenance Area", "width_code": "C", "operation_type": "none", "airline_codes": null}, "geometry": {"type": "Point", "coordinates": [-0.17267706, 51.14750369]}}, {"type": "Feature", "properties": {"heading": 346.8, "location_type": "gate", "airplane_types": "jets", "name": "41E", "width_code": "C", "operation_type": "airline", "airline_codes": "afl aca ezy ice ram tom ger vir vlg wja"}, "geometry": {"type": "Point", "coordinates": [-0.17145537, 51.15712848]}}, {"type": "Feature", "properties": {"heading": 347.5, "location_type": "gate", "airplane_types": "heavy", "name": "41", "width_code": "E", "operation_type": "airline", "airline_codes": "afl aca ezy ice ram tom ger vir vlg wja"}, "geometry": {"type": "Point", "coordinates": [-0.1717997, 51.15730388]}}, {"type": "Feature", "properties": {"heading": 347.3, "location_type": "gate", "airplane_types": "jets", "name": "41W", "width_code": "C", "operation_type": "airline", "airline_codes": "afl aca ezy ice ram tom ger vir vlg wja"}, "geometry": {"type": "Point", "coordinates": [-0.1721785, 51.15703521]}}, {"type": "Feature", "properties": {"heading": 347.4, "location_type": "gate", "airplane_types": "jets", "name": "43W", "width_code": "C", "operation_type": "airline", "airline_codes": "afl aca ezy ice ram tom ger vir vlg wja"}, "geometry": {"type": "Point", "coordinates": [-0.17385827, 51.15680263]}}, {"type": "Feature", "properties": {"heading": 347.5, "location_type": "gate", "airplane_types": "heavy", "name": "43", "width_code": "E", "operation_type": "airline", "airline_codes": "afl aca ezy ice ram tom ger vir vlg wja"}, "geometry": {"type": "Point", "coordinates": [-0.17371476, 51.15703305]}}, {"type": "Feature", "properties": {"heading": 347.2, "location_type": "gate", "airplane_types": "jets", "name": "43E", "width_code": "C", "operation_type": "airline", "airline_codes": "afl aca ezy ice ram tom ger vir vlg wja"}, "geometry": {"type": "Point", "coordinates": [-0.17313705, 51.15690006]}}, {"type": "Feature", "properties": {"heading": 347.5, "location_type": "gate", "airplane_types": "jets|turboprops", "name": "42", "width_code": "C", "operation_type": "airline", "airline_codes": "afl aca ezy ice ram tom ger vir vlg wja"}, "geometry": {"type": "Point", "coordinates": [-0.17274081, 51.15714558]}}, {"type": "Feature", "properties": {"heading": -12.0, "location_type": "gate", "airplane_types": "jets", "name": "51R", "width_code": "C", "operation_type": "airline", "airline_codes": "afl aca ezy ice ram tom ger vir vlg wja"}, "geometry": {"type": "Point", "coordinates": [-0.1737762, 51.15874535]}}, {"type": "Feature", "properties": {"heading": 348.3, "location_type": "gate", "airplane_types": "jets", "name": "51L", "width_code": "C", "operation_type": "airline", "airline_codes": "afl aca ezy ice ram tom ger vir vlg wja"}, "geometry": {"type": "Point", "coordinates": [-0.17434992, 51.15861372]}}, {"type": "Feature", "properties": {"heading": -12.4, "location_type": "gate", "airplane_types": "jets|turboprops", "name": "51", "width_code": "E", "operation_type": "airline", "airline_codes": "afl aca ezy ice ram tom ger vir vlg wja"}, "geometry": {"type": "Point", "coordinates": [-0.17422777, 51.15881862]}}, {"type": "Feature", "properties": {"heading": 347.7, "location_type": "gate", "airplane_types": "heavy|jets|turboprops", "name": "53", "width_code": "D", "operation_type": "airline", "airline_codes": "afl aca ezy ice ram tom ger vir vlg wja"}, "geometry": {"type": "Point", "coordinates": [-0.17633194, 51.15846288]}}, {"type": "Feature", "properties": {"heading": -23.4, "location_type": "gate", "airplane_types": "jets", "name": "49R", "width_code": "C", "operation_type": "airline", "airline_codes": "afl aca ezy ice ram tom ger vir vlg wja"}, "geometry": {"type": "Point", "coordinates": [-0.1719847, 51.15897228]}}, {"type": "Feature", "properties": {"heading": 346.6, "location_type": "gate", "airplane_types": "heavy", "name": "49", "width_code": "E", "operation_type": "airline", "airline_codes": "afl aca ezy ice ram tom ger vir vlg wja"}, "geometry": {"type": "Point", "coordinates": [-0.17233122, 51.15909358]}}, {"type": "Feature", "properties": {"heading": 346.6, "location_type": "gate", "airplane_types": "jets", "name": "49L", "width_code": "C", "operation_type": "airline", "airline_codes": "afl aca ezy ice ram tom ger vir vlg wja"}, "geometry": {"type": "Point", "coordinates": [-0.17247159, 51.15886692]}}, {"type": "Feature", "properties": {"heading": 348.5, "location_type": "gate", "airplane_types": "jets", "name": "52R", "width_code": "C", "operation_type": "airline", "airline_codes": "afl aca ezy ice ram tom ger vir vlg wja"}, "geometry": {"type": "Point", "coordinates": [-0.17504453, 51.1586276]}}, {"type": "Feature", "properties": {"heading": 347.4, "location_type": "gate", "airplane_types": "heavy", "name": "52", "width_code": "E", "operation_type": "airline", "airline_codes": "afl aca ezy ice ram tom ger vir vlg wja"}, "geometry": {"type": "Point", "coordinates": [-0.17526649, 51.15868255]}}, {"type": "Feature", "properties": {"heading": 347.2, "location_type": "gate", "airplane_types": "jets", "name": "52L", "width_code": "C", "operation_type": "airline", "airline_codes": "afl aca ezy ice ram tom ger vir vlg wja"}, "geometry": {"type": "Point", "coordinates": [-0.17555261, 51.15839995]}}, {"type": "Feature", "properties": {"heading": 347.5, "location_type": "gate", "airplane_types": "jets", "name": "54R", "width_code": "C", "operation_type": "airline", "airline_codes": "afl aca ezy ice ram tom ger vir vlg wja"}, "geometry": {"type": "Point", "coordinates": [-0.1769308, 51.15826399]}}, {"type": "Feature", "properties": {"heading": 347.9, "location_type": "gate", "airplane_types": "jets", "name": "54L", "width_code": "C", "operation_type": "airline", "airline_codes": "afl aca ezy ice ram tom ger vir vlg wja"}, "geometry": {"type": "Point", "coordinates": [-0.17749406, 51.15815383]}}, {"type": "Feature", "properties": {"heading": 347.4, "location_type": "gate", "airplane_types": "heavy", "name": "54", "width_code": "E", "operation_type": "airline", "airline_codes": "afl aca ezy ice ram tom ger vir vlg wja"}, "geometry": {"type": "Point", "coordinates": [-0.17739112, 51.15835772]}}, {"type": "Feature", "properties": {"heading": 347.6, "location_type": "gate", "airplane_types": "heavy|jets|turboprops", "name": "50", "width_code": "E", "operation_type": "airline", "airline_codes": "afl aca ezy ice ram tom ger vir vlg wja"}, "geometry": {"type": "Point", "coordinates": [-0.17323883, 51.15894454]}}, {"type": "Feature", "properties": {"heading": 332.7, "location_type": "gate", "airplane_types": "jets|turboprops", "name": "46", "width_code": "C", "operation_type": "airline", "airline_codes": "afl aca ezy ice ram tom ger vir vlg wja"}, "geometry": {"type": "Point", "coordinates": [-0.16966122, 51.160443]}}, {"type": "Feature", "properties": {"heading": 333.1, "location_type": "gate", "airplane_types": "heavy|jets|turboprops", "name": "47", "width_code": "E", "operation_type": "airline", "airline_codes": "afl aca ezy ice ram tom ger vir vlg wja"}, "geometry": {"type": "Point", "coordinates": [-0.17061037, 51.1603328]}}, {"type": "Feature", "properties": {"heading": -43.6, "location_type": "gate", "airplane_types": "jets", "name": "48R", "width_code": "C", "operation_type": "airline", "airline_codes": "afl aca ezy ice ram tom ger vir vlg wja"}, "geometry": {"type": "Point", "coordinates": [-0.1714877, 51.15981554]}}, {"type": "Feature", "properties": {"heading": -44.9, "location_type": "gate", "airplane_types": "jets", "name": "48L", "width_code": "C", "operation_type": "airline", "airline_codes": "afl aca ezy ice ram tom ger vir vlg wja"}, "geometry": {"type": "Point", "coordinates": [-0.17167353, 51.15938888]}}, {"type": "Feature", "properties": {"heading": 322.3, "location_type": "gate", "airplane_types": "heavy|jets", "name": "48", "width_code": "E", "operation_type": "airline", "airline_codes": "afl aca ezy ice ram tom ger vir vlg wja"}, "geometry": {"type": "Point", "coordinates": [-0.17157241, 51.15978856]}}, {"type": "Feature", "properties": {"heading": 77.8, "location_type": "gate", "airplane_types": "jets", "name": "562", "width_code": "C", "operation_type": "airline", "airline_codes": "afl aca ezy ice ram tom ger vir vlg wja"}, "geometry": {"type": "Point", "coordinates": [-0.17984791, 51.1602756]}}, {"type": "Feature", "properties": {"heading": 79.4, "location_type": "gate", "airplane_types": "heavy", "name": "561", "width_code": "E", "operation_type": "airline", "airline_codes": "afl aca ezy ice ram tom ger vir vlg wja"}, "geometry": {"type": "Point", "coordinates": [-0.17960937, 51.15995772]}}, {"type": "Feature", "properties": {"heading": 78.3, "location_type": "gate", "airplane_types": "jets", "name": "560", "width_code": "C", "operation_type": "airline", "airline_codes": "afl aca ezy ice ram tom ger vir vlg wja"}, "geometry": {"type": "Point", "coordinates": [-0.17964577, 51.15985212]}}, {"type": "Feature", "properties": {"heading": 78.5, "location_type": "gate", "airplane_types": "heavy|jets|turboprops", "name": "564", "width_code": "C", "operation_type": "airline", "airline_codes": "afl aca ezy ice ram tom ger vir vlg wja"}, "geometry": {"type": "Point", "coordinates": [-0.18023394, 51.16062904]}}, {"type": "Feature", "properties": {"heading": 78.5, "location_type": "gate", "airplane_types": "heavy|jets|turboprops", "name": "563", "width_code": "E", "operation_type": "airline", "airline_codes": "afl aca ezy ice ram tom ger vir vlg wja"}, "geometry": {"type": "Point", "coordinates": [-0.17988595, 51.16055576]}}, {"type": "Feature", "properties": {"heading": 76.7, "location_type": "gate", "airplane_types": "heavy|jets|turboprops", "name": "570", "width_code": "E", "operation_type": "airline", "airline_codes": "afl aca ezy ice ram tom ger vir vlg wja"}, "geometry": {"type": "Point", "coordinates": [-0.18047093, 51.16246583]}}, {"type": "Feature", "properties": {"heading": 78.3, "location_type": "gate", "airplane_types": "jets", "name": "569", "width_code": "C", "operation_type": "airline", "airline_codes": "afl aca ezy ice ram tom ger vir vlg wja"}, "geometry": {"type": "Point", "coordinates": [-0.18054208, 51.161826]}}, {"type": "Feature", "properties": {"heading": 78.3, "location_type": "gate", "airplane_types": "jets", "name": "569", "width_code": "C", "operation_type": "airline", "airline_codes": "afl aca ezy ice ram tom ger vir vlg wja"}, "geometry": {"type": "Point", "coordinates": [-0.18048348, 51.1623881]}}, {"type": "Feature", "properties": {"heading": 77.7, "location_type": "gate", "airplane_types": "heavy|jets", "name": "568", "width_code": "D", "operation_type": "airline", "airline_codes": "afl aca ezy ice ram tom ger vir vlg wja"}, "geometry": {"type": "Point", "coordinates": [-0.1803621, 51.16177391]}}, {"type": "Feature", "properties": {"heading": -12.3, "location_type": "gate", "airplane_types": "jets|turboprops", "name": "552", "width_code": "C", "operation_type": "airline", "airline_codes": "afl aca ezy ice ram tom ger vir vlg wja"}, "geometry": {"type": "Point", "coordinates": [-0.17884223, 51.15783768]}}, {"type": "Feature", "properties": {"heading": -12.4, "location_type": "gate", "airplane_types": "jets|turboprops", "name": "551", "width_code": "B", "operation_type": "airline", "airline_codes": "afl aca ezy ice ram tom ger vir vlg wja"}, "geometry": {"type": "Point", "coordinates": [-0.17834616, 51.15790909]}}, {"type": "Feature", "properties": {"heading": 32.9, "location_type": "gate", "airplane_types": "jets|turboprops", "name": "553", "width_code": "C", "operation_type": "airline", "airline_codes": "afl aca ezy ice ram tom ger vir vlg wja"}, "geometry": {"type": "Point", "coordinates": [-0.17929926, 51.15779907]}}, {"type": "Feature", "properties": {"heading": 76.7, "location_type": "gate", "airplane_types": "jets|turboprops", "name": "555", "width_code": "C", "operation_type": "airline", "airline_codes": "afl aca ezy ice ram tom ger vir vlg wja"}, "geometry": {"type": "Point", "coordinates": [-0.17928497, 51.15860786]}}, {"type": "Feature", "properties": {"heading": 76.3, "location_type": "gate", "airplane_types": "jets|turboprops", "name": "554", "width_code": "C", "operation_type": "airline", "airline_codes": "afl aca ezy ice ram tom ger vir vlg wja"}, "geometry": {"type": "Point", "coordinates": [-0.17921683, 51.15817909]}}, {"type": "Feature", "properties": {"heading": 77.4, "location_type": "gate", "airplane_types": "heavy", "name": "558", "width_code": "F", "operation_type": "airline", "airline_codes": "uae"}, "geometry": {"type": "Point", "coordinates": [-0.17922779, 51.15927344]}}, {"type": "Feature", "properties": {"heading": 77.6, "location_type": "gate", "airplane_types": "jets|turboprops", "name": "557", "width_code": "C", "operation_type": "airline", "airline_codes": "afl aca ezy ice ram tom ger vir vlg wja"}, "geometry": {"type": "Point", "coordinates": [-0.17941661, 51.15903613]}}, {"type": "Feature", "properties": {"heading": 77.8, "location_type": "gate", "airplane_types": "jets", "name": "559", "width_code": "C", "operation_type": "airline", "airline_codes": "afl aca ezy ice ram tom ger vir vlg wja"}, "geometry": {"type": "Point", "coordinates": [-0.17965925, 51.15941193]}}, {"type": "Feature", "properties": {"heading": 79.1, "location_type": "gate", "airplane_types": "heavy", "name": "566", "width_code": "E", "operation_type": "airline", "airline_codes": "afl aca ezy ice ram tom ger vir vlg wja"}, "geometry": {"type": "Point", "coordinates": [-0.18007246, 51.16120942]}}, {"type": "Feature", "properties": {"heading": 77.8, "location_type": "gate", "airplane_types": "jets", "name": "565", "width_code": "C", "operation_type": "airline", "airline_codes": "afl aca ezy ice ram tom ger vir vlg wja"}, "geometry": {"type": "Point", "coordinates": [-0.18016282, 51.16110644]}}, {"type": "Feature", "properties": {"heading": 78.2, "location_type": "gate", "airplane_types": "jets", "name": "567", "width_code": "C", "operation_type": "airline", "airline_codes": "afl aca ezy ice ram tom ger vir vlg wja"}, "geometry": {"type": "Point", "coordinates": [-0.18024792, 51.16149518]}}, {"type": "Feature", "properties": {"heading": 77.9, "location_type": "gate", "airplane_types": "jets", "name": "572", "width_code": "C", "operation_type": "airline", "airline_codes": "afl aca ezy ice ram tom ger vir vlg wja"}, "geometry": {"type": "Point", "coordinates": [-0.18076924, 51.16276831]}}, {"type": "Feature", "properties": {"heading": 77.7, "location_type": "gate", "airplane_types": "heavy", "name": "573", "width_code": "E", "operation_type": "airline", "airline_codes": "afl aca ezy ice ram tom ger vir vlg wja"}, "geometry": {"type": "Point", "coordinates": [-0.18079483, 51.16307614]}}, {"type": "Feature", "properties": {"heading": 78.4, "location_type": "gate", "airplane_types": "jets", "name": "574", "width_code": "C", "operation_type": "airline", "airline_codes": "afl aca ezy ice ram tom ger vir vlg wja"}, "geometry": {"type": "Point", "coordinates": [-0.18104912, 51.16314171]}}, {"type": "Feature", "properties": {"heading": -102.3, "location_type": "gate", "airplane_types": "jets|turboprops", "name": "64R", "width_code": "C", "operation_type": "airline", "airline_codes": "afl aca ezy ice ram tom ger vir vlg wja"}, "geometry": {"type": "Point", "coordinates": [-0.18387221, 51.16274472]}}, {"type": "Feature", "properties": {"heading": 257.1, "location_type": "gate", "airplane_types": "heavy|jets|turboprops", "name": "64", "width_code": "E", "operation_type": "airline", "airline_codes": "afl aca ezy ice ram tom ger vir vlg wja"}, "geometry": {"type": "Point", "coordinates": [-0.18382677, 51.16258]}}, {"type": "Feature", "properties": {"heading": 257.1, "location_type": "gate", "airplane_types": "jets|turboprops", "name": "64L", "width_code": "C", "operation_type": "airline", "airline_codes": "afl aca ezy ice ram tom ger vir vlg wja"}, "geometry": {"type": "Point", "coordinates": [-0.18347398, 51.16235171]}}, {"type": "Feature", "properties": {"heading": 256.4, "location_type": "gate", "airplane_types": "jets|turboprops", "name": "65", "width_code": "C", "operation_type": "airline", "airline_codes": "afl aca ezy ice ram tom ger vir vlg wja"}, "geometry": {"type": "Point", "coordinates": [-0.18363258, 51.1619224]}}, {"type": "Feature", "properties": {"heading": -102.4, "location_type": "gate", "airplane_types": "jets", "name": "66R", "width_code": "C", "operation_type": "airline", "airline_codes": "afl aca ezy ice ram tom ger vir vlg wja"}, "geometry": {"type": "Point", "coordinates": [-0.18334234, 51.16154426]}}, {"type": "Feature", "properties": {"heading": -102.6, "location_type": "gate", "airplane_types": "jets", "name": "66L", "width_code": "C", "operation_type": "airline", "airline_codes": "afl aca ezy ice ram tom ger vir vlg wja"}, "geometry": {"type": "Point", "coordinates": [-0.18325053, 51.16115808]}}, {"type": "Feature", "properties": {"heading": -102.0, "location_type": "gate", "airplane_types": "heavy", "name": "66", "width_code": "E", "operation_type": "airline", "airline_codes": "afl aca ezy ice ram tom ger vir vlg wja"}, "geometry": {"type": "Point", "coordinates": [-0.18339217, 51.16125203]}}, {"type": "Feature", "properties": {"heading": -91.4, "location_type": "gate", "airplane_types": "heavy|jets|turboprops", "name": "67", "width_code": "C", "operation_type": "airline", "airline_codes": "afl aca ezy ice ram tom ger vir vlg wja"}, "geometry": {"type": "Point", "coordinates": [-0.18277936, 51.16081604]}}, {"type": "Feature", "properties": {"heading": -35.2, "location_type": "gate", "airplane_types": "jets|turboprops", "name": "68", "width_code": "C", "operation_type": "airline", "airline_codes": "afl aca ezy ice ram tom ger vir vlg wja"}, "geometry": {"type": "Point", "coordinates": [-0.18333791, 51.160665]}}, {"type": "Feature", "properties": {"heading": 167.3, "location_type": "gate", "airplane_types": "heavy|jets|turboprops", "name": "102", "width_code": "E", "operation_type": "airline", "airline_codes": "afl aca ezy ice ram tom ger vir vlg wja"}, "geometry": {"type": "Point", "coordinates": [-0.17599333, 51.15647032]}}, {"type": "Feature", "properties": {"heading": 167.8, "location_type": "gate", "airplane_types": "heavy|jets|turboprops", "name": "101", "width_code": "C", "operation_type": "airline", "airline_codes": "afl aca ezy ice ram tom ger vir vlg wja"}, "geometry": {"type": "Point", "coordinates": [-0.1769207, 51.15650829]}}, {"type": "Feature", "properties": {"heading": 167.8, "location_type": "gate", "airplane_types": "jets|turboprops", "name": "113", "width_code": "C", "operation_type": "airline", "airline_codes": "afl aca ezy ice ram tom ger vir vlg wja"}, "geometry": {"type": "Point", "coordinates": [-0.17784585, 51.15637307]}}, {"type": "Feature", "properties": {"heading": 167.3, "location_type": "gate", "airplane_types": "jets|turboprops", "name": "112", "width_code": "C", "operation_type": "airline", "airline_codes": "afl aca ezy ice ram tom ger vir vlg wja"}, "geometry": {"type": "Point", "coordinates": [-0.17849986, 51.15627189]}}, {"type": "Feature", "properties": {"heading": -29.3, "location_type": "gate", "airplane_types": "jets|turboprops", "name": "103", "width_code": "C", "operation_type": "none", "airline_codes": "afl aca ezy ice ram tom ger vir vlg wja"}, "geometry": {"type": "Point", "coordinates": [-0.17573492, 51.15609294]}}, {"type": "Feature", "properties": {"heading": 347.3, "location_type": "gate", "airplane_types": "jets|turboprops", "name": "104", "width_code": "C", "operation_type": "airline", "airline_codes": "afl aca ezy ice ram tom ger vir vlg wja"}, "geometry": {"type": "Point", "coordinates": [-0.17624722, 51.15599965]}}, {"type": "Feature", "properties": {"heading": -12.5, "location_type": "gate", "airplane_types": "jets|turboprops", "name": "105", "width_code": "C", "operation_type": "airline", "airline_codes": "afl aca ezy ice ram tom ger vir vlg wja"}, "geometry": {"type": "Point", "coordinates": [-0.1768581, 51.15591734]}}, {"type": "Feature", "properties": {"heading": -12.5, "location_type": "gate", "airplane_types": "jets|turboprops", "name": "106", "width_code": "C", "operation_type": "airline", "airline_codes": "afl aca ezy ice ram tom ger vir vlg wja"}, "geometry": {"type": "Point", "coordinates": [-0.17760792, 51.15578943]}}, {"type": "Feature", "properties": {"heading": -12.4, "location_type": "gate", "airplane_types": "jets|turboprops", "name": "107", "width_code": "C", "operation_type": "airline", "airline_codes": "afl aca ezy ice ram tom ger vir vlg wja"}, "geometry": {"type": "Point", "coordinates": [-0.17820262, 51.15569003]}}, {"type": "Feature", "properties": {"heading": 347.0, "location_type": "gate", "airplane_types": "jets|turboprops", "name": "24", "width_code": "C", "operation_type": "airline", "airline_codes": "baw aea aua nax nrs ibk llc aui ein amc cpa jea pgt swr tsc ctn ryr tap bti ibe thy wow"}, "geometry": {"type": "Point", "coordinates": [-0.17032573, 51.15488532]}}, {"type": "Feature", "properties": {"heading": 347.0, "location_type": "gate", "airplane_types": "jets|turboprops", "name": "28", "width_code": "C", "operation_type": "airline", "airline_codes": "baw aea aua nax nrs ibk llc aui ein amc cpa jea pgt swr tsc ctn ryr tap bti ibe thy wow"}, "geometry": {"type": "Point", "coordinates": [-0.17091868, 51.15478551]}}, {"type": "Feature", "properties": {"heading": -12.4, "location_type": "gate", "airplane_types": "jets|turboprops", "name": "20", "width_code": "C", "operation_type": "airline", "airline_codes": "baw aea aua nax nrs ibk llc aui ein amc cpa jea pgt swr tsc ctn ryr tap bti ibe thy wow"}, "geometry": {"type": "Point", "coordinates": [-0.16908277, 51.15505292]}}, {"type": "Feature", "properties": {"heading": 347.2, "location_type": "gate", "airplane_types": "jets|turboprops", "name": "18", "width_code": "C", "operation_type": "airline", "airline_codes": "baw aea aua nax nrs ibk llc aui ein amc cpa jea pgt swr tsc ctn ryr tap bti ibe thy wow"}, "geometry": {"type": "Point", "coordinates": [-0.16848231, 51.15511788]}}, {"type": "Feature", "properties": {"heading": 348.4, "location_type": "gate", "airplane_types": "heavy|jets|turboprops", "name": "16", "width_code": "C", "operation_type": "airline", "airline_codes": "baw aea aua nax nrs ibk llc aui ein amc cpa jea pgt swr tsc ctn ryr tap bti ibe thy wow"}, "geometry": {"type": "Point", "coordinates": [-0.16785183, 51.15518474]}}, {"type": "Feature", "properties": {"heading": -12.7, "location_type": "gate", "airplane_types": "heavy|jets|turboprops", "name": "14", "width_code": "C", "operation_type": "airline", "airline_codes": "baw aea aua nax nrs ibk llc aui ein amc cpa jea pgt swr tsc ctn ryr tap bti ibe thy wow"}, "geometry": {"type": "Point", "coordinates": [-0.16726337, 51.15525629]}}, {"type": "Feature", "properties": {"heading": -12.3, "location_type": "gate", "airplane_types": "jets|turboprops", "name": "11", "width_code": "C", "operation_type": "airline", "airline_codes": "baw aea aua nax nrs ibk llc aui ein amc cpa jea pgt swr tsc ctn ryr tap bti ibe thy wow"}, "geometry": {"type": "Point", "coordinates": [-0.16603993, 51.15541824]}}, {"type": "Feature", "properties": {"heading": 346.9, "location_type": "gate", "airplane_types": "jets|turboprops", "name": "12", "width_code": "C", "operation_type": "airline", "airline_codes": "baw aea aua nax nrs ibk llc aui ein amc cpa jea pgt swr tsc ctn ryr tap bti ibe thy wow"}, "geometry": {"type": "Point", "coordinates": [-0.16663228, 51.15536357]}}, {"type": "Feature", "properties": {"heading": 346.9, "location_type": "gate", "airplane_types": "jets|turboprops", "name": "10", "width_code": "C", "operation_type": "airline", "airline_codes": "baw aea aua nax nrs ibk llc aui ein amc cpa jea pgt swr tsc ctn ryr tap bti ibe thy wow"}, "geometry": {"type": "Point", "coordinates": [-0.16541544, 51.15551805]}}, {"type": "Feature", "properties": {"heading": 167.2, "location_type": "gate", "airplane_types": "heavy|jets|turboprops", "name": "15", "width_code": "E", "operation_type": "airline", "airline_codes": "baw aea aua nax nrs ibk llc aui ein amc cpa jea pgt swr tsc ctn ryr tap bti ibe thy wow"}, "geometry": {"type": "Point", "coordinates": [-0.16676256, 51.1559628]}}, {"type": "Feature", "properties": {"heading": 167.1, "location_type": "gate", "airplane_types": "heavy|jets|turboprops", "name": "17", "width_code": "E", "operation_type": "airline", "airline_codes": "baw aea aua nax nrs ibk llc aui ein amc cpa jea pgt swr tsc ctn ryr tap bti ibe thy wow"}, "geometry": {"type": "Point", "coordinates": [-0.16773532, 51.15585546]}}, {"type": "Feature", "properties": {"heading": 167.2, "location_type": "gate", "airplane_types": "heavy|jets|turboprops", "name": "19", "width_code": "E", "operation_type": "airline", "airline_codes": "baw aea aua nax nrs ibk llc aui ein amc cpa jea pgt swr tsc ctn ryr tap bti ibe thy wow"}, "geometry": {"type": "Point", "coordinates": [-0.16897379, 51.15563439]}}, {"type": "Feature", "properties": {"heading": 168.0, "location_type": "gate", "airplane_types": "heavy|jets|turboprops", "name": "21", "width_code": "D", "operation_type": "airline", "airline_codes": "baw aea aua nax nrs ibk llc aui ein amc cpa jea pgt swr tsc ctn ryr tap bti ibe thy wow"}, "geometry": {"type": "Point", "coordinates": [-0.16996456, 51.15551914]}}, {"type": "Feature", "properties": {"heading": 167.9, "location_type": "gate", "airplane_types": "heavy|jets|turboprops", "name": "23", "width_code": "D", "operation_type": "airline", "airline_codes": "baw aea aua nax nrs ibk llc aui ein amc cpa jea pgt swr tsc ctn ryr tap bti ibe thy wow"}, "geometry": {"type": "Point", "coordinates": [-0.17095173, 51.15542988]}}, {"type": "Feature", "properties": {"heading": 135.2, "location_type": "gate", "airplane_types": "heavy|jets|turboprops", "name": "25", "width_code": "E", "operation_type": "airline", "airline_codes": "baw aea aua nax nrs ibk llc aui ein amc cpa jea pgt swr tsc ctn ryr tap bti ibe thy wow"}, "geometry": {"type": "Point", "coordinates": [-0.17154979, 51.15523441]}}, {"type": "Feature", "properties": {"heading": 167.8, "location_type": "gate", "airplane_types": "jets", "name": "13L", "width_code": "C", "operation_type": "airline", "airline_codes": "baw aea aua nax nrs ibk llc aui ein amc cpa jea pgt swr tsc ctn ryr tap bti ibe thy wow"}, "geometry": {"type": "Point", "coordinates": [-0.16544002, 51.15620666]}}, {"type": "Feature", "properties": {"heading": 168.0, "location_type": "gate", "airplane_types": "heavy", "name": "13", "width_code": "E", "operation_type": "airline", "airline_codes": "baw aea aua nax nrs ibk llc aui ein amc cpa jea pgt swr tsc ctn ryr tap bti ibe thy wow"}, "geometry": {"type": "Point", "coordinates": [-0.16575677, 51.15605037]}}, {"type": "Feature", "properties": {"heading": 168.0, "location_type": "gate", "airplane_types": "jets", "name": "13R", "width_code": "C", "operation_type": "airline", "airline_codes": "baw aea aua nax nrs ibk llc aui ein amc cpa jea pgt swr tsc ctn ryr tap bti ibe thy wow"}, "geometry": {"type": "Point", "coordinates": [-0.16600596, 51.15615676]}}, {"type": "Feature", "properties": {"heading": 348.6, "location_type": "gate", "airplane_types": "jets|turboprops", "name": "22", "width_code": "C", "operation_type": "airline", "airline_codes": "baw aea aua nax nrs ibk llc aui ein amc cpa jea pgt swr tsc ctn ryr tap bti ibe thy wow"}, "geometry": {"type": "Point", "coordinates": [-0.16968023, 51.15496347]}}, {"type": "Feature", "properties": {"heading": 35.7, "location_type": "gate", "airplane_types": "heavy|jets|turboprops", "name": "27", "width_code": "D", "operation_type": "airline", "airline_codes": "baw aea aua nax nrs ibk llc aui ein amc cpa jea pgt swr tsc ctn ryr tap bti ibe thy wow"}, "geometry": {"type": "Point", "coordinates": [-0.17140804, 51.15477422]}}, {"type": "Feature", "properties": {"heading": 348.6, "location_type": "gate", "airplane_types": "jets", "name": "31R", "width_code": "C", "operation_type": "airline", "airline_codes": "baw aea aua nax nrs ibk llc aui ein amc cpa jea pgt swr tsc ctn ryr tap bti ibe thy wow"}, "geometry": {"type": "Point", "coordinates": [-0.16713937, 51.15768154]}}, {"type": "Feature", "properties": {"heading": 348.3, "location_type": "gate", "airplane_types": "heavy", "name": "31", "width_code": "E", "operation_type": "airline", "airline_codes": "baw aea aua nax nrs ibk llc aui ein amc cpa jea pgt swr tsc ctn ryr tap bti ibe thy wow"}, "geometry": {"type": "Point", "coordinates": [-0.16751659, 51.15774612]}}, {"type": "Feature", "properties": {"heading": -11.9, "location_type": "gate", "airplane_types": "jets", "name": "31L", "width_code": "C", "operation_type": "airline", "airline_codes": "baw aea aua nax nrs ibk llc aui ein amc cpa jea pgt swr tsc ctn ryr tap bti ibe thy wow"}, "geometry": {"type": "Point", "coordinates": [-0.16770436, 51.1576411]}}, {"type": "Feature", "properties": {"heading": 348.5, "location_type": "gate", "airplane_types": "jets", "name": "32R", "width_code": "C", "operation_type": "airline", "airline_codes": "baw aea aua nax nrs ibk llc aui ein amc cpa jea pgt swr tsc ctn ryr tap bti ibe thy wow"}, "geometry": {"type": "Point", "coordinates": [-0.1682475, 51.15744732]}}, {"type": "Feature", "properties": {"heading": 8.7, "location_type": "gate", "airplane_types": "heavy", "name": "32", "width_code": "E", "operation_type": "airline", "airline_codes": "baw aea aua nax nrs ibk llc aui ein amc cpa jea pgt swr tsc ctn ryr tap bti ibe thy wow"}, "geometry": {"type": "Point", "coordinates": [-0.16840368, 51.15763345]}}, {"type": "Feature", "properties": {"heading": 30.1, "location_type": "gate", "airplane_types": "jets", "name": "32L", "width_code": "C", "operation_type": "airline", "airline_codes": "baw aea aua nax nrs ibk llc aui ein amc cpa jea pgt swr tsc ctn ryr tap bti ibe thy wow"}, "geometry": {"type": "Point", "coordinates": [-0.16853992, 51.15751337]}}, {"type": "Feature", "properties": {"heading": 32.5, "location_type": "gate", "airplane_types": "jets|turboprops", "name": "33R", "width_code": "C", "operation_type": "airline", "airline_codes": "baw aea aua nax nrs ibk llc aui ein amc cpa jea pgt swr tsc ctn ryr tap bti ibe thy wow"}, "geometry": {"type": "Point", "coordinates": [-0.1692992, 51.15747843]}}, {"type": "Feature", "properties": {"heading": 47.9, "location_type": "gate", "airplane_types": "heavy", "name": "33", "width_code": "E", "operation_type": "airline", "airline_codes": null}, "geometry": {"type": "Point", "coordinates": [-0.16906402, 51.15779653]}}, {"type": "Feature", "properties": {"heading": 67.7, "location_type": "gate", "airplane_types": "jets|turboprops", "name": "33L", "width_code": "C", "operation_type": "airline", "airline_codes": "baw aea aua nax nrs ibk llc aui ein amc cpa jea pgt swr tsc ctn ryr tap bti ibe thy wow"}, "geometry": {"type": "Point", "coordinates": [-0.16916582, 51.15781195]}}, {"type": "Feature", "properties": {"heading": 69.2, "location_type": "gate", "airplane_types": "jets", "name": "34R", "width_code": "C", "operation_type": "airline", "airline_codes": "baw aea aua nax nrs ibk llc aui ein amc cpa jea pgt swr tsc ctn ryr tap bti ibe thy wow"}, "geometry": {"type": "Point", "coordinates": [-0.16982516, 51.15805091]}}, {"type": "Feature", "properties": {"heading": 89.3, "location_type": "gate", "airplane_types": "heavy", "name": "34", "width_code": "E", "operation_type": "airline", "airline_codes": "baw aea aua nax nrs ibk llc aui ein amc cpa jea pgt swr tsc ctn ryr tap bti ibe thy wow"}, "geometry": {"type": "Point", "coordinates": [-0.16926815, 51.15822457]}}, {"type": "Feature", "properties": {"heading": 110.3, "location_type": "gate", "airplane_types": "jets", "name": "34L", "width_code": "C", "operation_type": "airline", "airline_codes": "baw aea aua nax nrs ibk llc aui ein amc cpa jea pgt swr tsc ctn ryr tap bti ibe thy wow"}, "geometry": {"type": "Point", "coordinates": [-0.16946258, 51.15827377]}}, {"type": "Feature", "properties": {"heading": 112.1, "location_type": "gate", "airplane_types": "jets", "name": "35R", "width_code": "C", "operation_type": "airline", "airline_codes": "baw aea aua nax nrs ibk llc aui ein amc cpa jea pgt swr tsc ctn ryr tap bti ibe thy wow"}, "geometry": {"type": "Point", "coordinates": [-0.16969567, 51.15874476]}}, {"type": "Feature", "properties": {"heading": 129.3, "location_type": "gate", "airplane_types": "heavy|jets", "name": "35", "width_code": "E", "operation_type": "airline", "airline_codes": "baw aea aua nax nrs ibk llc aui ein amc cpa jea pgt swr tsc ctn ryr tap bti ibe thy wow"}, "geometry": {"type": "Point", "coordinates": [-0.16904724, 51.15862694]}}, {"type": "Feature", "properties": {"heading": 148.8, "location_type": "gate", "airplane_types": "jets", "name": "35L", "width_code": "C", "operation_type": "airline", "airline_codes": "baw aea aua nax nrs ibk llc aui ein amc cpa jea pgt swr tsc ctn ryr tap bti ibe thy wow"}, "geometry": {"type": "Point", "coordinates": [-0.16913188, 51.15875834]}}, {"type": "Feature", "properties": {"heading": 150.0, "location_type": "gate", "airplane_types": "jets|turboprops", "name": "36R", "width_code": "C", "operation_type": "airline", "airline_codes": "baw aea aua nax nrs ibk llc aui ein amc cpa jea pgt swr tsc ctn ryr tap bti ibe thy wow"}, "geometry": {"type": "Point", "coordinates": [-0.16871284, 51.15897538]}}, {"type": "Feature", "properties": {"heading": 167.7, "location_type": "gate", "airplane_types": "heavy", "name": "36", "width_code": "E", "operation_type": "airline", "airline_codes": "baw aea aua nax nrs ibk llc aui ein amc cpa jea pgt swr tsc ctn ryr tap bti ibe thy wow"}, "geometry": {"type": "Point", "coordinates": [-0.168438, 51.15879674]}}, {"type": "Feature", "properties": {"heading": -169.5, "location_type": "gate", "airplane_types": "jets|turboprops", "name": "36L", "width_code": "C", "operation_type": "airline", "airline_codes": "baw aea aua nax nrs ibk llc aui ein amc cpa jea pgt swr tsc ctn ryr tap bti ibe thy wow"}, "geometry": {"type": "Point", "coordinates": [-0.16839472, 51.15897842]}}, {"type": "Feature", "properties": {"heading": -166.9, "location_type": "gate", "airplane_types": "heavy|jets", "name": "37", "width_code": "D", "operation_type": "airline", "airline_codes": "baw aea aua nax nrs ibk llc aui ein amc cpa jea pgt swr tsc ctn ryr tap bti ibe thy wow"}, "geometry": {"type": "Point", "coordinates": [-0.16771469, 51.15892983]}}, {"type": "Feature", "properties": {"heading": -119.7, "location_type": "gate", "airplane_types": "heavy|jets", "name": "38", "width_code": "D", "operation_type": "airline", "airline_codes": "baw aea aua nax nrs ibk llc aui ein amc cpa jea pgt swr tsc ctn ryr tap bti ibe thy wow"}, "geometry": {"type": "Point", "coordinates": [-0.16727388, 51.15851322]}}, {"type": "Feature", "properties": {"heading": 167.7, "location_type": "gate", "airplane_types": "jets|turboprops", "name": "135", "width_code": "C", "operation_type": "airline", "airline_codes": "ezy baw tom nrs"}, "geometry": {"type": "Point", "coordinates": [-0.18009985, 51.1537412]}}, {"type": "Feature", "properties": {"heading": 167.7, "location_type": "gate", "airplane_types": "jets|turboprops", "name": "135", "width_code": "C", "operation_type": "airline", "airline_codes": "ezy baw tom nrs"}, "geometry": {"type": "Point", "coordinates": [-0.17939163, 51.15384335]}}, {"type": "Feature", "properties": {"heading": 167.7, "location_type": "gate", "airplane_types": "jets|turboprops", "name": "134", "width_code": "C", "operation_type": "airline", "airline_codes": "ezy baw tom nrs"}, "geometry": {"type": "Point", "coordinates": [-0.17859057, 51.1539589]}}, {"type": "Feature", "properties": {"heading": 167.7, "location_type": "gate", "airplane_types": "jets|turboprops", "name": "133", "width_code": "C", "operation_type": "airline", "airline_codes": "ezy baw tom nrs"}, "geometry": {"type": "Point", "coordinates": [-0.17774592, 51.15408073]}}, {"type": "Feature", "properties": {"heading": 348.0, "location_type": "gate", "airplane_types": "jets", "name": "145", "width_code": "E", "operation_type": "airline", "airline_codes": "ezy baw tom nrs"}, "geometry": {"type": "Point", "coordinates": [-0.18008466, 51.15322061]}}, {"type": "Feature", "properties": {"heading": 347.0, "location_type": "gate", "airplane_types": "jets", "name": "144", "width_code": "E", "operation_type": "airline", "airline_codes": "ezy baw tom nrs"}, "geometry": {"type": "Point", "coordinates": [-0.17906839, 51.15335998]}}, {"type": "Feature", "properties": {"heading": 347.3, "location_type": "gate", "airplane_types": "jets|turboprops", "name": "144L", "width_code": "C", "operation_type": "airline", "airline_codes": "ezy baw tom nrs"}, "geometry": {"type": "Point", "coordinates": [-0.17932361, 51.15319431]}}, {"type": "Feature", "properties": {"heading": -12.4, "location_type": "gate", "airplane_types": "jets|turboprops", "name": "143L", "width_code": "C", "operation_type": "airline", "airline_codes": "ezy baw tom nrs"}, "geometry": {"type": "Point", "coordinates": [-0.17812108, 51.15332203]}}, {"type": "Feature", "properties": {"heading": 347.8, "location_type": "gate", "airplane_types": "jets", "name": "143", "width_code": "E", "operation_type": "airline", "airline_codes": "ezy baw tom nrs"}, "geometry": {"type": "Point", "coordinates": [-0.17801297, 51.15350472]}}, {"type": "Feature", "properties": {"heading": -12.4, "location_type": "gate", "airplane_types": "jets|turboprops", "name": "143R", "width_code": "B", "operation_type": "airline", "airline_codes": "ezy baw tom nrs"}, "geometry": {"type": "Point", "coordinates": [-0.17754651, 51.15340001]}}, {"type": "Feature", "properties": {"heading": 348.0, "location_type": "gate", "airplane_types": "jets|turboprops", "name": "144R", "width_code": "B", "operation_type": "airline", "airline_codes": "ezy baw tom nrs"}, "geometry": {"type": "Point", "coordinates": [-0.17878249, 51.15321315]}}, {"type": "Feature", "properties": {"heading": 347.4, "location_type": "gate", "airplane_types": "jets|turboprops", "name": "142R", "width_code": "B", "operation_type": "airline", "airline_codes": "ezy baw tom nrs"}, "geometry": {"type": "Point", "coordinates": [-0.17681853, 51.15355004]}}, {"type": "Feature", "properties": {"heading": 347.7, "location_type": "gate", "airplane_types": "jets", "name": "142", "width_code": "E", "operation_type": "airline", "airline_codes": "ezy baw tom nrs"}, "geometry": {"type": "Point", "coordinates": [-0.17695554, 51.15364974]}}, {"type": "Feature", "properties": {"heading": 347.7, "location_type": "gate", "airplane_types": "heavy|jets|turboprops", "name": "141", "width_code": "E", "operation_type": "airline", "airline_codes": "ezy baw tom nrs"}, "geometry": {"type": "Point", "coordinates": [-0.17599171, 51.15378192]}}, {"type": "Feature", "properties": {"heading": 167.3, "location_type": "gate", "airplane_types": "jets|turboprops", "name": "132", "width_code": "C", "operation_type": "airline", "airline_codes": "ezy baw tom nrs"}, "geometry": {"type": "Point", "coordinates": [-0.17696063, 51.154194]}}, {"type": "Feature", "properties": {"heading": 167.7, "location_type": "gate", "airplane_types": "jets|turboprops", "name": "131", "width_code": "E", "operation_type": "airline", "airline_codes": "ezy baw tom nrs"}, "geometry": {"type": "Point", "coordinates": [-0.17606184, 51.15432363]}}, {"type": "Feature", "properties": {"heading": 168.1, "location_type": "gate", "airplane_types": "jets|turboprops", "name": "130", "width_code": "D", "operation_type": "airline", "airline_codes": "ezy baw tom nrs"}, "geometry": {"type": "Point", "coordinates": [-0.17522351, 51.15444455]}}, {"type": "Feature", "properties": {"heading": 348.4, "location_type": "gate", "airplane_types": "jets|turboprops", "name": "140R", "width_code": "B", "operation_type": "airline", "airline_codes": null}, "geometry": {"type": "Point", "coordinates": [-0.17555445, 51.1536288]}}, {"type": "Feature", "properties": {"heading": 347.7, "location_type": "gate", "airplane_types": "heavy", "name": "140", "width_code": "E", "operation_type": "airline", "airline_codes": "ezy baw tom nrs"}, "geometry": {"type": "Point", "coordinates": [-0.17502885, 51.15391397]}}, {"type": "Feature", "properties": {"heading": 347.9, "location_type": "gate", "airplane_types": "jets|turboprops", "name": "140L", "width_code": "C", "operation_type": "airline", "airline_codes": "ezy baw tom nrs"}, "geometry": {"type": "Point", "coordinates": [-0.17614537, 51.1535614]}}, {"type": "Feature", "properties": {"heading": 167.3, "location_type": "gate", "airplane_types": "jets|turboprops", "name": "150L", "width_code": "C", "operation_type": "airline", "airline_codes": null}, "geometry": {"type": "Point", "coordinates": [-0.18446725, 51.15551757]}}, {"type": "Feature", "properties": {"heading": 167.3, "location_type": "gate", "airplane_types": "heavy|jets|turboprops", "name": "150", "width_code": "E", "operation_type": "airline", "airline_codes": null}, "geometry": {"type": "Point", "coordinates": [-0.18465096, 51.15525191]}}, {"type": "Feature", "properties": {"heading": 167.3, "location_type": "gate", "airplane_types": "jets|turboprops", "name": "150R", "width_code": "C", "operation_type": "airline", "airline_codes": null}, "geometry": {"type": "Point", "coordinates": [-0.18498777, 51.15544268]}}, {"type": "Feature", "properties": {"heading": 347.8, "location_type": "gate", "airplane_types": "heavy|jets|turboprops", "name": "153", "width_code": "D", "operation_type": "cargo", "airline_codes": "ups fdx dhl"}, "geometry": {"type": "Point", "coordinates": [-0.18402834, 51.15725545]}}, {"type": "Feature", "properties": {"heading": 347.4, "location_type": "gate", "airplane_types": "heavy|jets|turboprops", "name": "154", "width_code": "D", "operation_type": "cargo", "airline_codes": "ups fdx dhl"}, "geometry": {"type": "Point", "coordinates": [-0.18474845, 51.15714554]}}, {"type": "Feature", "properties": {"heading": 166.9, "location_type": "gate", "airplane_types": "heavy|jets|turboprops", "name": "151", "width_code": "E", "operation_type": "airline", "airline_codes": null}, "geometry": {"type": "Point", "coordinates": [-0.18569316, 51.15511326]}}, {"type": "Feature", "properties": {"heading": 167.4, "location_type": "gate", "airplane_types": "jets|turboprops", "name": "152L", "width_code": "C", "operation_type": "airline", "airline_codes": null}, "geometry": {"type": "Point", "coordinates": [-0.18655565, 51.15522943]}}, {"type": "Feature", "properties": {"heading": 167.4, "location_type": "gate", "airplane_types": "heavy|jets|turboprops", "name": "152", "width_code": "E", "operation_type": "airline", "airline_codes": null}, "geometry": {"type": "Point", "coordinates": [-0.18673981, 51.1549715]}}, {"type": "Feature", "properties": {"heading": 167.4, "location_type": "gate", "airplane_types": "jets|turboprops", "name": "152R", "width_code": "C", "operation_type": "airline", "airline_codes": null}, "geometry": {"type": "Point", "coordinates": [-0.18708121, 51.15517241]}}, {"type": "Feature", "properties": {"heading": -101.6, "location_type": "gate", "airplane_types": "heavy|jets|turboprops", "name": "160", "width_code": "E", "operation_type": "airline", "airline_codes": null}, "geometry": {"type": "Point", "coordinates": [-0.18489278, 51.15468501]}}, {"type": "Feature", "properties": {"heading": -101.6, "location_type": "gate", "airplane_types": "jets|turboprops", "name": "160L", "width_code": "C", "operation_type": "airline", "airline_codes": null}, "geometry": {"type": "Point", "coordinates": [-0.18460034, 51.15451441]}}, {"type": "Feature", "properties": {"heading": -101.6, "location_type": "gate", "airplane_types": "jets|turboprops", "name": "160R", "width_code": "C", "operation_type": "airline", "airline_codes": null}, "geometry": {"type": "Point", "coordinates": [-0.18482052, 51.1548471]}}, {"type": "Feature", "properties": {"heading": -102.3, "location_type": "gate", "airplane_types": "heavy|jets|turboprops", "name": "161", "width_code": "C", "operation_type": "none", "airline_codes": null}, "geometry": {"type": "Point", "coordinates": [-0.18414951, 51.15372566]}}, {"type": "Feature", "properties": {"heading": 78.2, "location_type": "gate", "airplane_types": "heavy|jets|turboprops", "name": "177", "width_code": "E", "operation_type": "airline", "airline_codes": null}, "geometry": {"type": "Point", "coordinates": [-0.18611269, 51.1544209]}}, {"type": "Feature", "properties": {"heading": 76.7, "location_type": "gate", "airplane_types": "jets|turboprops", "name": "175L", "width_code": "C", "operation_type": "airline", "airline_codes": null}, "geometry": {"type": "Point", "coordinates": [-0.18627491, 51.15396707]}}, {"type": "Feature", "properties": {"heading": 76.7, "location_type": "gate", "airplane_types": "jets|turboprops", "name": "175R", "width_code": "C", "operation_type": "airline", "airline_codes": null}, "geometry": {"type": "Point", "coordinates": [-0.1861363, 51.15360822]}}, {"type": "Feature", "properties": {"heading": 76.7, "location_type": "gate", "airplane_types": "heavy|jets|turboprops", "name": "175", "width_code": "E", "operation_type": "airline", "airline_codes": null}, "geometry": {"type": "Point", "coordinates": [-0.18587742, 51.15376037]}}, {"type": "Feature", "properties": {"heading": 76.7, "location_type": "gate", "airplane_types": "jets|turboprops", "name": "171L", "width_code": "C", "operation_type": "airline", "airline_codes": null}, "geometry": {"type": "Point", "coordinates": [-0.18584341, 51.15264249]}}, {"type": "Feature", "properties": {"heading": 77.5, "location_type": "gate", "airplane_types": "jets|turboprops", "name": "171R", "width_code": "C", "operation_type": "airline", "airline_codes": null}, "geometry": {"type": "Point", "coordinates": [-0.18570335, 51.1522549]}}, {"type": "Feature", "properties": {"heading": 77.4, "location_type": "gate", "airplane_types": "heavy|jets|turboprops", "name": "171", "width_code": "E", "operation_type": "airline", "airline_codes": null}, "geometry": {"type": "Point", "coordinates": [-0.18541497, 51.15243023]}}, {"type": "Feature", "properties": {"heading": 76.9, "location_type": "gate", "airplane_types": "heavy|jets|turboprops", "name": "173", "width_code": "E", "operation_type": "airline", "airline_codes": null}, "geometry": {"type": "Point", "coordinates": [-0.18564007, 51.15309316]}}, {"type": "Feature", "properties": {"heading": 347.9, "location_type": "gate", "airplane_types": "heavy|jets|turboprops", "name": "157", "width_code": "E", "operation_type": "cargo", "airline_codes": "ups fdx dhl"}, "geometry": {"type": "Point", "coordinates": [-0.18712469, 51.15686061]}}, {"type": "Feature", "properties": {"heading": 346.5, "location_type": "gate", "airplane_types": "heavy|jets|turboprops", "name": "158", "width_code": "E", "operation_type": "cargo", "airline_codes": "ups fdx dhl"}, "geometry": {"type": "Point", "coordinates": [-0.18831715, 51.15672295]}}, {"type": "Feature", "properties": {"heading": -12.4, "location_type": "gate", "airplane_types": "jets|turboprops", "name": "159", "width_code": "D", "operation_type": "cargo", "airline_codes": "dhl fdx ups"}, "geometry": {"type": "Point", "coordinates": [-0.18915816, 51.15665717]}}, {"type": "Feature", "properties": {"heading": 257.5, "location_type": "gate", "airplane_types": "jets|turboprops", "name": "180", "width_code": "C", "operation_type": "cargo", "airline_codes": null}, "geometry": {"type": "Point", "coordinates": [-0.18960951, 51.15529576]}}, {"type": "Feature", "properties": {"heading": -101.8, "location_type": "gate", "airplane_types": "heavy|jets|turboprops", "name": "178", "width_code": "D", "operation_type": "cargo", "airline_codes": null}, "geometry": {"type": "Point", "coordinates": [-0.18967069, 51.15472621]}}, {"type": "Feature", "properties": {"heading": -102.2, "location_type": "gate", "airplane_types": "heavy|jets|turboprops", "name": "176", "width_code": "E", "operation_type": "airline", "airline_codes": null}, "geometry": {"type": "Point", "coordinates": [-0.18957122, 51.15394464]}}, {"type": "Feature", "properties": {"heading": -102.4, "location_type": "gate", "airplane_types": "jets|turboprops", "name": "176R", "width_code": "C", "operation_type": "airline", "airline_codes": null}, "geometry": {"type": "Point", "coordinates": [-0.18931519, 51.15410269]}}, {"type": "Feature", "properties": {"heading": -102.4, "location_type": "gate", "airplane_types": "jets|turboprops", "name": "176L", "width_code": "C", "operation_type": "airline", "airline_codes": null}, "geometry": {"type": "Point", "coordinates": [-0.18910307, 51.15373429]}}, {"type": "Feature", "properties": {"heading": -102.4, "location_type": "gate", "airplane_types": "heavy|jets|turboprops", "name": "174", "width_code": "E", "operation_type": "cargo", "airline_codes": null}, "geometry": {"type": "Point", "coordinates": [-0.18934026, 51.15328237]}}, {"type": "Feature", "properties": {"heading": -102.4, "location_type": "gate", "airplane_types": "heavy|jets|turboprops", "name": "172", "width_code": "E", "operation_type": "airline", "airline_codes": null}, "geometry": {"type": "Point", "coordinates": [-0.18910471, 51.15262011]}}, {"type": "Feature", "properties": {"heading": -102.4, "location_type": "gate", "airplane_types": "jets|turboprops", "name": "172L", "width_code": "C", "operation_type": "airline", "airline_codes": null}, "geometry": {"type": "Point", "coordinates": [-0.18864223, 51.15244102]}}, {"type": "Feature", "properties": {"heading": -102.4, "location_type": "gate", "airplane_types": "jets|turboprops", "name": "172R", "width_code": "C", "operation_type": "airline", "airline_codes": null}, "geometry": {"type": "Point", "coordinates": [-0.18900831, 51.15275101]}}, {"type": "Feature", "properties": {"heading": -102.3, "location_type": "gate", "airplane_types": "heavy|jets|turboprops", "name": "170", "width_code": "E", "operation_type": "cargo", "airline_codes": null}, "geometry": {"type": "Point", "coordinates": [-0.18886998, 51.15195833]}}, {"type": "Feature", "properties": {"heading": 77.7, "location_type": "gate", "airplane_types": "jets|turboprops", "name": "233R", "width_code": "C", "operation_type": "airline", "airline_codes": null}, "geometry": {"type": "Point", "coordinates": [-0.1950787, 51.1534526]}}, {"type": "Feature", "properties": {"heading": 77.8, "location_type": "gate", "airplane_types": "heavy|jets|turboprops", "name": "233", "width_code": "E", "operation_type": "airline", "airline_codes": null}, "geometry": {"type": "Point", "coordinates": [-0.19506409, 51.15364578]}}, {"type": "Feature", "properties": {"heading": 77.7, "location_type": "gate", "airplane_types": "jets|turboprops", "name": "233L", "width_code": "C", "operation_type": "airline", "airline_codes": null}, "geometry": {"type": "Point", "coordinates": [-0.19539597, 51.15380566]}}, {"type": "Feature", "properties": {"heading": 77.9, "location_type": "gate", "airplane_types": "heavy|jets|turboprops", "name": "234", "width_code": "E", "operation_type": "airline", "airline_codes": null}, "geometry": {"type": "Point", "coordinates": [-0.19533601, 51.15442357]}}, {"type": "Feature", "properties": {"heading": 77.7, "location_type": "gate", "airplane_types": "jets|turboprops", "name": "234L", "width_code": "C", "operation_type": "airline", "airline_codes": null}, "geometry": {"type": "Point", "coordinates": [-0.19566439, 51.15458847]}}, {"type": "Feature", "properties": {"heading": 77.7, "location_type": "gate", "airplane_types": "jets|turboprops", "name": "234R", "width_code": "C", "operation_type": "airline", "airline_codes": null}, "geometry": {"type": "Point", "coordinates": [-0.19518223, 51.15425495]}}, {"type": "Feature", "properties": {"heading": 77.7, "location_type": "gate", "airplane_types": "jets|turboprops", "name": "235L", "width_code": "C", "operation_type": "airline", "airline_codes": null}, "geometry": {"type": "Point", "coordinates": [-0.19593721, 51.15536524]}}, {"type": "Feature", "properties": {"heading": 77.7, "location_type": "gate", "airplane_types": "heavy|jets|turboprops", "name": "235", "width_code": "E", "operation_type": "airline", "airline_codes": null}, "geometry": {"type": "Point", "coordinates": [-0.19553077, 51.15522065]}}, {"type": "Feature", "properties": {"heading": 77.7, "location_type": "gate", "airplane_types": "jets|turboprops", "name": "235R", "width_code": "C", "operation_type": "airline", "airline_codes": null}, "geometry": {"type": "Point", "coordinates": [-0.19545043, 51.1550405]}}, {"type": "Feature", "properties": {"heading": 77.7, "location_type": "gate", "airplane_types": "heavy|jets|turboprops", "name": "230", "width_code": "E", "operation_type": "airline", "airline_codes": null}, "geometry": {"type": "Point", "coordinates": [-0.19420102, 51.15130532]}}, {"type": "Feature", "properties": {"heading": 77.7, "location_type": "gate", "airplane_types": "jets|turboprops", "name": "230R", "width_code": "C", "operation_type": "airline", "airline_codes": null}, "geometry": {"type": "Point", "coordinates": [-0.19426872, 51.15110215]}}, {"type": "Feature", "properties": {"heading": 77.7, "location_type": "gate", "airplane_types": "jets|turboprops", "name": "230L", "width_code": "C", "operation_type": "airline", "airline_codes": null}, "geometry": {"type": "Point", "coordinates": [-0.19457802, 51.1514552]}}, {"type": "Feature", "properties": {"heading": 77.3, "location_type": "hangar", "airplane_types": "heavy|jets", "name": "Hangar_7", "width_code": "E", "operation_type": "none", "airline_codes": null}, "geometry": {"type": "Point", "coordinates": [-0.19237391, 51.15373073]}}, {"type": "Feature", "properties": {"heading": 77.7, "location_type": "gate", "airplane_types": "jets|turboprops", "name": "231L", "width_code": "C", "operation_type": "airline", "airline_codes": null}, "geometry": {"type": "Point", "coordinates": [-0.19485077, 51.15223862]}}, {"type": "Feature", "properties": {"heading": 77.7, "location_type": "gate", "airplane_types": "jets|turboprops", "name": "231R", "width_code": "C", "operation_type": "airline", "airline_codes": null}, "geometry": {"type": "Point", "coordinates": [-0.19452001, 51.15188889]}}, {"type": "Feature", "properties": {"heading": 76.4, "location_type": "gate", "airplane_types": "heavy|jets|turboprops", "name": "231", "width_code": "F", "operation_type": "cargo", "airline_codes": null}, "geometry": {"type": "Point", "coordinates": [-0.19452885, 51.15208249]}}, {"type": "Feature", "properties": {"heading": 77.7, "location_type": "gate", "airplane_types": "jets|turboprops", "name": "232R", "width_code": "C", "operation_type": "airline", "airline_codes": null}, "geometry": {"type": "Point", "coordinates": [-0.19480101, 51.1526704]}}, {"type": "Feature", "properties": {"heading": 77.7, "location_type": "gate", "airplane_types": "jets|turboprops", "name": "232L", "width_code": "C", "operation_type": "airline", "airline_codes": null}, "geometry": {"type": "Point", "coordinates": [-0.19512433, 51.15301806]}}, {"type": "Feature", "properties": {"heading": 77.6, "location_type": "gate", "airplane_types": "heavy|jets|turboprops", "name": "232", "width_code": "F", "operation_type": "airline", "airline_codes": null}, "geometry": {"type": "Point", "coordinates": [-0.19479732, 51.1528618]}}, {"type": "Feature", "properties": {"heading": 332.5, "location_type": "gate", "airplane_types": "jets", "name": "48R", "width_code": "C", "operation_type": "none", "airline_codes": null}, "geometry": {"type": "Point", "coordinates": [-0.17021176, 51.1603134]}}, {"type": "Feature", "properties": {"heading": 322.6, "location_type": "gate", "airplane_types": "jets", "name": "47L", "width_code": "C", "operation_type": "none", "airline_codes": null}, "geometry": {"type": "Point", "coordinates": [-0.17076942, 51.16002375]}}, {"type": "Feature", "properties": {"heading": -94.9, "location_type": "gate", "airplane_types": "jets", "name": "38L", "width_code": "C", "operation_type": "none", "airline_codes": null}, "geometry": {"type": "Point", "coordinates": [-0.16714452, 51.15849824]}}, {"type": "Feature", "properties": {"heading": -123.1, "location_type": "gate", "airplane_types": "jets", "name": "38R", "width_code": "C", "operation_type": "none", "airline_codes": null}, "geometry": {"type": "Point", "coordinates": [-0.16692907, 51.15878359]}}, {"type": "Feature", "properties": {"heading": -150.3, "location_type": "gate", "airplane_types": "jets", "name": "37L", "width_code": "C", "operation_type": "none", "airline_codes": null}, "geometry": {"type": "Point", "coordinates": [-0.16763262, 51.15892554]}}, {"type": "Feature", "properties": {"heading": 173.7, "location_type": "gate", "airplane_types": "jets", "name": "37R", "width_code": "C", "operation_type": "none", "airline_codes": null}, "geometry": {"type": "Point", "coordinates": [-0.16782131, 51.15917963]}}]}